Name,Description,Add,Region,Town,Tel,Px,Py,ParkingSpace,Type,Zone
萬金龍溫泉民宿,位於新北市的民宿,新北市萬里區萬里加投45之6號,新北市,萬里區,886-2-24986166,121.639402,25.210825,20.0,民宿,N
九份觀海樓民宿,位於新北市的民宿,新北市瑞芳區基山街183之1號,新北市,瑞芳區,886-2-24966123,121.84312,25.107625,0.0,民宿,E
天籟山城,位在天籟飯店旁靜謐的溫泉社區別墅備有賞櫻廚房，巴西紫檀泡茶桌三五好友享受寧靜的優閒時光頂樓可看海，賞金山夜景放空靜思享受山景，謝絕吵雜開趴!,新北市金山區山城路39號,新北市,金山區,886-989-339193,121.59530600000001,25.201472,,民宿,N
金瓜石101民宿,,新北市瑞芳區祈堂路101號,新北市,瑞芳區,886-932-363830,121.860115,25.108968,,民宿,E
九份山城逸境民宿,新北｜山城逸境．山城裡的一窗寧靜搭車繞著九份山腰，視線遙望遠方的山嵐，正當陽光透出雲霧，半座翠綠的山頭變得暖澄。走下車，鼻息輕輕呼吸著水的氣味瀰漫，想起先前電話那頭主人Min的叮嚀，前來的路上，得行過老街喧鬧，步行至街尾，迎接你的會是九份寧靜，此時，你已能預見山城逸境的優雅模樣。邊坡旁的幽靜生活踩在角落沾上青苔的石階梯下探，依地勢而生的小徑左拐右彎，沿途錯身山城居民的日常生活，亦不時停下腳步，凝望遠方片刻靜止的山與海。抵達相約的九份國小，Min帶著甜甜的笑容迎接你的到來，隨著Min的腳步，不到三分鐘的距離，山城逸境的門隱身在石徑的邊坡旁。帶上大門、脫下鞋，換上Min準備的室內拖，踩在暖色的木地板，身置暖色的燈光，頓時褪去山中的寒氣，放鬆在木質圍繞的和緩氣息。由於一開始是以家人們休憩去處的規格打造，從玉檀木的實木地板到精選的優渥實木家具，屋子裡的每個角落都吐露著Min一家人對於生活質感的堅持。坐落在山城一角的屋子，為城裡忙碌的生活的你，提供幽靜的落腳。睡醒在恬逸的風景裡輕輕打開每一扇房門，彷彿也打開一扇扇迎向九份風景的任意門，整面落地窗前，止不住斜陽爬上你們的腳邊，望著眼前的山巒一路層層疊疊相連至海灣，海與天連成一線，緩緩地，身體靜置在窗邊的桌椅前，輕輕墜進柔軟的思緒裡。如果住進樓上有閒房，你還能擁有屬於你自己的小客廳，慵懶地任你窩進沙發裡，與窗邊的景色相伴。時間默默將白日推移至傍晚的天光漸暗，你在靜謐裡相伴景緻閱讀與書寫，直至山城的燈火一盞一盞點亮山腰，才輕輕掩上書扉，準備沐浴一日的疲倦。Min貼心設備浴室暖房乾燥機，讓你隨時暖和舒適地待在房裡，沐浴後的時光，用藍牙音響耳機播放你手機裡最愛的歌曲，躺上鬆軟的雙人大床，看著窗外搖曳山徑的燈火，迷濛的眼輕輕相闔，也讓身軀與心靈緩緩進入熟睡的美夢之中。,新北市瑞芳區基山街195號,新北市,瑞芳區,886-920-231712,121.843021,25.107618,,民宿,E
愛莉亞汽車旅館,位於新北市的旅館,新北市三峽區中山路169巷10號(代表號),新北市,三峽區,886-2-26741133,121.363821,24.935945999999998,0.0,汽車旅館,S
好事學田民宿,大家好 新村芳位在瑞芳火車站旁，從台北搭乘火車最快35分鐘即可到達，周邊連結九份、金瓜石、平溪、侯硐⋯，有山有海，不用多花時間，就可以轉換眼前的風景。新村芳附屬經營有息書院、村落小客廳與好事學田旅宿，致力推動學習型旅行創造人與人的美好連結。,新北市瑞芳區瑞芳街37號,新北市,瑞芳區,886-2-24960337,121.80644199999999,25.109341,0.0,民宿,E
九份未眠者花園民宿,優雅佇立在九份的一隅，約莫百年的光景，伴著旅人的旅程，我們一同前往到不一樣的境地。灌溉栽植的花園，有著旅人歡愉的笑聲和令人神往的海天美景！分享生活的點滴及豐沛的情感，讓多少旅人留下無垠的眷戀！每個房間都是一個繾綣動人的情節！像齣戲般，任人感受自己的選擇與氛圍！而如家般感的一字「Homely」是我們想給旅人一絲期待！從房間、起居細節甚至早餐，手作溫馨，不假他人，希望您的旅行，幸福有機。,新北市瑞芳區石埤巷78號,新北市,瑞芳區,886-938-020916,121.842254,25.108404999999998,0.0,民宿,E
幸福讚精品飯店,"新莊幸福讚精品飯店提供高品質住宿和優質服務，讓您到訪台北市依然感覺賓至如歸。 這間4星級酒店距離機場僅有33 KM的路程，交通方便。 酒店位置優越，住客前往市區內熱門景點方便快捷。新莊幸福讚精品飯店提供優質貼心的服務和方便實用的設施，贏得了客人的一致好評。 客人可享受酒店的服務如所有房間免費 Wi-Fi, 每日客房清潔服務, 雜貨速遞, 的士服務, 輪椅無障礙友善設施。 每間房都可感受到新莊幸福讚精品飯店的獨有風格，客人還可盡情享受酒店提供的壁櫥, 清潔用品, 免費紅茶, 毛巾, 已鋪地毯等設施。 酒店各種娛樂設施讓您在入住期間享受更多樂趣。 新莊幸福讚精品飯店地理位置優越，為客人提供一流服務。餐飲提供-中式海鮮合菜,適合商務聚餐/家庭聚會,還有提供文定迎娶/結婚喜宴及中式小吃餐廳會議室提供商務開會, 歡迎來電洽詢!!",新北市新莊區思源路332巷9號1至8樓及11號2至5樓,新北市,新莊區,886-2-29975186,121.46114299999999,25.050988,62.0,飯店/旅店,W
享來大旅社,位於新北市的旅館,"新北市淡水區中山路129巷22,23號3至7樓(1樓門廳）",新北市,淡水區,886-2-26228661,121.44170700000001,25.170461,0.0,旅社,N
金瓜石藝棧景觀渡假別墅民宿,感動美景+美食饗宴+溫馨客房+珍貴幸福感+大自然交響樂，環繞音響和表演舞台，將帶給您滿滿回憶，不虛此行的滿足感，讓您流連忘返，欲走還留，回味無窮!讓您盡情徜徉在山城懷抱和極佳視野景觀與寧靜的氛圍宛如置身仙境，置身美麗畫中!到[藝棧仙境]享受身心靈沉澱，放鬆與休閒，享受令人感動的美景和珍貴的幸福感以及深度文化，生態，景觀之旅是度假旅遊第一選擇!最真人間仙境，最美世外桃源，美麗東方淨土，一生必遊的獨特絕佳景點!來過[金瓜石藝棧]才知天地間居然有這樣美麗的地方，才知台灣之美，沒來過[藝棧仙境]別說遊遍全世界! [藝棧]美景甲世界， [棧房]看盡天下景!遊了[仙境藝棧]，此生沒有遺憾!來這裡宛如去了八個國家還可享受世界級山海景觀，高雅幽靜VILLA，人間仙境，休閒勝地!世外桃源品嚐極味，美食饗宴，視覺享受，享美食，賞美景，悠閒度假，身心靈享受絕佳處所，到[藝棧仙境]享受悠閒幸福時光是您絕佳選擇，最佳禮物和蜜月之旅!好吃、好睡、好廚[藝]，好山、好水、好客[棧]!住宿藝棧宛如在家悠閒自在是最幸福快樂旅遊度假經驗!認識世界美麗山海風光從[藝棧仙境]開始!若未能規畫至此旅遊度假遊將會是一大遺憾!在旅宿業中極負盛名的金瓜石藝棧，世外桃源，層層山巒，海天一色的優美景色可讓您盡情享受唯美，詩情，夢幻身心靈仙境之旅，已吸引30幾國旅遊人士慕名而來，歡迎您來LONG STAY享受獨一無二獨特絕佳景色!本店榮獲政府多項獎項及認證，品質保證，除了讓您安心享受美食也讓您住得溫馨，私密，安全，安心，愜意，舒適，衛生，有保障又可靠。景觀餐廳提供中西式料理，飲品，咖啡，茶點，海鮮料理台菜及台式合菜，美食產品、地方特產宅配，團體Buffet和下午茶及DIY BBQ，是聚餐，宴會，開會，洽談業務，婚紗外景，休閒旅遊最有幸福感的獨特景點!套裝行程或依需求計時遊程，讓旅遊更加豐盛與滿意!想知道什麼叫做: 1.享受 2.感動美景和珍貴幸福感3.最真人間仙境、人間天堂 4.奇幻的海市蜃樓 5.山在虛無飄渺間 6.層層山巒、海天一色 7.氣象萬千，變化多端 8.最美的世外桃源，美麗的東方淨土 9.大自然的交響樂，環繞音響和表演舞台10.真正美，天地間那有這麼美的地方11.流連忘返，欲走還留 12.身心靈享受與仙境之旅13.典型的龍穴14.不虛此行...等意境到[藝棧仙境]就可暸解其涵意!世界旅遊不能錯過的獨特絕佳景點!,新北市瑞芳區山尖路2號,新北市,瑞芳區,886-2-24961010,121.85439,25.115612,,民宿,E
千嘉旅店,位於新北市的旅館,新北市板橋區館前西路139號8樓,新北市,板橋區,886-2-29695066,121.456291,25.007824,,飯店/旅店,W
涵館民宿,想要更深入了解金九地區人文、歷史、地質地貌景觀及生態嗎？問堡主就對啦！帶著閒適的心情，來九份，來我們的台北民宿，讓我們招待你...,新北市瑞芳區輕便路282號,新北市,瑞芳區,886-2-24965160,121.843979,25.109213,0.0,民宿,E
莉塔屋民宿,九份莉塔屋提供旅人舒適乾淨的住宿空間，提供帶免費無線網絡連接的客房，每日早餐，距離九份老街有5分鐘步行路程。九份莉塔屋距離九份黃金瀑布、九份金礦博物館和瑞芳火車站均有10分鐘車程，距離侯硐火車站有15分鐘車程，距離台北松山機場有50分鐘車程。冷暖空調客房均設有平面電視、帶淋浴、吹風機和免費洗浴用品的私人浴室。,新北市瑞芳區汽車路35號,新北市,瑞芳區,886-2-24968091,121.844609,25.109942,,民宿,E
香奈爾汽車旅館 (新莊店),香奈爾汽車旅館-新莊館位於輔仁大學對面，捷運輔大線附近(步行約5~10分鐘) ，交通便捷，當地有三百年歷史的新莊老街、文昌祠、大眾廟。本館MINI BAR上還準備了各式沖泡熱飲、小點心及冰箱冷飲，在設備上本館設有MOD隨選系統、情趣按摩椅、寬敞舒適的按摩浴缸、蒸氣室、舒適烤箱等設施也一應俱全，讓您享受多元化的休閒設備，並提供免費有線、無線網路等服務，滿足在外旅人、商務人士、自由行背包客的需求，讓消費者可以安心使用、快樂享受，讓平時上班的緊繃可以充份舒緩壓力。 因為價格十分迷人關係，許多住客願意多付少許費用來升級體驗更精緻的房型，除了商務客房外，房間分成典雅裝潢的精品客房、明快簡潔的豪華客房、大理石浴缸的溫泉客房、家庭溫馨的四人客房。極品客房、精品客房是本館最受歡迎的房型，本館提供寬敞的空間可以讓您觀賞VOD多部影片，享受最悠閒的時光。本館服務人員均受嚴格的訓練，態度大方和藹，服務客人力求客人至上，讓您感受賓至如歸的感覺。注意事項：※休息不接受預訂，以現場房況為主※可接受團體訂房 ※禁止攜帶寵物,新北市新莊區後港一路187號,新北市,新莊區,886-2-29065555,121.433697,25.028412,,汽車旅館,W
海洋之家民宿,位於新北市的民宿,新北市萬里區港東路9號,新北市,萬里區,886-2-24927690,121.68673999999999,25.203349,0.0,民宿,N
南國旅社,位於新北市的旅館,新北市板橋區館前西路265巷1號1至5樓,新北市,板橋區,886-2-29682121,121.45407800000001,25.008293,0.0,旅社,W
幸福民宿,"緣起住於新北市雙溪區的幸福民宿為全台首創結合傳統理髮店及民宿的特色民宿，民宿女主人為擁有近3.40年老經驗的“前成功嶺之花”，在雙溪當地享有極佳的口碑;當初二位緣起於成功嶺，男主人可說是獨具慧眼，費盡千辛萬苦，才娶回家的“好牽手”！ 男主人為在地的老雙溪人，甫自雙溪鄉退役的鄉民代表，現在仍義務擔任“諮詢委員”，為人熱心且忙於公益努力為鄉民奔波,因為偶然的機會，延續了之前的幸福理髮廳，夫妻同心,一路幸福下去的成立了幸福民宿，許願二人齊手努力將幸福傳遞給更多的人。",新北市雙溪區太平路77號,新北市,雙溪區,886-2-24931962,121.864597,25.035412,,民宿,E
馥華飯店,位於新北市的旅館,新北市板橋區民生路2段251號1樓及3至12樓,新北市,板橋區,886-2-22501717,121.468042,25.022029999999997,0.0,飯店/旅店,W
九份山城山海灣民宿,位於新北市的民宿,新北市瑞芳區街頂巷22號,新北市,瑞芳區,886-936-361406,121.844559,25.108062,0.0,民宿,E
美錦樂賓館,位於新北市的旅館,新北市板橋區南雅東路118號,新北市,板橋區,886-2-29609933,121.45342099999999,25.008369000000002,,旅社,W
佳賓旅社,位於新北市的旅館,"新北市樹林區博愛街2巷24,26,28號",新北市,樹林區,886-2-26812329,121.42685900000001,24.992846,,旅社,W
魚礁十五號民宿,北海岸旅人的解憂棲地耗時五年設計打造出來的魚礁十五號民宿，不僅溫馨舒適且極度重視人與山海美景互動的空間，為來自世界與台灣各地熱愛海洋與自然的旅人們，提供輕快溫馨的棲地。旅人們游向濱海步道與貝殼砂，游向潮境公園與水金九山城，再短短游回來魚礁十五號吐泡泡，或者像魚一樣停在魚礁的任何地方，用一整天看路、看山、看大海；人說山中無甲子，或許海底更解憂。人生從不相同，建築也是魚礁是海中魚類居住的地方，魚兒們會群聚在這裡棲息覓食，魚礁十五號的設計靈感來自不規則狀的魚礁，每層樓的每個房間都是由賴大哥設計出不同的結構，圓弧狀的玻璃陽台、氣泡型的落地窗、潔白的洗石子、原住民圖騰發想的馬賽克拼貼和摹仿熱帶魚的室內配色，每一個小細節都不重複，處處顯現自建海洋民宿的單純用心。換個方式呼吸，生活就會像旅行熱愛潛水的賴大哥是土生土長的基隆男兒，他用最淳樸的目光看望台灣北海岸的蔚藍三十年，從魚到水、從山到海、從洋流到潮汐。魚礁十五號是他詮釋在地海岸的方式——純淨、多彩、不做作。,新北市瑞芳區建基路2段15號2樓,新北市,瑞芳區,886-933-929603,121.80731899999999,25.133008,,民宿,E
慢慢民宿,位於新北市的民宿,新北市瑞芳區基山街267號,新北市,瑞芳區,886-2-24977466,121.839188,25.107248000000002,,民宿,E
沃客伽洲旅社,位於新北市的旅館,新北市三重區成功路97號8至9樓,新北市,三重區,886-2-29703733,121.488095,25.051515,10.0,旅社,W
山頂厝,位於桃園市的民宿,桃園市復興區義盛里1鄰12-1號,新北市,萬里區,886-3-3266276,121.637872,25.173757000000002,,民宿,N
木質元素民宿,,新北市瑞芳區五號路47號,新北市,瑞芳區,886-978-908252,121.85515500000001,25.111461,,民宿,E
波麗士河堤景觀民宿,,新北市瑞芳區三爪子坑路99之1號,新北市,瑞芳區,886-2-24063292,121.81121399999999,25.107333999999998,,民宿,E
迦南民宿,位於新北市的民宿,新北市瑞芳區汽車路48號,新北市,瑞芳區,886-932-305216,121.84572299999999,25.111420000000003,,民宿,E
昇園賓館,位於新北市的旅館,新北市樹林區鎮前街3之4號5樓,新北市,樹林區,886-2-26810868,121.42636499999999,24.993166,,旅社,W
麗景民宿,位於新北市的民宿,新北市瑞芳區輕便路93號3樓,新北市,瑞芳區,886-2-24975217,121.844996,25.109030999999998,,民宿,E
阿里磅生態農場民宿,阿里磅生態農場位於新北市石門區，農場佔地十餘公頃，標高130公尺左右，是一個獨立優美的谷地，廣闊的園區內僅有兩、三處建築，都是以原先的農舍再利用作為遊客住宿或活動的場地。保留原始風貌讓自然逐漸回復。很適合喜歡靜靜欣賞大自然美好的朋友。園區所見樹林原始而茂密，幾處開闊地原本為水田，目前闢為草坪或水生池，蛙鳴不絕於耳。這兒多樣活潑的動植物，最適合從事自然生態之旅。四季都有極為豐富的生態，昆蟲和蛙類相當的多。農場在規劃時，即以不做大量設施為目標，以保留原始風貌讓自然逐漸回復，廣闊的園區內僅有2、3處建築，都是以原先的農舍再利用作為遊客住宿或活動的場地。這兒錯落交接的溼地生態系、溪流生態系、開曠草原生態系、池塘(湖泊）生態系、森林生態系、孕育了多樣活潑的動植物，最適合從事自然生態之旅。農場生態非常豐富，共紀錄了100餘種蝴蝶、70餘種鳥類、19種蛙類以及60餘種蜻蜓。夏季時昆蟲進入盛況，白天有蝴蝶、蜻蜓、蟬及甲蟲，夜間有螢火 蟲、青蛙（包括瀕臨絕種台北赤蛙）及出土脫殼的蟬等。農場也積極致力於教育工作，除培訓專業生態解說員，同時規劃各種健康有趣、寓教於樂的生態活動，是很適合校外教學的地方。農場也提供餐飲和住宿，歡迎您來享用。餐點方面為可口的家常菜，利用在地食材，如石門茶、三芝黑毛豬肉、放山雞、海鮮及蔬菜等烹飪成美食；在戶外咖啡座休息時，您可以邊品嚐咖啡香，邊品味湖光山色。阿里磅生態農場民宿也提供清潔、舒適的居住環境，希望大家透過共同生活，學習如何珍惜自然資源。,新北市石門區乾華里阿里磅82之1號,新北市,石門區,886-2-26382745,121.582603,25.264564,,民宿,N
四個孩子民宿,位於新北市的民宿,新北市三芝區茂長里芝柏路85號,新北市,三芝區,886-2-26361104,121.510779,25.257202,0.0,民宿,N
海霞您的家,"https://aodiwu.weebly.com/1.有說 有玩 還有你專屬影片的【親親海洋】 紀錄片2. 東北角山海戀的完美選擇3.資深導覽解說~專人服務~清新小旅行的選擇 【 旅行 美食 導覽】一次到位 4.簡約 低碳環保民宿. 提供洗衣晾衣空間5.民宿主人 (紀錄片導演)，有空時可小拍旅客留影 http://aodi.pixnet.net/blog/post/463142078好客民宿自我介紹 阿【海】(半世紀漁人的傳主)和阿【霞】，最溫暖的依靠還是家，希望每個來住的旅人都能當做【您的家】來住的心情，而且能重新出發面對新的人生目標。『生活是旅行的實踐，旅行是生活的延伸』『認識才有感覺，了解才更有感情』『 全球思維 在地行動』人親土親 台灣東北角海岸邊  澳底是家 海洋是家希望能一點一滴帶動地方繁榮動力。樂活   悠活   最美的海岸   位於在台灣最美麗的海岸-東北角★澳底Aodi  有說 有玩   還有你專屬影片~東北角山海戀的完美選擇 最棒的旅程  (台灣新北市貢寮區澳底 Aodi )最溫暖的民宿...一個由紀錄片導演所開的特色民宿資深導覽解說~專人服務~清新小旅行的選擇 【 旅行 美食 導覽】一次到位適合族群 :  國際背包客.環保一族. 經濟旅遊.深度旅遊.親子旅遊  ~~旅游與生活都是最好的學習~~~~◎ 珍惜資源，愛護地球， ^^^請自備盥洗用品(牙刷 牙膏 毛巾)^^^^◎ 如有特殊或疑問，訂房專線 請來電0935-204895詢問。◎住宿請採事前預約制,請3天前預約，請勿當天才訂(不一定有空房)English serviceLISA　LINE ID: 0933915936WECHAT: aodiwu        Facebook: aodiwuhttps://www.facebook.com/TaipeiAodi/",新北市貢寮區仁愛路38號,新北市,貢寮區,886-9-35204895,121.92506200000001,25.053227,,民宿,E
街角十二民宿,,新北市金山區金包里街12號,新北市,烏來區,886-988-052519,121.549172,24.856875,,民宿,S
井上天花,,新北市瑞芳區三爪子坑路6號,新北市,瑞芳區,886-2-24973755,121.81021000000001,25.106846,,民宿,E
沐舍時尚酒店,「沐舍時尚酒店」，座落於新北市中和區中正路，介於二級古蹟有江南庭園風格之稱的台灣古式庭園代表林家花園及多處觀光遊憩景點。緊鄰中和遠東工業園區及中和交流道，接臨永和、板橋、土城等工商要地，交通及生活機能非常便利。「沐舍時尚酒店」是由國內知名的建築設計團隊，攜手打造，規劃有商務客房、休閒客房、商務中心、日式料理餐廳及VIP專屬停車場。「沐舍時尚酒店」秉持著永續經營的理念，提供最高服務品質，全館擁有77間舒適客房，結合典雅、時尚的風格與設計元素，搭配柔和舒適的空間，引領時尚風潮。除了有專業親切的服務人員外，客房採用瑞典Bravat、義大利Cassido等系列進口之衛浴設備，亦特別選用國內外知名品牌高級寢具及精緻備品，每房皆有快速便利的無線寬頻，可隨時隨地輕鬆上網，不論在軟體和硬體的設施上均有最完善的品質，提供差旅商務、休閒觀光及國人渡假的最佳選擇。,新北市中和區中正路776號,新北市,中和區,886-2-66202888,121.485301,25.000404,0.0,飯店/旅店,W
幸福棧,位於新北市的民宿,新北市瑞芳區山尖路173號,新北市,瑞芳區,886-9-08830173,121.852892,25.112326,0.0,民宿,E
蘭竹大飯店,位於新北市的旅館,新北市板橋區東門街13及15號,新北市,板橋區,886-2-29680186,121.45842900000001,25.008614,,飯店/旅店,W
香奈爾汽車旅館,,新北市蘆洲區長樂路56號,新北市,蘆洲區,886-2-82855555,121.463024,25.086402,,汽車旅館,W
綠野村山莊民宿,綠野村山莊民宿位於瑞芳往十分的106縣道，絕佳的地勢和自建的園區，有如獨立於山中的一座莊園。主人陳東波和沈月娥伉儷，在台北經商多年，回到瑞芳的山上，包括園區規劃、整地建屋、植樹種花等，全都自己來，當初荒蕪的山坡，如今已是綠意盎然，充滿生機的山莊。由於環境天然、隱密，在這兒，終年可見台灣國寶－台灣藍鵲群聚，甚至於築巢、生長。白色的建築外觀，拱型窗為方正的格局增添視覺的律動。庭院的台灣欒樹枝葉茂密，樹葉隨著不同的季節變色，極具詩意！游泳池所引入山泉水，沁涼潔淨，夏天來住宿時，盡情免費享用大自然和民宿主人的盛情吧！後山步道依地勢環繞，遍植各種花樹，可眺望遠山，又毋需耗費太多體力行走。【台北瑞芳-綠野村山莊民宿】住宿採事先預約，太「好動」的主人，平日親手修剪換植花樹、農產品加工等，和過去截然不同的生活方式，夫妻倆樂在其中。其中金棗是自家後園所採摘製成，完全沒有任何的化學添加物，新鮮、多汁，十分的可口！,新北市瑞芳區靜安路4段56巷6號,新北市,瑞芳區,886-2-24061248,121.79513200000001,25.102325,,民宿,E
晶贊都會旅店台北永和,位於新北市的旅館,新北市永和區永和路2段168號3樓,新北市,永和區,886-2-29206789,121.515417,25.012852,0.0,飯店/旅店,W
九份A-HOME民宿,主人勇哥將老家整修 重新規劃 利用海邊撿拾的漂流木檜木巧妙再利用 將斜屋頂閣樓空間創造一個發呆區 女主人梅姐手作拼布及山水畫作點綴在室內 創造旅人一個放鬆沉澱心靈的私密空間,新北市瑞芳區崙頂路55號,新北市,瑞芳區,886-2-24969454,121.843875,25.10737,0.0,民宿,E
香寧旅店,位於新北市的旅館,新北市淡水區民權路105至111號7至8樓,新北市,淡水區,886-2-28097777,121.460202,25.137578,0.0,飯店/旅店,N
金龍湖旅館,位於新北市的旅館,新北市汐止區湖前街103及105號1至5樓,新北市,汐止區,886-2-26959339,121.630955,25.071439,0.0,飯店/旅店,E
望幽谷民宿,坐看幽幽山城，享受無邊的天際與青翠山色，望幽谷民宿依著九份溪，坐落在翠綠的山腰，慢步十分鐘，即可悠遊熱鬧的山城步道，收藏滿滿的流金歲月。庭院可以遠眺九份山城與基隆山，不管白天的熱鬧景象還是晚上的夜景，山城美境盡收眼底。    望幽谷是九份的傳統石屋改建，我們將老舊的石牆重新堆砌修復，一石一瓦都有的親切手感，從小在九份長大的濃濃情感，全心投入民宿的建造與經營，我們每個套房都設有供休息的小桌椅，空間在內人的精心佈置下，相信訪客都能感受到我們的用心。    歡迎訪客到望幽谷民宿休憩，如果下午入住，可以從頌德公園開始逛遊九份老街，挑個好茶館或特色咖啡廳，悠哉悠哉的度過輕鬆的懷舊時光；晚間可以在我們的庭院觀星賞夜景，安枕舒眠後享用我們為您準備的早餐、用完餐後朝氣滿滿，可以走一趟金瓜石參觀黃金園區，或者到基隆山健健腳、東北角濱海遊蹤，都是不錯選擇。    望幽谷民宿有三間不同風格的獨立套房:日式榻榻米風的竹風套房、藍色寬闊海洋風的藍影套房以及粉色甜美浪漫風的漫屋套房，每間套房內皆有獨立衛浴並貼心的附上免費小餐點-糖果、餅乾、泡麵、水及飲料，不僅可解嘴饞更不用擔心半夜肚子餓!!住宿費用-平日房價(周日~周四)NT$1500，假日房價(周五、周六、連續假期)NT$2000，加床費用另計，每加一人為NT$300，每房型以多加兩人為限。,新北市瑞芳區汽車路108之3號,新北市,瑞芳區,886-2-24966296,121.84050800000001,25.109049,,民宿,E
山茶雅舍民宿,"我們每日僅接待一組朋友,提供給您獨門獨院專屬於您的私人獨棟民宿,但很抱歉我們沒有供餐更別提還有一堆訂房限制,最抱歉的是我們無法提供您像九份街上擁有無敵山海景的景觀套雅房,我們能提供您的僅有位在水金九地區的破房子,我們的老房子每日也僅能接待一組朋友,除了您獨享的整棟房舍外我們也準備了完整的廚房與個人劇院。我們提供您滿滿的幸福做為我們的備品.並為您預留了美好的回憶期待下次相遇",新北市瑞芳區基山街241號,新北市,瑞芳區,886-9-32844293,121.84153,25.106958,0.0,民宿,E
福泰翡翠灣渡假飯店,與台北近在咫尺的渡假飯店，以自然景觀為設計主體的嶄新理念，全面引領國內未來休閒趨勢，將優雅休閒情趣與舒適尊貴服務合一，開闢出一個令人動容的美麗新世界，一個偉大的夢於焉成真。福泰翡翠灣渡假飯店~讓您的渡假生活更有趣！,"新北市萬里區翡翠路17號1至2樓,14至18樓",新北市,萬里區,886-2-24926565,121.68372,25.18628,0.0,飯店/旅店,N
九份惠風民宿,,新北市瑞芳區街頂巷41號,新北市,瑞芳區,886-2-24062017,121.84473999999999,25.107537,,民宿,E
晴悅民宿,九份 晴悅民宿-位於山城老街入口處鬧區旁7-11便利商店左起第三家旁的階梯直上後左轉第二家，設有四間乾淨舒適的套房，其中兩間有海景景觀，每房皆有對外窗戶，及獨立之出入門戶，方便您登山、尋幽、訪古、泡茶、小吃等隨時進出。  歡迎您前來入住，體驗、感受九份的山城美景、純樸民風、美味小吃及在地的濃濃人情味。,新北市瑞芳區基山街31巷27號,新北市,瑞芳區,886-965-407349,121.847724,25.112026,0.0,民宿,E
新莊客旅,我們的服務精神是「新莊情、客旅心」，意味著以敦厚的新莊人情味，和瞭解旅客需求的用心，使住客感到賓至如歸。除了提供住客舒適的休憩環境與優質的商務服務，我們將新莊文化融入設計裝潢與迎賓流程中，在24小時開放的咖啡交誼廳，擺放新莊文化活動訊息與地方刊物，而公共空間與精緻客房，處處可見新莊藝術家作品，如書法、陶瓷、青銅雕塑、花藝，此外還有代表新莊傳統文化的布袋戲偶、鐘鼓與古董糕餅模子。在新莊客旅簡潔圓融的現代化外觀下，蘊含著許多地方精神與文物，使旅客形同住在新莊文化裡。,新北市新莊區中華路1段103號3樓,新北市,土城區,886-2-22776599,121.44481,24.987039000000003,0.0,飯店/旅店,W
慶城商旅 Urbanone Hotel,位於新北市的OK旅館,新北市三重區正義南路55號4樓、4樓之1、4樓之2,新北市,三重區,886-2-29701229,121.497863,25.060679999999998,0.0,飯店/旅店,W
南瓜大叔民宿,童話裡的南瓜充滿夢幻的色彩，在忙碌的生活偶爾停下腳步，細細回味享受這輕鬆浪漫的時光~是一種幸福。曾經在美國鄉村住了一陣子，愛上了南瓜，愛上了暖暖的壁爐，愛上了種滿花花草草的庭院，在這裡我們找到了夢，一點一滴親手快樂地打造南瓜大叔民宿，雖然不豪華，但却有像家一樣的溫馨...歡迎您~~,新北市三芝區迎旭街38號,新北市,三芝區,886-2-86353450,121.51059,25.256907,,民宿,N
九份Let's go民宿,,新北市瑞芳區輕便路218之1號,新北市,瑞芳區,886-2-24977687,121.84488799999998,25.10914,,民宿,E
一間屋民宿,"位於新北市貢寮區福隆街2巷1-2號 , 緊臨福隆車站 , 出站後走一至兩分鐘。附近知名景點為:舊草嶺單車隧道、草嶺古道、桃源谷與福隆海灘等。房間內皆有冷氣、免費無線網路﹐無電視。一間屋背包客棧為複合式經營,附有餐廳,餐點皆為蔬食料理 , 餐廳標榜「健康、養生」, 料理食材大部分為友善耕種的作物。營業時間為 : 11:00~19:30FB粉絲團 : 一間廚房&背包客棧",新北市貢寮區福隆街2巷1之2號,新北市,貢寮區,886-2-24992161,121.94523799999999,25.015929,,民宿,E
杉夏民宿,位於新北市的民宿,新北市三芝區古庄里5鄰四棧橋36之1號,新北市,三芝區,886-2-26366668,121.48418500000001,25.263671,0.0,民宿,N
上格大飯店,位於新北市的旅館,新北市三重區集成路11號,新北市,三重區,886-2-29775678,121.488743,25.051896,0.0,飯店/旅店,W
亞城民宿,一個能脫離繁忙俗世的渡假勝地，白天能見山景環繞伴聽蟲鳴鳥叫，夜晚則邊泡湯邊觀看滿天星空，包棟還可品嚐民宿主人的精緻點心，讓身、心、靈皆放鬆的獨享空間，絕對是會讓你想再來的好民宿~,新北市金山區中信南路4巷2之1號,新北市,金山區,886-933-021722,121.59709299999999,25.202203,,民宿,N
櫻花村民宿,位於新北市的民宿,新北市三芝區聽濤街23號,新北市,三芝區,886-2-26369333,121.51158400000001,25.257718,0.0,民宿,N
板橋凱撒大飯店,板橋凱撒大飯店坐擁絕佳地理位置，距離板橋火車站/板橋高鐵/板橋捷運站僅需步行 3 分鐘路程，不論前往台北市區或連通其他縣市或觀光景點即可輕鬆到達。另外週邊景點包括大遠百購物中心、遠東百貨、林本源園邸、南雅夜市、府中商圈等，提供各式休閒娛樂及購物美食多元選擇。飯店共擁有400間客房、9種房型，所有客房內均設有50吋高畫質液晶電視、藍芽音響、水壺、膠囊咖啡機、茶包及瓶裝水。私人衛浴內配有電子免治馬桶、步入式淋浴間、浴缸和雙洗臉面盆。為了客人旅途的舒適，也備有毛巾、環保有機盥洗用品、拖鞋、負離子吹風機及嬰兒備品等。公共區域的部份，提供大廳酒吧、卡拉拉義大利餐廳、朋派自助餐廳、家宴中餐廳品嚐各式美饌飲品外，位於32樓更設有高空戶外游泳池、星空酒吧及健身房，享有城市景觀、體驗絕佳視野感官享受。,新北市板橋區縣民大道二段8號,新北市,板橋區,886-2-89538999,121.46266499999999,25.011772,1405.0,飯店/旅店,W
基瓦諾龍洞四季灣,位於新北市的旅館,新北市貢寮區和美街48號(1層),新北市,貢寮區,886-2-24901000,121.91731100000001,25.100013,0.0,飯店/旅店,E
少爺時尚旅館,2017年11月全新登場，頂級、安全的精品旅店iHotel 少爺時尚旅館。位於汐止交流道下5分鐘車程，環境清幽、私密空間、陽台、大面窗。全館32間時尚汽車房 + 34間精品商務房。館內配備KTV、VOD影片隨選、氣泡浴缸、大液晶電視、浴室電視、臥榻、全館WiFi上網等設備。全台最安全也最隱密汽車房，32種摩登造型風格獨特，讓旅客每次蒞臨都有與眾不同的奢華體驗。一房一車庫，個人電梯直達房間門口，房內另設有安全門、落地窗陽台，通風安全。另設有KTV派對房，最新最全的KTV歌曲讓您旅行的同時也能好好的歡唱。全館無2次施工，公安消防合格住的安心，隱私卻無隱憂。由飯店到山谷瀑布僅須十分鐘步行時間，漫步於山水之間，觀瀑聽泉、晨聞鳥鳴、夜賞星斗。提供旅遊、商務、住宿、休息的尊榮享受。,新北市汐止區勤進路83巷1之1號,新北市,汐止區,886-2-26410599,121.66038300000001,25.062104,64.0,飯店/旅店,E
成旅晶贊飯店台北蘆洲,成旅晶贊飯店用〝自然˙舒適˙活力˙便捷〞打造新型態都會風格飯店，第二個據點座落於台北徐匯廣場～新北市唯一捷運共構的美食、購物和飯店的複合式商場正上方。捷運一到站，直達飯店六樓接待大廳，融合木質、石材、藝術裝置和光線流動的現代空間設計，加上大廳落地窗外空中花園景觀，彷彿置身都市桃花源中，輕鬆恣意。成旅晶贊飯店規劃有140間晶贊客房、柏克菲茶餐廳、晶贊中餐廳、貴賓廂房、三河會議中心、洗衣房和商務中心，並結合比活力城市健身俱樂部，無論商務差旅、觀光渡假、會議宴會，和時尚美食饗宴，皆能貼心滿足到訪貴賓的多元化需求，享受〝附加多一點˙負擔少一點〞的城市旅行新體驗。,"新北市蘆洲區中山一路8號6,8-15樓",新北市,蘆洲區,886-2-22855799,121.480455,25.080429000000002,0.0,飯店/旅店,W
緣憶民宿,位於新北市的民宿,新北市瑞芳區烏勢巷52號,新北市,瑞芳區,886-2-24062081,121.84593899999999,25.108647,0.0,民宿,E
這一站幸福民宿,＊熱鬧的區段‧便利的生活機能～優質的舒適睡眠環境～位於新北淡水區的「台北淡水民宿‧這一站幸福民宿」為合法民宿，位置座落於鄧公國小附近，步行至淡水老街約10分鐘，步行淡水捷運站也只需8分鐘腳程，擁有便利完善的交通優勢，更保有單純與寧靜的住宿空間，每一位來訪的旅客們都能安心入住，享受安靜無憂的自我空間，度過輕鬆愉悅的愜意假期。 「台北淡水民宿‧這一站幸福民宿」提供多間潔淨、寬敞、明亮的雙人套房房型，公共客廳空間運用大量木頭元素，展現北歐風格的純淨清幽；格局寬敞、採光明亮的套房房型空間，運用高雅簡潔的裝潢設計和完善的家具設備，展現現代感十足的日式風華，並以淡雅的繽紛色彩呈現蓬勃旺盛的生命力，帶給旅客們最為單純典雅的生活品味。 倘若您對旅途或行程有任何疑問，歡迎直接電洽【02】2626-1133 台北淡水民宿‧這一站幸福民宿。訂房時間:9:00am~21:00pm,新北市淡水區水源街一段151號,新北市,淡水區,886-2-26261133,121.44771100000001,25.171791,0.0,民宿,N
葳葦民宿,位在陽明山下的私宅農舍享受田園風光，寧靜舒適的環境備有燃木壁爐，溫暖舒適廚房設備齊全，備有鑄鐵鍋,新北市金山區六股林口72之3號,新北市,金山區,886-2-24080846,121.59966499999999,25.21817,,民宿,N
十分幸福民宿,位於新北市的民宿,新北市平溪區十分街273之6號,新北市,平溪區,886-2-24958046,121.780351,25.04828,0.0,民宿,E
板橋王旅館,位於新北市的旅館,新北市板橋區南門街61號13樓,新北市,板橋區,886-2-29662670,121.457245,25.008131,0.0,飯店/旅店,W
九份樓上有閒民宿,位於新北市的民宿,新北市瑞芳區基山街197號,新北市,瑞芳區,886-929-990407,121.84238400000001,25.107492,,民宿,E
九份黃金屋,,新北市瑞芳區輕便路292號,新北市,瑞芳區,886-2-2497-2753,121.843754,25.109269,,民宿,E
九份高媽媽民宿,位於新北市的民宿,新北市瑞芳區汽車路7之5號,新北市,瑞芳區,886-2-24971680,121.84566799999999,25.109884,0.0,民宿,E
烏來輕井澤溫泉旅館,位於新北市的旅館,新北市烏來區烏來街6號,新北市,烏來區,886-2-26616425,121.55165900000001,24.864752,,飯店/旅店,S
清翼居旅店海洋館,位於新北市的旅館,新北市板橋區成都街65號,新北市,板橋區,886-2-29596996,121.461804,25.005156,,飯店/旅店,W
映象休旅會館,位於新北市的旅館,新北市萬里區玉田路33號,新北市,萬里區,886-2-24928833,121.680865,25.194470000000003,0.0,飯店/旅店,N
三重旅社,位於新北市的旅館,新北市三重區正義北路291號2至4樓,新北市,三重區,886-2-29832588,121.49513,25.070647,0.0,旅社,W
內心農場民宿,,新北市新店區雙坑里12鄰雙峰路168號,新北市,新店區,886-2-22174422,121.59711200000001,24.939575,,民宿,S
萬里雲頂民宿,位於新北市的民宿,新北市萬里區太和7之10號,新北市,萬里區,886-2-24929360,121.66763999999999,25.165371,,民宿,N
白金花園酒店,毗鄰千坪綠地，坐擁便利購物商圈，簡約大方的現代元素，由榮獲2010台灣室內設計金獎、2011中國上海金外灘獎，負責整體規劃設計，位於新店區陽光公園、五重溪風景區旁的白金花園酒店，為新店區最具代表性的五星級酒店，將於2015年盛大開幕。　　白金花園酒店為了滿足國內外商旅及觀光賓客於大台北區住宿，提供五星級客房與挑高六米300個開放式座位的寬敞空間，餐飲、宴會的最佳服務，創造賓客物超所值的住宿體驗與高品質用餐饗宴,新北市新店區安興路77號,新北市,新店區,886-2-86665888,121.515578,24.975192,148.0,飯店/旅店,S
三和旅舍,位於新北市的旅館,新北市三重區三和路2段49號,新北市,三重區,886-2-29735264,121.500698,25.067675,0.0,旅社,W
5熊的家民宿,位於新北市的民宿,新北市三芝區茂長里芝柏一街3之1號,新北市,三芝區,886-910-798964,121.511866,25.255983999999998,,民宿,N
市下巷民宿,位於新北市的民宿,新北市瑞芳區市下巷2號,新北市,瑞芳區,886-90-5137751,121.84434399999999,25.108912,,民宿,E
金城旅社,位於新北市的旅館,新北市瑞芳區岳王路17號,新北市,瑞芳區,886-2-24972035,121.807176,25.110848999999998,,旅社,E
福容大飯店 福隆貝悅,用身體去感受原始林貌森林花語、蟲鳴鳥叫、叢林小徑、律動瑜珈、動靜皆宜地處東北角秘境才有的新禪風體驗南洋新禪風體驗沉澱、療癒、發呆、冥想、隱密春夏以海洋為無可取代的重要節奏秋冬則以溫泉為旅成溫暖身新的必備元素住進絕世美景的黃金沙灘及專屬溫泉的禪風私域VILLA、芳療SPA、瑜珈、溫泉、鮮食料理飯店為尊貴的您打理貼心的呵護服務,新北市貢寮區福隆里福隆街40號,新北市,貢寮區,886-2-24992381,121.943978,25.018407999999997,0.0,飯店/旅店,E
福容大飯店 台北二館,於2010年壯闊落成，訴求時尚、奢華，是信義計畫區周邊最亮眼的五星觀光大飯店，細膩豪華打造317間客房，可滿足商務及渡假旅客的各項需求，雍容華貴的芙蓉、水晶等宴會廳，輔以科技化設備，誠為會議假期之首選。,新北市深坑區萬福里北深路3段236號,新北市,深坑區,886-2-26620088,121.600619,25.004084,0.0,飯店/旅店,E
歐悅精品汽車旅館-林口館,林口館於2010年落成，別名「歐悅音樂館」，全館38種風格套房， 以各類不同音樂風格為題，以打造「一日豪宅生活體驗」作為發想起點，挑戰集團創辦10年來的最大課題，全館以親水模設計搭配面積廣闊之水景綠意，搭配設計團隊巧妙的空間規劃與環保建材的使用，完全破除了制式格局與封閉空間的囹圄，在這裡，您可以無拘束的盡情享用專屬的泳池、遊樂設施、頂級SPA以及KTV歡唱設備，體驗50坪到300坪的奢華富麗。,新北市林口區文化三路二段115巷163號,新北市,林口區,886-2-26086611,121.374467,25.081484,0.0,汽車旅館,W
薇風馥麗飯店,緊臨台北市都會區，地處三重新東區的繁華商圈，鄰近捷運站及三重交流道，完美的交通動線，提供商務的絕佳環境。館內巧思設計的空間，散發迷人的日式風情，讓您沉浸其中，可以完全的放鬆自我，細細品味著鬧中取靜的舒適，為您沉澱忙碌的思緒與煩燥。,新北市三重區三和路4段282號3至12樓,新北市,三重區,886-2-22862288,121.484843,25.077396,0.0,飯店/旅店,W
九山八海民宿,"九山八海民宿位於九份，距離九份老街步行3分鐘，黃金博物館約10分鐘車程，台北市約60分鐘車程，有公車直達台北、基隆、新北，方便到達故宮,101等地,是旅遊北台灣的適宜住所。本屋是原汁原味的九份百年黑紙厝，擁有黑油毛氈頂和石頭牆，木頂石牆三角建構安全穩固。設有24小時自由出入號碼鎖和免費 WiFi，接待區提供冰箱微波爐與溫熱飲用水，客房均設冷暖空調，私人衛浴，免費盥洗用品和吹風機。可從客房欣賞台灣最美山線或特色石牆。座落於老街不遠，空靈清淨的街頂巷，不高不低的向海面山層，高品質住宿環境，在這裡，每棟黑紙厝都純真，每塊石頭都憨厚，每種聲音，都是善良的心意，歡迎您來，細細品味，感受，貫通古今的幸福。小古宅，臻工藝，如果您熱愛傳統文化，本宅將是您，最對味的住所，成就您，最有感的思緒。昔日金庫寶地，今日旅遊勝地。在古典與綠意之間，在工作與生活之際，有一種幸福，叫做：老宅新住，且向怕吵雜的您，致靜！",新北市瑞芳區街頂巷61之2號,新北市,瑞芳區,886-958-413972,121.84439499999999,25.108032,,民宿,E
樂頤飯店,La Clé法文鑰匙的意思；開啟家門，開啟旅程 樂頤飯店【 樂 】用喜樂的心境，體現旅行的意義【 頤 】身心靈的沉澱休憩，找回真實的自己 家是旅行的起點  也是終點 透過旅行探索自我，享受著呼吸不同城市的空氣與文化洗禮。然而最終會發現跨出去的每一步，都因為有家能歸回才有了意義，那不是短暫的休息，而是存在的起始點，這是生命獨特賦予了旅行的美麗。 La Clé 讓你旅行的每一天，都能感受家的溫暖。,新北市蘆洲區集賢路402號3樓,新北市,蘆洲區,886-2-82811234,121.480139,25.082045,25.0,飯店/旅店,W
三重江月行館,"耗資三億五千萬的三重江月行館，鄰近新莊、三重、板橋、台北市，位處交通要道，距離中山高五股新莊、三重或二高中和、板橋交流道亦僅需10-15分鐘車程，距先嗇宮捷運站亦僅需五分鐘路程，為大台北地區新成立最新穎的時尚旅店。三重江月行館提供視聽影音、朋友聚會、Spa水療、並提供高質感的硬體設備與相關備品，無論是商務住宿或者短暫休憩，我們意旨提供給每一位客人""享受歡樂 享受愛""，在您如魚得水的生活中，找到一片""悠游自在 荒漫自得""的遊樂園放肆享樂。人生是一場華麗旅行，您會愛上三重江月行館，與愛上更好的自己。Fun and stay with your love，愛您所愛 悠游自在，三重江月行館，我們期盼與您見面。",新北市三重區重新路5段598號,新北市,三重區,886-2-85110998,121.469293,25.045170000000002,,飯店/旅店,W
金山金色陽光民宿,位於新北市的民宿,新北市金山區下六股12之5號,新北市,金山區,886-2-24989879,121.62608600000002,25.226092,,民宿,N
薆悅酒店野柳渡假館一館,薆悅酒店野柳渡假館座落於台灣北海岸觀光風景區，緊鄰地質公園與海洋世界，並禮聘紐約知名團隊Rockwell Group操刀設計，裝潢均採取原木色系營造舒適渡假氛圍，並處處可見現代經典巧思，是為北海岸渡假酒店之首選代表。入住薆悅酒店野柳渡假館，不需離開房間便能觀賞基隆嶼海天一色的絕美景觀，沿著野柳岬灣，欣賞大自然鬼斧神工般創造的奇岩地景；傍晚時分欣賞燈火通明的漁船搖曳在海平面上，等待漁獲滿載的豐收光景。薆悅酒店野柳渡假館以北海岸頂級飯店之最，為您呈現野柳在地漁人風情，並以樂活渡假之姿，打造多元活動及住宿體驗，邀您一同感受野柳薆悅的渡假態度。,新北市萬里區野柳里港東路162-2號,新北市,萬里區,886-2-77035777,121.69033700000001,25.204076999999998,,飯店/旅店,N
九份民宿謝叔叔,"九份B&B民宿  新北市瑞芳區九份坑尾巷30號<台陽停車場對面二樓高掛～B～字招牌> 101房是屬於長條型的大套房    這個房間一天2200元（2人/間）    每增加1人酌收400元 最多接受7人入住 202房是屬於2間和室及1間衛浴室所組成的家庭房  這個房間一天2800元（2人/間）  每增加1人酌收400元 最多接受6人入住  203房真的很漂亮居住跟看景是一等一  位於二樓這個房間一天2200元（2人/間） 每增加1人酌收400元  最多接受4人 本民宿提供礦泉水.茶.咖啡 盥洗用具及一個免費停車位供住宿者使用 我們的房間是以物超所值的標準來收費我們的房價也沒有平日假日的差別所以我們須要您注意事項有:  1.確定訂房日期後每個房間我們都預收1000元訂金,請於二天內完成匯款動作並來電話或簡訊或 e-mail告知帳號後五碼,  完成訂房後如欲變更入住日期,於不含入住日期前七天通知, 可選擇保留三個月期限, 屆時未入住者恕不退款   匯款資訊   郵局代號：700   帳號：0311-723-1565-426   戶名：吳奇萍 我們也接受PAY PAL付款   郵箱號碼 : ppw521@gmail.com2.禁止寵物攜帶入住 3.入住時間14:00以後 , 退房時間 11:00之前 如果你確定需要為你保留煩請儘早聯絡   聯絡方式  TEL : 0930-160-786謝先生 e-mail : ppw521@gmail.com  .          ppw521@yahoo.com.tw   來信請註明訂房時間.人數及房型,請務必留下你連絡的方式 我們會在24小時內與您聯絡",新北市瑞芳區坑尾巷30號,新北市,瑞芳區,886-2-24969306,121.844044,25.110899,,民宿,E
富信大飯店2館,商務型態旅館-台北富信二館，富信飯店因應日益繁忙之旅遊、商務需求，為蛻變成科技重鎮的南港、汐止，注入新的飯店風貌，是您的最佳選擇。設計概念延續富信飯店-華麗新古典裝潢風格，豪華氣派中且具溫馨氣氛，使旅人享有沉澱、冥想、放鬆之環境。座落於南港軟體園區與遠東科技園區中心點，緊鄰國道、環東大道、南港火車站、汐科火車站及南港展覽館捷運站之交通樞紐，交通便利，南來北往於彈指間。“誠信、品質、服務”為富信飯店經營之圭臬，台北富信二館竭誠歡迎您蒞臨體驗。,新北市汐止區大同路1段152號,新北市,汐止區,886-2-26477222,121.62983,25.055432,113.0,飯店/旅店,E
首府大旅社,位於新北市的旅館,新北市板橋區館前東路96號7樓,新北市,板橋區,886-2-29598911-3,121.462419,25.007451,0.0,旅社,W
華春林賓館,位於新北市的旅館,新北市三重區重新路3段180號1至5樓,新北市,三重區,886-2-29769825,121.490602,25.059037,0.0,旅社,W
陽光味宿民宿,位於新北市的民宿,新北市瑞芳區豎崎路56號,新北市,瑞芳區,886-2-24970956,121.84236399999999,25.110576000000002,,民宿,E
九份小町民宿,位於新北市的民宿,新北市瑞芳區崙頂路70號,新北市,瑞芳區,886-2-24976402,121.84352700000001,25.107476000000002,,民宿,E
青獅大飯店,位於新北市的旅館,新北市永和區中山路1段51號4至6樓,新北市,永和區,886-2-29284435,121.513079,25.010509,0.0,飯店/旅店,W
雲在山房民宿,位於新北市的民宿,新北市瑞芳區汽車路59號,新北市,瑞芳區,886-2-24977041,121.844347,25.109404,0.0,民宿,E
河灣渡假村,位於新北市的旅館,新北市平溪區靜安路三段385號2樓,新北市,平溪區,886-2-24958325,121.78045800000001,25.048758,0.0,飯店/旅店,E
香泉會館民宿,位於新北市的民宿,新北市金山區名流路60號,新北市,金山區,886-2-24080851,121.599802,25.207048,0.0,民宿,N
雙溪藝術的家~自然山舍民宿,位於新北市的民宿,新北市雙溪區四分子3之1號,新北市,雙溪區,886-2-24930000,121.801622,25.019993,0.0,民宿,E
大埔硫磺溫泉商務旅舘,大埔硫磺溫泉商務旅館，位居新北市金山萬里交界處，以溫暖色系營造家的感覺，提供出差、渡假旅客一處明亮乾淨且安全舒適的商旅，無拘束的大廳開放空間，復古風建築風格於一身，採環保建材營造出寧靜優雅的氛圍，讓泉源湧無止盡的健康好泉，洗淨訪客的塵囂煩慮，館內並設置有商務休閒中心、晨間餐廳等設施，秉持著以客為尊的態度為您提供各式服務，更是休憩慢 活來趟輕旅行解放身心的好地方。我們將以嶄新的視野、誠摯的心，猶如對待家人般提供您無微不至的貼心服務，讓您仿如 置身家中般自在。,新北市萬里區萬里加投205-5號2樓,新北市,萬里區,886-2-24986333,121.64323,25.21591,8.0,飯店/旅店,N
九份風箏博物館民宿,位於新北市的民宿,新北市瑞芳區坑尾巷20號,新北市,瑞芳區,886-2-24967709,121.84394099999999,25.110592999999998,0.0,民宿,E
幸福圓點民宿,幸福圓點位於同時兼具明媚景色、悠閒氣息和便利商業機能的新北淡水，位置座落於便捷的淡水鬧區，餐廳、百貨等多間特色商家齊聚周邊，旅客們輕鬆便能享有最大程度的絕對便利。幸福圓點。一進門，清新的湖水綠牆面繽紛洋溢，走入大廳瞬間感染了活潑溫馨的氣息；旅人們可以在此暫時歇息、轉換情緒，停駐匆促繁忙的生活步伐，轉換緩慢而優雅旅人心境。民宿主要提供明亮、新穎的二人套房，寬敞整潔的房間與極具設計感的家具配置，營造現代化的時尚空間，絕對讓您輕鬆獲得時尚居家品味，歡迎您到淡水遊玩、到『幸福圓點』做客～,新北市淡水區英專路21巷30號2樓,新北市,淡水區,886-2-26220007,121.444492,25.170037,,民宿,N
湯語双泉民宿,位於新北市的民宿,新北市金山區環金路295號,新北市,金山區,886-2-24081789,121.631363,25.222557000000002,15.0,民宿,N
皇品時尚旅店,位於新北市的旅館,新北市板橋區民族路34巷13號1至5樓,新北市,板橋區,886-2-89648787,121.462457,25.009210999999997,0.0,飯店/旅店,W
石山水禪民宿,,新北市瑞芳區山尖路54號,新北市,瑞芳區,886-2-24961096,121.85427299999999,25.115078,,民宿,E
石門休閒民宿,,新北市石門區石門里中央路1-25號,新北市,石門區,886-2-26380091,121.56515900000001,25.291296,,民宿,N
山海觀民宿,位於新北市的民宿,新北市瑞芳區基山街217號,新北市,瑞芳區,886-2-24971568,121.843244,25.108079999999998,,民宿,E
新八里汽車旅館,本館位於交通便利的關渡橋頭，往八里方向有八里渡船頭、八里左岸、十三行博物館、廖添丁廟、八仙樂園等景點，往淡水方向有淡水老街、紅毛城、漁人碼頭等景點，二大旅遊路線讓您方便就近遊玩，是您絕無僅有的選擇。 為了方便來賓住宿，我們設有免費的停車場及專屬車庫，電梯直達房間，絕對滿足來賓私密的感覺。本館堅持完美的舒適性及安全性，採用RC建築結構外觀，幻彩按摩浴缸、獨立蒸氣花灑淋浴、烤箱、情趣椅、浴室專屬液晶TV，反偷拍偵測系統及餐點等服務，提供了最精緻的休閒住宿品質，讓您的身心完全自由自在解放。全體員工，以客為尊，秉持著貼心、用心、安心的宗旨，溫馨儒家並體貼照顧，以滿足客戶的最大需求為服務宗旨。以全新的風貌、完善的服務，專業精緻的格局、體貼入微的心，為您隔絕都會的喧嘩、遠離塵囂，以體貼的心、熱情的服務，為您精心設計各項現代化設備溫馨典雅，充滿浪漫的休憩天堂。,新北市八里區頂寮一街12號,新北市,八里區,886-2-26188866,121.45199299999999,25.124454,0.0,汽車旅館,W
芬多精加香汽車旅館,位於新北市的旅館,新北市汐止區工建路206號,新北市,汐止區,886-2-26476858,121.63637299999999,25.06221,,汽車旅館,E
樓仔厝咖啡民宿,位於新北市的民宿,新北市平溪區十分街74巷3號,新北市,平溪區,886-2-24958602,121.776366,25.041778,0.0,民宿,E
九份岩屋民宿,位於新北市的民宿,新北市瑞芳區崙頂路137號,新北市,瑞芳區,886-2-24969454,121.844228,25.107098999999998,0.0,民宿,E
紅蘋果旅館,位於新北市的旅館,新北市永和區中山路1段331號B1-6樓,新北市,永和區,886-2-29279118,121.506077,25.006303,0.0,飯店/旅店,W
趣淘漫旅-台北 Hotel Cham Cham Taipei,HOTEL CHAM CHAM –TAIPEI位在大台北新板特區，與板橋凱撒大飯店、知名國際品牌酒店共同組成新北市最受矚目的飯店群，同時更具有五鐵共構的交通便利優勢，台北趣淘漫旅樓高20層，共有337間客房，同時與板橋凱撒、國際知名酒店及大型宴會場地相連結，除了能享受飯店內部的設施外，還可共享周邊飯店所帶來的優質旅遊環境，以最享樂的價格感受國際級的服務與設施。來到 HOTEL CHAM CHAM，可以自由選擇想要的住宿玩樂方式，從CHECK-IN、房型、音樂、書籍或交通工具都可自由選、自在配，四通八達的地理位置，更可在大台北或是整個台灣自由自在移動，充份享受旅遊的樂趣並蓄積無限的能量。,新北市板橋區中山路一段139號,新北市,板橋區,886-2-89516686,121.463462,25.011262,0.0,飯店/旅店,W
海華休閒別墅民宿,浪漫爵士樂與夢幻海景的相遇。這裡是一個曾經被世人所遺忘的淨土，【海華】以自己的哲學塑造出獨特的低調奢華異國風情，若你妳厭倦了都市的喧囂和紛擾，也渴望著恬靜的休閒渡假氣息，不妨可以穿著輕便的服裝，帶著愉快的心情來這走走。,新北市萬里區玉田路52號,新北市,萬里區,886-2-24926701,121.680793,25.19385,0.0,民宿,N
三芝小白屋花園民宿,新北市環保旅店「三芝小白屋」是全台首家無印良品主題民宿，是知名浪漫愛情偶像劇【女王的誕生】及【回到愛以前】拍攝景點。地點位於新北市三芝芝柏藝術村內，李天祿布袋文物館附近，交通方便。三芝小白屋花園民宿是一間精品名宿，一天只招待2~10位客人。總共有三個房間，不論住幾位客人，都是包棟，享受百分百隱私空間。✿ 溫馨舒適住宿空間：陽光屋，柚木地板，書香壁爐客廳，MUJI日本無印良品原木家具及寢用織品。✿ 花灑沐浴泡湯樂：L'OCCITANE法國頂級芳香沐浴用品，純棉毛巾，恆溫花灑乾濕分離洗石子浴池。✿ 多媒體娛樂：Sony BRAVIA 42吋智慧型連網電視，藍光DVD，WiFi無線上網，管家精選好片。✿ Nespresso義大利頂級精品膠囊咖啡機，TWG頂級精品世界名茶1837黑茶，Evian法國礦泉水。✿ Clean Up日本第一名廚環保不鏽鋼頂級廚具+MUJI日本無印良品原木餐桌椅+全套鍋具及餐具。走入幸福祕境，探索對味空間，遇見陽光香草花園，找到家的感覺，找到人生小確幸。 喝杯咖啡，壁爐取暖，沙發看書，躺椅小睡，騎車兜風，看山看海，深度慢遊，身心舒暢。 微旅行，享受鄉村度假的安靜優閒自在，體驗簡單自然純淨的新森活。,新北市三芝區芝柏路35號,新北市,三芝區,886-2-86352326,121.511651,25.255916,,民宿,N
金色年代旅店,金色年代旅店座落在府中商圈，距離捷運府中站步行約10分鐘；周邊有湳雅夜市、板橋林家花園、板橋慈惠宮、市政府休閒廣場、板橋大遠百、華納威秀秀泰影城等知名美食商城與景點，府中商圈更是許多自助旅客首選之都。金色年代旅店，是許多板橋在地人的回憶，我們在2016年陸續重新為內裝添上新衣，原木設計感的家具，將重新找回屬於房間室內溫度，期待與您相遇的每一刻。能隨時提供安全、舒適的住宿品質，是我們的主要方針；全館客房6~13坪的室內空間非常寛敞，住宿皆備有免費停車場、免費WIFI無線上網，客房內備品有免費瓶裝水、茶包、咖啡包、衛浴備品等，一個都市中離塵不離城的家，貼心的為每位旅人提供有溫度的服務，我們期待與您每次的相聚，並讓您留下更多美好回憶。,新北市板橋區重慶路66號11至13樓,新北市,板橋區,886-2-29647599,121.461666,25.006422,0.0,飯店/旅店,W
華園旅社,位於新北市的旅館,新北市三重區正義北路8號2至4樓,新北市,三重區,886-2-29714231,121.497469,25.062783,0.0,旅社,W
馥俐旅店,位於新北市的旅館,"新北市板橋區東門街10號2至5樓,12號1至5樓",新北市,板橋區,886-2-22722625,121.45789199999999,25.009,0.0,飯店/旅店,W
柯達大飯店(永和店),新都心旅憩 City Life Traveling Mind立地於大台北的都會生活商圈的柯達永和店，為迎合都會商業及旅遊的多元需求，特以商務與休閒功能複合機能為特色，以多功能的空間規畫提案，在商務住房之外，也滿足趣味遊樂的旅居體驗。時尚簡約的設計風格，讓寬敞的客房益加舒適，King-size大床、Spa按摩浴缸、完備的影音系統，讓您駐足的分秒都格外精彩。坐落於永和市中心，距離捷運頂溪站步行約10分鐘，北二高約25分鐘車程，交通相當便利。飯店周遭更擁有各知名景點一中和烘爐地、樂華夜市、永和豆漿、世界宗教博物館、比漾廣場。四通八達的交通位置無論洽商、購物、觀光，都帶給您最大的便利。,新北市永和區永和路1段103號,新北市,永和區,886-2-29239999,121.51357800000001,25.007732,0.0,飯店/旅店,W
日皇民宿,位於新北市的民宿,新北市萬里區萬里加投35之3號,新北市,萬里區,886-2-24082669,121.645618,25.213644,,民宿,N
明園賓館,位於新北市的旅館,新北市樹林區博愛街6號4樓,新北市,樹林區,886-2-26835057,121.427613,24.993064999999998,,旅社,W
雨天晴民宿,位於新北市的民宿,新北市瑞芳區烏勢巷146號,新北市,瑞芳區,886-2-24961828,121.84581399999999,25.109199,,民宿,E
中信旅店,位於新北市的旅館,新北市永和區竹林路41號7至9樓,新北市,永和區,886-2-89250688,121.51793300000001,25.014253,0.0,飯店/旅店,W
三才靈芝農場民宿,日治礦區靈芝栽培農場(合法民宿)，搭配水晶能量體驗美容健康食品另類旅遊！石碇的示範農場供應農特產美食、健康蔬菜水果、香草養生民宿、團體菌類栽培教育、專業觀光旅遊行程、礦石能量保健與古董天珠寶貝珍藏雕刻展覽。台北石碇三才靈芝生態農場民宿為北部地區唯一靈芝觀摩教學、休閒渡假、膳食，結合美容、健康養生的好地方。步入三才靈芝休閒農場，可以讓來訪者親自體會能量、靈氣的奧妙，也可以和三才靈芝農場的主人閒話健康人生哲學、品味御皇靈芝膳食、觀摩靈芝的成長過程，探討靈芝的微妙精華，享受鄉野情懷、踏單車、採香草、感受碧綠如茵、開懷輕鬆的心情。,新北市石碇區中民里18重溪52之1號,新北市,石碇區,886-2-26633995,121.67479099999998,25.013603,100.0,民宿,E
九閣商旅,位於新北市的旅館,新北市新店區中央路238號,新北市,新店區,886-2-22182118,121.52918400000001,24.972586,0.0,飯店/旅店,S
美芙精品旅館,在車馬暄闐的中和中正路上，有一處神秘且浪漫的世外桃源，讓您充分抒解心靈與身體上的疲勞，屬於您的專屬空間感受清靜美好與塵世隔絕的舒適感。30種不同風格的情境空間，備有37吋液晶電視，VOD隨選電影系統，乾濕分離的大浴室，同時提供有線、無線寬頻網路免費上網，並配有一按立即可以使用的蒸氣設備，豪華大型的按摩浴缸，安全電熱式烤箱，奈米牛奶浴。為了提昇男女之間的浪漫情調，精緻套房內備有不同的情趣設備(電動情趣椅、電動八爪椅、軟墊床、騎馬機)，豐富的房內設備卻有著物超所值的價格，且能享受到最優質的住房品質，絕對是您的最佳首選。鄰近交通要道北二高中和交流道與高架橋，因此不管由北或南開車過來都非常便利。。,新北市中和區中正路1184號,新北市,中和區,886-2-22232399,121.480974,25.010181,0.0,飯店/旅店,W
黎明旅館,位於新北市的旅館,新北市新店區北新路3段51之1號4樓,新北市,新店區,886-2-29119188,121.541418,24.981013,0.0,飯店/旅店,S
黃玉民宿,位於新北市的民宿,新北市金山區月眉5之7號,新北市,金山區,886-937-056209,121.637524,25.216957999999998,,民宿,N
鄭家賞海樓民宿,位於新北市的民宿,新北市瑞芳區中山巷8號,新北市,瑞芳區,886-2-24976883,121.856431,25.108566,,民宿,E
新加州景觀旅館,位於新北市的旅館,新北市新店區北新路1段1號,新北市,新店區,886-2-29161717,121.53742199999999,24.958785,0.0,飯店/旅店,S
安盛商務旅館,"爺爺的話.安盛開始成長茁壯這是關於我們的旅館故事。二十年前,二十張路。爺爺開啟了一間簡單的旅館。理念很簡單…來這裡,像回家。那時爺爺,在館內放了一隻很大的孔雀雕朔,是旅館的精神象徵,要讓這裡安穩地、盛開不息。簡單旅館平靜的座落在二十張路,時代不同,溫情與信念卻可以不變。我們像當年一樣,為旅人提供柔軟被臥與暖胃餐點,在溫度上多了點創意和摩登,在美妙生活概念上添加了新想法。我們喜歡有溫度空間,我們和你一樣喜歡旅行,我們和你一樣喜歡藝文創作,我們和你一樣喜歡精緻烘焙。於是,它們也住進了旅館裡頭。親愛的旅人,HôTEL 20 Allée和你道聲Hello!歡迎下禢;我們,交個朋友。",新北市新店區二十張路31號,新北市,新店區,886-2-29101477,121.53840100000001,24.981689000000003,0.0,飯店/旅店,S
豪麗旺旅館,位於新北市的旅館,新北市板橋區南雅東路46號,新北市,板橋區,886-2-89682118,121.45426299999998,25.006567999999998,,旅社,W
金國旅社,位於新北市的旅館,新北市三重區正義北路4號6樓,新北市,三重區,886-2-29828158,121.49738799999999,25.062499,0.0,旅社,W
景安精品旅館,"中和景安精品旅館位於中和市中心，與中和捷運系統及北二高中和交流道比鄰，距離台北市中心、桃園中正國際機場交通往來十分便利。想要盡情體驗台北市的精彩，中和景安精品旅館絕對是您的最佳旅伴。在這裡，旅客們可輕鬆前往市區內各大旅遊、購物、餐飲地點。對於喜歡冒險的遊客來說，樂華夜市,青年公園,自來水園區再合適不過了。 ※位置緊鄰捷運南勢角線景安站,步行8分鐘即到達景安精品旅館。 明亮的現代設計風格，簡約及開朗的氣息成為洗滌心靈的空間，精心為商旅人仕設想齊全，提供賓客舒適休憩空間。 典雅大方及精心設計的陳設，營造出明亮舒適的感受。精緻典雅，亮麗耀眼的內部設計，營造出明亮、溫馨的享受空間，熱誠用心，舒適宜人的接待，全然享受貴賓級的禮遇。",新北市中和區明禮街32號2至9樓,新北市,中和區,886-2-22438989,121.504446,24.996185999999998,0.0,飯店/旅店,W
九份朵拉民宿,"進入「九份朵拉民宿」，旅人輕輕推開老式屋子的古舊木門，那迎接而來的是木門破舊的輾軋聲~剎那間有一份舊物牽繫的感懷~古老昏黃的角落一盞光影亮起，牆邊泛黃的照片一個「離家的女孩」，騎著三輪車像似三毛的女主人，投射著旅人流浪歸返的心情。石頭壁上女主人朵拉的畫作中...「燈拋的光影」與「坑洞裡的椅條仔」，敘述著過去九份礦工在黑壓壓洞裏鑿金的日子，畫作在老屋石頭壁相襯下，流洩著時間的錯落及歲月錘鍊的青春旁白..一樓設備：私人小庭院花園、客廳、廚房(早餐DIY：吐司，鮪魚三明治，雞蛋，果醬，奶粉，麥片咖啡，紅茶)、浴室(洗面乳,沐浴乳,洗髮精,吹風機)二樓設備：主臥室、起居室、次臥室(影片視聽,音響,閱讀書籍與雜誌)。 ※請自備牙刷、毛巾等盥洗用具※室內視聽設備提供投影機、DVD、聽音樂、戶外景觀公園盪鞦韆、私人小庭院花園、廚房、提供WiFi無線上網",新北市瑞芳區佛堂巷61號,新北市,瑞芳區,886-905-268527,121.841825,25.106479999999998,,民宿,E
新園大旅社,位於新北市的旅館,新北市三重區重新路5段592號2至4樓,新北市,三重區,886-2-22782137,121.46938999999999,25.045192999999998,0.0,旅社,W
戀晴MOTEL,位於新北市的旅館,新北市泰山區楓樹街35號,新北市,泰山區,886-2-29009797,121.43515500000001,25.064393,0.0,汽車旅館,W
閒情民宿,,新北市瑞芳區佛堂巷5號,新北市,瑞芳區,886-2-24970685,121.841503,25.106676,,民宿,E
悅池精品旅館,悅 納您的需求與喜悅池 水噴泉迎接您的到來精 緻貼心的服務與笑容品 味時尚的空間與色彩館 內全方位的隱密與安全製造浪漫 ♥ 慵懶依戀,新北市中和區立德街299號,新北市,中和區,886-2-22211234,121.48330800000001,25.009619,0.0,飯店/旅店,W
驛宿鶯歌民宿,鶯歌的陶瓷、三峽的藍染、老街的風情，三鶯地區擁有全台最濃厚的文化氣息！【驛宿鶯歌民宿】為新北市鶯歌區唯一取得民宿經營執照的合法民宿，住宿有保障，安全又放心！我們希望提供一種「家」的溫馨感覺給前來住宿的旅人，溫馨又寧靜的居住品質，讓您忘記旅途的疲累，以窗外的湖光山色、蟬鳴蛙叫，一掃生活中的吵雜與緊張，讓您身處大台北地區卻能輕鬆接近寶貴的大自然，感受恬靜放鬆的鄉村生活，親身體驗真正的民宿風情。四層樓的日式透天別墅，大坪數的使用空間，備有４房３廳及車庫， 親朋好友闔家相聚，露臺賞月烤肉、泡茶聊天，還可以體驗包棟當主人的樂趣！歡迎各地的朋友，一同來三峽、鶯歌遊玩，兩天一夜或三天兩夜的旅程， 讓您慢慢享樂、慢慢體驗。舒適乾淨的住宿品質，親切好客的接待之道，安全便利的交通，您不需要花大錢，不用自行開車也能輕鬆到達，【藝宿鶯歌民宿】是您外出旅遊南下北上旅程的最佳選擇！,新北市鶯歌區中湖里中湖街152巷15號,新北市,鶯歌區,886-2-26772160,121.34993500000002,24.974026000000002,,民宿,W
途中九份青旅民宿,訂房專線:0921-961263 Email:kingwangbb@gmail.com金旺民宿 距離九份老街只要一分鐘腳程，無論是逛街、購物都十分方便。它的格局是經過主人的精心設計，每一戶都有獨立的出入口，使遊客們不但出入方便自由，且私密性極高，絕不受他人打擾 。 衛生品質媲美五星級飯店水準，敬請放心入住。,新北市瑞芳區烏勢巷23號,新北市,瑞芳區,886-2-24969038,121.845968,25.108912,,民宿,E
九份愛琴海民宿,位於新北市的民宿,新北市瑞芳區汽車路79之1號,新北市,瑞芳區,886-2-24062220,121.84383500000001,25.109595000000002,,民宿,E
北國之春和風汽車旅館,北國之春和風汽車旅館座落在遠近馳名的陶藝重鎮－鶯歌，距離鶯歌老街僅5分鐘車程，在濃濃文化氣息薰陶下，散發著與眾不同的優雅氛圍， 順著指標緩緩駛入館內，別有洞天的隱密日式花園車道，有著鬧中取靜及遠離塵囂般的感覺，全館設計充滿著氣質典雅與禪意、讓人眼睛為之一亮。身穿和服的服務生親切迎接賓客到來，引領旅人進入風情萬種的悠閒國度，來趟溫馨、 愉悅之旅。 本館通過多項嚴格安全檢查之合法汽車旅館，更為顧客投保2400萬公共意外責任險，在享受悠閒時光並同時保障您的安全與權益，豪華舒適的設備與異國泡湯之樂趣讓您消除一天的疲勞。,新北市鶯歌區鶯桃路362之1號,新北市,鶯歌區,886-2-26780899,121.333863,24.963037,0.0,汽車旅館,W
巧苑民宿,,新北市瑞芳區佛堂巷43號,新北市,瑞芳區,886-9-32390427,121.822098,25.103051999999998,,民宿,E
林園村莊民宿,位於新北市的民宿,新北市瑞芳區佛堂巷62號,新北市,瑞芳區,886-2-24960575,121.841501,25.10676,,民宿,E
雅都旅社,位於新北市的旅館,新北市板橋區中興路5號2至3樓,新北市,新莊區,886-2-29682345,121.442574,25.032610000000002,,旅社,W
喬太商務旅館,位於新北市的旅館,新北市板橋區中山路2段359及361號10至12樓,新北市,板橋區,886-2-29645353,121.47965,25.019176,,飯店/旅店,W
薇星旅館,位於新北市的旅館,"新北市汐止區勤進路416號1-10樓,418號2-10樓,420號2-8樓及422號2-7樓",新北市,汐止區,886-2-26435566,121.663646,25.053373999999998,12.0,飯店/旅店,E
白水世界民宿,位於新北市的民宿,新北市烏來區環山路112號1樓,新北市,烏來區,886-2-26616720,121.548379,24.860731,0.0,民宿,S
碧潭飯店,正面眺望著碧潭美景的碧潭飯店，讓您遠離都市的喧囂，在熱情中點綴奢華，讓您煩擾紛亂的心靈得到舒解與慰藉。距離木柵考試院、動物園、烏來溫泉區僅約10分鐘車程。離台灣大學、政治大學、景文技術學院、世新大學等學區約不到15分鐘。新店寶橋、統帥、遠東等工業區及北二高安坑交流道皆近在咫尺（約5分鐘車程），緊鄰捷運《淡水-新店線》（步行可到），可利用便捷的捷運系統暢遊大台北各地。洗衣房、全館免費wifi無線寬頻上網、電腦室供商務或旅遊人士更貼心的服務。飯店無停車場，飯店前方100公尺處即有公有停車場，（如遇假日可提早停車辦理進房避開人潮時間）辦理入住時請告知櫃檯人員車號可折抵停車補助費用。住宿一間可折抵200元停車費用，休息三小時可折抵50元停車費用。,新北市新店區碧潭路121號,新北市,新店區,886-2-22116055,121.534224,24.958425,100.0,飯店/旅店,S
允誠民宿,位於新北市的民宿,新北市瑞芳區烏勢巷60之1號,新北市,瑞芳區,886-920-365366,121.84581599999999,25.108304,,民宿,E
極品旅館,位於新北市的旅館,新北市新莊區新莊路757號,新北市,新莊區,886-2-22085518,121.442574,25.032610000000002,,飯店/旅店,W
良辰美瑾民宿,離東北角福隆附近僅15分鐘車程的雙溪良辰美瑾民宿，坐落於山谷森林中，平林溪貫穿其中，民宿建在台地上，擁有極佳的視野和景觀，是一處充滿山林風味的民宿。民宿提供遊客到雙溪、福隆、平溪等景點免費接送，方便坐火車旅客四處旅遊。腳踏車專用道歡迎大家來，民宿也有提供腳踏車免費租借。,新北市雙溪區內平林60號之5,新北市,雙溪區,886-2-24934046,121.831722,25.027209,,民宿,E
幸福王國溫馨民宿,位於新北市的民宿,新北市三芝區觀海街2號,新北市,三芝區,886-2-26360458,121.510127,25.25825,,民宿,N
十分旅人民宿,位於新北市的民宿,新北市平溪區十分街170號,新北市,平溪區,886-2-24958000,121.77738500000001,25.042881,0.0,民宿,E
美麗海精品汽車旅館,位於新北市的旅館,新北市新莊區新北大道二段231號,新北市,新莊區,886-2-85225050,121.462083,25.060504,0.0,汽車旅館,W
雙禾庭園民宿,東北角中心位子，緊鄰雙溪河畔，遠看花東線太魯閣號穿梭，二日遊最佳住宿地點。,新北市雙溪區坤溪23號,新北市,雙溪區,886-2-24933260,121.87065700000001,25.030048999999998,,民宿,E
肯特商務飯店,肯特飯店位於連接台北、三重的中興橋頭是大台北地區首屈一指之商務飯店內部均以商務需求設計讓出差、洽商、休閒的旅客能感受五星級的禮遇飯店內有近百間全電腦豪華、潔淨的舒適套房，提供國際電話長途直撥與免費無限上網，另特設多項頻道視訊、DVD及免費視聽享受。客房配備採用蓆夢思名床與浴室乾濕分離明亮採光給予顧客最舒適的住宿環境。豪華舒適享受、盡在肯特飯店。飯店擁有專用停車場，35個停車位24小時專人免費代客泊車。尊爵的禮遇、寧靜的空間、貼心的服務肯特竭誠歡迎您的蒞臨,新北市三重區成功路75號,新北市,三重區,886-2-29768686,121.48901699999999,25.051198,0.0,飯店/旅店,W
艾蔓精緻旅館-土城館,艾蔓「土城館」以小豪宅概念式設計理念，以精緻為主軸，融合浪漫、溫馨與休閒的元素外，艾蔓土城館更加入低調的絕色風華，不僅房間坪數加大，而且對每一房型都予以精心設計規劃，打造出一房一國一風情的浪漫情調，除了房型氣氛的營造，讓貴客光臨每次都有不同的體驗和驚喜，真正享受放縱的新奢華空間。,新北市土城區城林路6巷18號,新北市,土城區,886-2-22673399,121.43758799999999,24.976963,0.0,飯店/旅店,W
長虹民宿,,新北市瑞芳區街頂巷87號,新北市,瑞芳區,886-2-24960301,121.845026,25.108188000000002,,民宿,E
新芝蘭民宿,,新北市三芝區蕃社后41之5號,新北市,三芝區,886-2-26368822,121.50246000000001,25.272964,,民宿,N
雅歌會館,淡水住宿．雅歌會館」位於新北市淡水區，捷運淡水站及淡水老街只需步行五~七分鐘即可抵達，前往八里、紅毛城、淡江大學、真理大學、漁人碼頭等地區皆十分便利，為一處具有交通往來方便、生活機能佳的優勢。「淡水住宿．雅歌會館」座擁交通便利與人文風情的絕佳位置，套房規劃中提供多元化的選擇，輕鬆享受一處平價、優質、貼心、親切的住宿空間。,新北市淡水區學府路36號5至7樓,新北市,淡水區,886-2-26260806,121.447946,25.169145,0.0,飯店/旅店,N
九份綠光民宿,位於新北市的民宿,新北市瑞芳區輕便路320號,新北市,瑞芳區,886-2-24967307,121.841649,25.107219,,民宿,E
九份貓窩民宿,,新北市瑞芳區輕便路58號,新北市,瑞芳區,886-2-24652082,121.838397,25.109901999999998,,民宿,E
張醫師的家民宿,位於新北市的民宿,新北市金山區中信南路2巷11號,新北市,金山區,886-2-27227768,121.596529,25.201802999999998,,民宿,N
雲仙大飯店,位於新北市的旅館,新北市烏來區烏來里瀑布路1之1號,新北市,烏來區,886-2-26616383,121.55213400000001,24.848979999999997,0.0,飯店/旅店,S
正點旅店,位於新北市的旅館,"新北市板橋區文化路1段55號1至4樓,57號3樓,59號3樓",新北市,板橋區,886-2-29684152,121.46075900000001,25.013618,0.0,飯店/旅店,W
九重町民宿,位於新北市的民宿,新北市瑞芳區基山街29號,新北市,瑞芳區,886-2-24967680,121.845453,25.109138,0.0,民宿,E
山中威尼斯民宿,一、簡介：與大自然零距離接觸。二、餐飲：毛蟹、蔡冰、海山餅店。三、經營特色：1.美式鄉村建築，玻璃屋，與大自然零距離。2.可賞螢火蟲、花、鳥、蛙、溪蝦及魚。3.當地產山藥。4.主人與客人分享綠建築、節能減碳與光害對環境的影響。,新北市雙溪區新基東街7之1號,新北市,雙溪區,886-2-24930088,121.882426,25.040079000000002,0.0,民宿,E
雅緹汽車旅館,位於新北市的旅館,新北市新莊區復興路3段8號,新北市,新莊區,886-2-22761818,121.460677,25.044378,0.0,汽車旅館,W
昇行旅,,新北市永和區竹林路161號,新北市,永和區,886-2-89250161,121.520578,25.010285,,背包客棧,W
金色小棧民宿,金色小棧青旅民宿距離瑞芳火車站僅有3分鐘的步行路程，公車站牌就在門外，於10分鐘抵達猴硐貓村，或於15分鐘巴士車程抵達九份老街。民宿一樓整層的公共空間，每晚播放電影，並提供公用電腦、漫畫、小說及報章雜誌供旅客們交友休閒使用。二樓宿舍間均設有男女分開的私人衛浴、吹風機、免費洗浴用品、空調、風扇及全館免費WIFI。,新北市瑞芳區中正路22之2號,新北市,瑞芳區,886-2-24973577,121.80825800000001,25.10716,0.0,民宿,E
九份喜來園景觀民宿,位於新北市的民宿,新北市瑞芳區汽車路9之13號,新北市,瑞芳區,886-2-24063399,121.846329,25.110767000000003,,民宿,E
佳朋樂居時尚旅店,佳朋樂居時尚旅店.位於板橋市中心 擁有便利的地理優勢鄰近南雅觀光夜市步行3分鐘 府中捷運站步行約7分鐘 鮮明的時尚風格、明亮舒適的休憩空間鬧中取靜極致紓壓的樂活享受假期時光,新北市板橋區館前西路213巷6號1至4樓,新北市,板橋區,886-2-29696635,121.45450100000001,25.008338000000002,0.0,飯店/旅店,W
生活空間民宿,位於新北市的民宿,新北市瑞芳區烏勢巷6號,新北市,瑞芳區,886-2-24965628,121.84511299999998,25.108324,,民宿,E
原宿時空膠囊旅館,原宿時空膠囊旅館是由一群熱愛旅遊且喜歡交朋友的年輕人所共同創立，在一次日本京都自助行的旅程中，體驗到日本膠囊旅館提供舒適方便的住宿環境，讓我們萌生了一個念頭：我們希望讓世界各地的朋友，以實惠的價格享受飯店般的服務與舒適的住宿品質，原宿時空膠囊旅館因此誕生，我們要打造的不只是讓旅人可以休息的地方，而是讓旅人可以探索世界跨越時空的遊樂場與秘密基地！,新北市板橋區中山路一段50巷22號地下一層,新北市,板橋區,886-2-66370603,121.461793,25.008884,0.0,背包客棧,W
福容大飯店 福隆,這裡有無垠沙灘，湛藍海水，如畫景緻，群山之間恬靜而優雅，全台獨有珍貴黃金沙灘，水量豐沛的雙溪河，是東北角重要水上基地，蘊育出多彩多姿的海洋度假氛圍。好友同歡、情侶約會、海洋婚禮、蜜月假期、親子度假，不斷的刻劃出一篇篇繽紛多彩的美好回憶！每年國際級沙雕季盛會，皆吸引國內外數十萬人次遊客朝聖。氣候怡人的秋天，騎著單車穿過舊草嶺隧道，或是來一趟草嶺古道之旅，沿途芒花盛開翩然搖曳，西風輕拂，帶來怡人舒適的享受。冬天可以享受福隆海洋溫泉，屬於海洋深層水保溼機能湯，也可選擇入住溫泉客房直接在房間內享受泡湯樂趣。一年四季來福容，一年四季玩福隆。,新北市貢寮區福隆里福隆街41號,新北市,貢寮區,886-2-24991188,121.943771,25.019018,240.0,飯店/旅店,E
矽谷溫泉會館,"當您來訪台北市時，矽谷溫泉會館所提供的優質服務與高品質住宿將帶給您賓至如歸的享受。 在這裡，旅客們可輕鬆前往市區內各大旅遊、購物、餐飲地點。 對於喜歡冒險的遊客來說，自來水園區, 捷運辛亥站, 樂華夜市再合適不過了。 矽谷溫泉會館一直致力於為您提供最尊貴的服務與一流的設施，確保您下榻飯店期間愉快、愜意。 為了給客人提供更舒適和更便利的服務，飯店配備了所有房型皆附免費WiFi, 公共區域WiFi, 停車場, 機場接送, 會議設施。 所有客房都有提供周到的設施，以確保無與倫比的舒適感。 飯店的娛樂設施相當齊全，包括健身房, 溫泉。 不管您是哪一種類型的遊客，矽谷溫泉會館都是來台北市的理想下榻飯店。",新北市新店區中正路491之1號1至16樓,新北市,新店區,886-2-22180101,121.53353100000001,24.982457999999998,0.0,飯店/旅店,S
清芳民宿,清芳民宿位於瑞芳市區內，逛街、覓食都十分方便且距離火車站，客運站約五分鐘的步程!!!民宿雖然沒有漂亮的風景但我們有乾淨、舒適、溫馨的客房是您旅遊住宿、全家出遊的好選擇!!,新北市瑞芳區民生街30巷14號,新北市,瑞芳區,886-2-24972075,121.80587299999999,25.107777,,民宿,E
簡愛旅棧,位於新北市的旅館,"新北市土城區中央路2段282號,4至7樓,282之1號1至3樓",新北市,土城區,886-2-82629898,121.440648,24.974032,0.0,飯店/旅店,W
虹都商旅,位於新北市的旅館,新北市三重區龍門路1號10至12樓及10樓之1至12樓之1,新北市,三重區,886-2-29870660,121.494895,25.070982,0.0,飯店/旅店,W
悅榕汽車旅館,位於新北市的旅館,新北市板橋區縣民大道1段146號2至3樓(1樓門廳),新北市,板橋區,886-2-89516333,121.45783600000001,25.00625,0.0,汽車旅館,W
月圓汽車旅館,位於新北市的旅館,新北市樹林區八德街208巷12號,新北市,樹林區,886-2-86862828,121.417222,24.973439000000003,0.0,汽車旅館,W
印象旅社,位於新北市的旅館,新北市樹林區鎮前街3之3號4樓,新北市,樹林區,886-2-26834727,121.426446,24.993297000000002,0.0,旅社,W
三峽阿桂的家民宿,在這裡「山」離您很近，在這裡「雲海」就在眼前，在這裡「蝴蝶」自在飛舞，在這裡「大自然」就在您身旁。三峽阿桂的家民宿-距三峽老街僅半個小時車程地方，竟然可以享受到群山環抱的大自然美景—來過的人都會有這樣的驚嘆！這也是十多年前、阿桂到處尋覓退休生活地點，最後找到這片土地的原因，十多年前送我們櫻花樹的朋友們都高官晉爵了，所以我們也非常相信這裡的磁場一定很好，也希望住客們來到阿桂的家可以完全放鬆身心，讓身心回到大自然母親的懷抱，讓這裡的自然景觀滋養您的心靈，因為眼前即是層層疊疊的綠色山景，恰到好處的高度讓視野極為寬廣，由於面向西、到了傍晚可以觀賞紅紅的太陽，觀賞千變萬化的日落更是一級棒，夜晚在無光害欣賞美麗的星空更加體會臺灣的星空真是明亮，在這裡會讓您的心情隨之開闊。三峽阿桂的家距離大板根10分鐘三峽阿桂的家距離五寮尖15分鐘三峽阿桂的家距離滿月園30分鐘三峽阿桂的家距離三峽老街、鶯歌老街30分鐘三峽阿桂的家距離兩蔣文化園區40分鐘,新北市三峽區金圳里9鄰金敏路52之1號,新北市,三峽區,886-921-157971,121.384997,24.87194,,民宿,S
龍海大飯店,位於新北市的旅館,新北市樹林區博愛街6號5樓,新北市,樹林區,886-2-26813333,121.427613,24.993063,,飯店/旅店,W
藍色水岸淡水海景旅店,位於新北市的旅館,"新北市淡水區文化路63號10樓之1至之3,之16至之19,11樓之1",新北市,淡水區,886-2-86316188,121.438499,25.172844,,飯店/旅店,N
日暉商務旅館,位於新北市的旅館,新北市中和區景平路381號,新北市,中和區,886-2-22479997,121.503541,24.993385999999997,0.0,飯店/旅店,W
柳園民宿,位於新北市的民宿,新北市瑞芳區基山街237號,新北市,瑞芳區,886-2-24975195,121.84172099999999,25.106932,,民宿,E
府中棧精品商旅,府中棧精品商旅，打造一個全新的商旅天堂，全飯店經專業設計師規劃，以典雅舒適的空間設計，沒有誇飾的裝潢，沒有炫麗的柱廊，但一股散發自內在優雅蘊斂的氣質，及溫馨閒適的住房環境，在這裡，客人會感受到自己所受到的尊重，進入大廳門房親切稱呼姓名，接待人員引領舒適地辦理住房登記，我們都悉心準備好；這就是府中棧精品商旅，熱情帶給世界各地的旅客，秉持著『體貼入心，更甚於家』的服務理念，以「心」的方式來服務客人，將每位客人當成自己的家人，期待在工作或休閒之餘，可以感受到回家般的溫暖與舒適，帶給每一位賓客最細緻溫馨的服務及甜蜜美好的回憶。　　府中棧精品商旅位在新北市新都的商業中心～板橋，接臨新莊、中永和、土樹三鶯等工商重鎮，距台北市更只有一橋之隔，緊臨北二高交流道及捷運府中棧、板橋火車站，擁有三鐵共站的便利（鐵路、高鐵、捷運）；遠百商圈、服飾美妝、電子3C、量販賣場及南雅夜市皆近在咫尺，滿足住客日常生活所需。　　為了讓大台北地區旅客不需到台北市才能享受優質商務服務，誠摯地邀請您前來親身體驗，不論是商務出差、渡假休閒、全家出遊等，府中棧精品商旅都能滿足您的需求！,新北市板橋區府中路9號及9號2至7樓,新北市,板橋區,886-2-89698989,121.459856,25.009501999999998,,飯店/旅店,W
綠映旅舍,,新北市三重區正義北路68號12樓,新北市,三重區,886-2-29850719,121.49716599999999,25.064256,,旅社,W
仲信商務會館,位於新北市的旅館,新北市新店區中興路3段219之2號1至10樓,新北市,新店區,886-2-29106600,121.543171,24.982634,118.0,飯店/旅店,S
和風小築民宿,位於新北市的民宿,新北市瑞芳區基山街31巷28號,新北市,瑞芳區,886-2-24960756,121.845577,25.109676,0.0,民宿,E
馥華大觀商旅,將藝術時尚化身為居住空間的一份子，大量留白的空間，造就出空間本質上的開闊大器，讓俐落的空間線條成為美學的座標，這是馥華大觀商旅所營造的空間魅力。馥華大觀以簡單化、理性化功能的設計理念出發，化繁為簡之設計，呈現出空間優雅秀緻的面貌，強調優質的旅居機能，打造出最清爽舒適的居住空間，純粹的俐落美學，讓來訪的每一位旅客享有最輕鬆自在的旅程。,新北市新莊區大觀街60號,新北市,新莊區,886-2-89911278,121.453804,25.036103,0.0,飯店/旅店,W
九份風之谷民宿,位於新北市的民宿,新北市瑞芳區石崁巷23號,新北市,瑞芳區,886-937-847973,121.83888400000001,25.109298000000003,,民宿,E
和昇淡水漁人碼頭河清飯店,位於新北市的旅館,新北市淡水區中正路1段156巷8號,新北市,淡水區,886-2-28059168,121.421365,25.180323,0.0,飯店/旅店,N
甜蜜蜜旅館,位於新北市的旅館,新北市板橋區南雅南路2段28號,新北市,板橋區,886-2-29586321,121.454328,25.003215,,飯店/旅店,W
麗京棧酒店,麗京棧酒店 Hotel Intrendy 位在桃園機場捷運-A6 泰山貴和站旁 和 台北捷運中和新蘆線-O20丹鳳站，在您抵達台灣時便替您洗盡塵囂，並為您接下來的旅程暖好期待的心情!麗京棧酒店的品牌標誌設計，以象徵鳳凰的孔雀為主要設計元素。標誌設計以開屏中的孔雀結合中國傳統的大門裝飾 (又稱為輔首銜環) ，客人來訪時，可以用門環輕擊輔首，主人便會開門迎客。視覺整體不但有祥瑞象徵，同時也傳遞出麗京棧團隊充滿高度熱忱的服務精神。 品牌命名 Intrendy，是 In 與 trendy 二字的組合，我們希望，每一位旅客來到麗京棧酒店，都置身如同頂級飯店，不僅體驗精緻完善硬體設施，也能感受專業優質的貼心服務。優惠住宿、餐飲專案參考最新消息：http://www.hotel-intrendy.com/news.php,新北市泰山區新北大道7段36號,新北市,泰山區,886-2-29010909,121.41913999999998,25.032065,88.0,飯店/旅店,W
上品閣精品旅館,,新北市三重區新北市三重區三和路3段115號,新北市,三重區,886-2-29810111,121.493181,25.073198,,飯店/旅店,W
La Casa 嘴嘴的家民宿,位於新北市的民宿,新北市三芝區茂長里觀海街3號,新北市,三芝區,886-931-131383,121.509001,25.258679,,民宿,N
淡築憩水,！『本館品質有保障』！雖然我們不在顯眼的路旁，沒有專屬門口獨立的停車場，但在住宿的品質方面我們給您保障，本館座落於鬧中取靜的英專夜市旁，步行30秒內及可到達，離淡水有名的老街只需步行短短五分鐘的呢！離知名的淡江大學也僅僅步行六~七分鐘唷!!,新北市淡水區幸福里仁愛街1巷22號1至3樓,新北市,淡水區,886-975-377155,121.44601999999999,25.171654999999998,,民宿,N
天水民宿,"在雞籠山旁面著陰陽海的九份    到了冬天總是 霧雨交加  把整個山城  壟罩在ㄧ片煙嵐中  雨一下   山風一吹   像是帷幕般一層層的雨霧或是斜斜地兜下   從近在咫尺的雞籠山脊  一路下行   掩沒了遠處逐漸隱去的海灣  一種蒼茫的海天一色 我們可提供舒適的房間，配有獨立空調、通訊設備、免費的WiFi無線網路。從家族團圓,閨蜜聚會,好友相約到二人世界都能找到不一樣的住宿體驗喔!!九份濂洞天水民宿歡迎您",新北市瑞芳區洞頂路253號,新北市,瑞芳區,886-2-24962839,121.86027,25.122510000000002,,民宿,E
新都大旅社,位於新北市的旅館,新北市板橋區南雅南路1段103號,新北市,板橋區,886-2-29689193,121.45551,25.005058,,旅社,W
宮賓大旅社,位於新北市的旅館,新北市板橋區南雅南路1段1巷25號2至4樓,新北市,板橋區,886-2-29660889,121.45736299999999,25.006801,,旅社,W
挪威森林頂級汽車旅館,挪威森林汽車旅館是位於板橋和平路之頂級Villa Motel，耗資近五億，全館從外到內建築景觀有現代世外桃源之美，室內依各國風情特色為設計出發點集結傳統特色及現代元素加以改變成為後現代主義的時尚精品汽車旅館全館主題有(日式現代、LOUNGE風格、地中海、歐洲現代、南洋風、極簡風、巴里島風格、禪風、中國現代風格、阿拉伯風格)結合裝修設計、景觀、傢俱、擺飾、空間，營造出整體空間氣氛，業者更遠從東南亞採購大量的高級進口傢俱及裝飾來襯托出整體空間之豪華精緻，從空間的設計到景觀配置、傢俱的選用、裝飾擺飾的佈置，皆發揮的恰到好處。每一間房依其設計風格特色及動線設備加以規劃，加上現代人生活的壓力過大，情侶夫妻過於規律的生活以及商務洽公的需求，人與人之間的互動較少因此全館配有全新裝潢、高級紓壓按摩椅、多功能情趣椅、情趣搖床、恆溫SPA游泳池、森林景觀、蒸氣淋浴花灑、6度C水池、奈米養生牛奶浴池、浴室專屬個人液晶電視、超大42吋液晶電視、百萬級KTV視聽環繞音響、DVD影音光碟機、VOD隨選視訊系統、超夯Wii遊戲機、多種情境燈光群組，所有設計及設備之豐富，超乎難以想像。在超大空間多種不同特色風格之套房，浴室的多種變化及高級，提供消費者一個豪華、舒適、幽靜、安全、衛生的空間及環境，提供您住宿休憩、商務洽公的休閒品味。本館備有豪華餐廳境提供豐盛精緻中西式精緻早餐，享受全套設備的休閒住宿之後，在這華麗的用餐環境用餐，讓消費者有備受尊崇的感受，挪威森林頂級Ｖillａ Ｍotel汽車旅館用心，頂級設備，平價享受，是大台北地區最能讓您值回票價的頂級汽車旅館，將以最完善的服務品質，期待您的蒞臨。,新北市板橋區和平路14巷3號,新北市,板橋區,886-2-89513311,121.460704,24.993067,,汽車旅館,W
海灣假日酒店,訂房專線：02-26628000傳真電話：02-26627428旅館網址http://www.holidayinntpe.com.tw/台北深坑假日飯店座落於景色優美、氣候怡人的深坑，提供全方位國際水準的優質服務，美食、休閒、商務需求一應俱全。飯店交通便利，緊鄰高速公路交流道與辛亥、信義快速聯絡道入口，只需9分鐘車程即可抵達引領台北趨勢及時尚核心的信義區，包括 台北世貿中心和台北101大樓；約15分鐘即可進入南港展覽館、內湖與新店等工商業區。台北深坑假日飯店完善的設備，可為往來商務 及渡假的旅客們提供一個放鬆、貼心、舒適的住宿環境。,新北市深坑區北深路3段265號,新北市,深坑區,886-2-26628000,121.59905,25.004494,62.0,飯店/旅店,E
富悅渡假休閒旅館,位於北台灣淡水沙崙區內，附近的淡水漁人碼頭，最富浪漫氛圍的風景點，我們的設計籌備團隊在此耗時兩年，精心堆砌了結合生活悠閒與人性創意的極致空間，絕對令尊貴的您充分體驗無微不至的浪漫溫馨，與滿溢的靜謐幸福，彷彿瞬間進入不同時空般，絕對令人動容，挑空的格局是無拘無束的休憩境地，奢華其實不必低調，雍容自然可以華貴，處處充滿了驚喜。本館多達30款特殊風格，設計感強烈且多樣，完全能滿足追求都會時尚的現代消費群，搭配採自然不拘素的開放空間浴室，專業充分的SPA設施(獨立蒸氣室、SPA室、維琪浴室等)令您重新體驗，享受SPA新美學，溫暖您愛戀的心。富悅有超越五星級飯店的配備，高度私密又流暢的汽車動線，並用心設計了符合現代健康概念的營養早餐，等您來體驗！我們的服務團隊已為您做好準備，不僅只有用心更具備了為您打算的貼心，和實實在在的真心，要挑動您的視覺，要激發您人性律動，更要在北台灣最浪漫的約會勝地把這股氛圍加重、加濃，除了饒富汽車旅館的趣味，更讓您體驗悠閒的渡假樂趣，[ 選擇富悅，富足喜悅 ]。,新北市淡水區淡海路171號,新北市,淡水區,886-2-28051010,121.42033899999998,25.183911,,飯店/旅店,N
土城飯店,位於新北市的旅館,"新北市土城區中央路2段223之4號1至2樓,223之5號3至5樓",新北市,土城區,886-2-82612928,121.44084299999999,24.973489999999998,1.0,飯店/旅店,W
水映藍天民宿,位於新北市的民宿,新北市瑞芳區坑尾巷23號,新北市,瑞芳區,886-2-24967107,121.844196,25.110611,,民宿,E
名流別墅民宿,位於新北市的民宿,新北市金山區名流路16巷14號,新北市,金山區,886-938-585966,121.59873400000001,25.202679999999997,,民宿,N
愛家旅館,位於新北市的旅館,新北市新店區北新路2段108號7樓,新北市,新店區,886-2-29129111,121.54325700000001,24.974164000000002,0.0,飯店/旅店,S
凱帝賓館,位於新北市的旅館,"新北市中和區景平路669號3樓-13至-27,4樓-5,-7,-8",新北市,中和區,886-2-22481998,121.49653300000001,25.002629000000002,0.0,旅社,W
淡水嶘民宿,「淡水捷運民宿‧淡水嶘」位於新北淡水區，步行至捷運淡水站只需5分鐘，前往人聲雜沓的熱鬧淡水老街和景色優美的海濱地區也只需約5分鐘腳程即抵，交通往來相當便捷！您可沿著老街逛遊，沿途造訪禮拜堂、馬偕醫館、小白宮、紅毛城與漁人碼頭等景點；更可乘坐大眾運輸到台北各處觀光遊覽，來場台北小旅行～「淡水捷運民宿‧淡水嶘」外觀為典雅的花崗石建築，打上溫暖的暖色系燈光，展現日式現代感的低調幽靜。內部則提供多間新穎舒適的客房，現代化的裝潢設計維持建築原有的潔白牆面，在大小適中的空間中，保持建築原有的格局和簡潔裝潢，置入柔軟的床組和家具設備，化身成溫馨的獨有領域，是旅客漫遊淡水的另一個家。服務項目：短中長期出租諮詢、淡水住宿、淡水民宿、淡水行程建議、淡水旅遊諮詢 淡水租機車其他設施：免費提供WiFi 有線電視 高畫質數位電視 熱水冰水飲水機 洗衣機 烘衣機 電熱水壺 變頻冷暖氣 腳踏車停車處 汽車停車位(須提前預約) 機車出租,新北市淡水區長興街31號,新北市,淡水區,886-966-553931,121.44394199999999,25.171224,,民宿,N
老松的家民宿,1、九份老松的家民宿是九份的合法民宿之一，位於九份輕便路268號，鄰近昇平戲院，走階梯可以直通九份老街，住這裡到老街既便利又不會喧鬧。2、九份老松的家民宿每一個房間都寬敞舒適，視野佳，透過落地窗可以看到九份基隆山與濱海的番仔澳、忘憂谷與海上的基隆嶼，視野極佳。從房間裡看出去也可看到九份雲霧的變化近在眼前，美不勝收。3、除房間以外有一大客廳，適合團體活動、家人聚會、朋友聊天、泡茶。4、歡迎您來電訂房，訂房專線：(02)2497-9117,新北市瑞芳區輕便路268號,新北市,瑞芳區,886-2-24979117,121.844447,25.109157,,民宿,E
樹屋民宿,位於新北市的民宿,新北市瑞芳區山尖路137號,新北市,瑞芳區,886-2-24962675,121.853651,25.112889000000003,0.0,民宿,E
隨喻而安民宿,隨喻而安位於新北市三芝區的芝柏山莊，民宿主體主要是以鄉村風格為主，我們一共有四間房間，每個房間皆經過設計規劃，像是有多數女生最喜愛的歐式玫瑰風格以及走清新的淡雅鄉村風格，當然我們也為了小家庭特地規畫了一間日式風格的合室，相信不管是小家庭或是家族旅遊甚至是朋友同事想一同出遊都能找到適合您的房間，三芝除了空氣以及景觀非常棒之外，附近還有許多豐富的人文景觀以及許多有名的觀光地點，像是貝殼廟、源興居、白沙灣、富基漁港、石門洞、老梅綠石槽等等不勝枚舉的景點，每到了周末假期總是有非常多觀光人潮湧入，號稱台北後花園的三芝真的是非常迷人，真的要您親自來看看才能知道這裡的迷人之處。,新北市三芝區晴光街11號,新北市,三芝區,886-2-26361708,121.510985,25.257667,,民宿,N
九份民宿-龍門客棧,位於新北市的民宿,新北市瑞芳區崙頂路110號,新北市,瑞芳區,886-2-24966036,121.844241,25.107499,0.0,民宿,E
漁人碼頭休閒旅館,溫馨舒適服務 漁人碼頭休閒旅館經營團隊，本著溫馨、舒適、服務的宗旨，在淡水河畔建立了一座愛家愛海愛戶外者的樂園，透過這裡您可以和親愛的家人或最親近的朋友一起享受陽光、海風、美食…..盡情的陶醉… 或者你可以暫時拋開惱人的工作，和你的愛人驅車淡水，悠閒的在河堤漫步，欣賞波光粼粼的日落，來個小吃信步回到房間，享受一杯咖啡。,新北市淡水區中正路2段22巷8號2至7樓,新北市,淡水區,886-2-28058886,121.420552,25.181656,0.0,飯店/旅店,N
萬熹大飯店,位於新北市的旅館,新北市淡水區中正東路35號2至6樓(1樓門廳）,新北市,淡水區,886-2-26213281,121.45938799999999,25.15639,0.0,飯店/旅店,N
悅客商務飯店,悅客商務飯店是經專業設計師精心規畫，座落於新北市板橋一幢全新的商務飯店，於2014年以異軍突起、一顆新星之姿加入飯店業界，為所有國內外旅客提供貼心的住宿服務。悅客商務飯店位於新北市都會中心～板橋，距台北市僅一水之隔，距北二高中和交流道只有十分鐘車程，近臨新北市政府、板橋車站(三鐵共構 台鐵、高鐵、捷運)及國內長途巴士總站、捷運板南線江子翠站3號出口步行約15分鐘，交通十分便利。本飯店全館有無線網路及備有電腦提供旅客使用，出差，旅遊…..『悅客商務飯店』將是您最佳選擇。,新北市板橋區三民路一段107號1-9樓,新北市,板橋區,886-2-29648889,121.479499,25.021378,17.0,飯店/旅店,W
迷你谷渡假民宿,位於新北市的民宿,新北市烏來區烏來里啦卡路20號,新北市,烏來區,886-2-26616388,121.55475200000001,24.861988,0.0,民宿,S
小角落民宿,"1.【平日、假日定義】　※平日：星期日~星期四　※假日：星期五~星期六, 連續假日與農曆年節 　(農曆過年期間房價是假日價 每間房間加收800元服務費用)2.【進退房時間】　※進房時間：下午16:00以後。　※退房時間：上午11:00以前。超過指定時間退房者，將酌收部份清潔費用每小時250元。3.【加床】　※2歲以上 500元/1人 　※2歲以下幼兒不加床收300元/1人",新北市瑞芳區坑尾巷1號,新北市,瑞芳區,886-938-460100,121.84419399999999,25.112006,,民宿,E
悅喜商務飯店,位於新北市的旅館,新北市板橋區東門街30之2號11至12樓,新北市,板橋區,886-2-89658288,121.45812099999999,25.008096,0.0,飯店/旅店,W
九份山經民宿,位於新北市的民宿,新北市瑞芳區基山街204號,新北市,瑞芳區,886-2-24966027,121.84228200000001,25.106942,,民宿,E
TS MOTEL（鼎帥温泉汽車旅館),位於新北市的旅館,新北市金山區金美街9號及11號,新北市,金山區,886-2-24988866,121.638557,25.219365,0.0,汽車旅館,N
欣芳旅社,位於新北市的旅館,新北市板橋區南雅南路1段1巷3號1樓,新北市,板橋區,886-2-29681381,121.45687,25.007133,,旅社,W
九份巷居民宿,"[九份巷居民宿]鄰近熱鬧的九份老街和金九地區各熱門景點,同時擁有寧靜的住宿空間,讓你能夠充分地好好充電休息;民宿位在五番坑公園旁邊的福住里社區,這裡有許多特色小店和藝術家們等待你來挖寶,享受獨特的人文氣息｡",新北市瑞芳區佛堂巷11號,新北市,瑞芳區,886-2-24967380,121.84198700000002,25.106697,,民宿,E
澳底灣民宿,位於新北市的民宿,新北市貢寮區新港街31巷2號,新北市,貢寮區,886-2-24901513,121.925449,25.055276,,民宿,E
趣山上民宿,位於新北市的民宿,新北市汐止區汐平路2段92巷7號,新北市,汐止區,886-2-26412459,121.695553,25.064639,18.0,民宿,E
老農夫民宿,位於新北市的民宿,新北市雙溪區丁子蘭坑50號,新北市,雙溪區,886-2-24930266,121.86608799999999,24.998867,,民宿,E
觀海樓旅店,位於新北市的旅館,新北市淡水區中正東路1段129號3至12樓(1樓門廳),新北市,淡水區,886-2-26291117,121.455955,25.159308,0.0,飯店/旅店,N
台北旅人國際青年旅館,台北旅人是全新開幕的背包客旅館，全館共有90個上下舖床位，是喜愛自由旅行與認識新朋友背包客的最佳選擇，我們位於淡水老街，是散步到各景點非常近的位置。房間分為女生宿舍床位，混合宿舍床位，每床位皆設舒適的彈簧床並附有閱讀燈、萬用插座、置物櫃(附鑰匙)、無線網路、衣架、空調、暖氣。淋浴間與洗手間為共用、洗手檯附吹風機。館內設有交誼廳，設備有電視、冰箱、微波爐、電磁爐、電鍋、烤麵包機、並提供免費咖啡與茶，全館禁煙。免費早餐於一樓交誼廳享用。從旅館門口左轉就是有名的淡水老街，並且離淡水河岸即是5分鐘以內的步行距離。這裡有美麗的夕陽，淡水河面在下午時分陽光反射形成金色河面，即是有名的金色河岸，傍晚坐在淡水河邊享受自然河風，或是搭渡輪到對岸八里觀音山，亦可搭渡輪到漁人碼頭，夕陽下山，走在燈光裝飾美麗的情人橋，在碼頭邊的音樂餐廳享用晚餐，夜晚散步後坐公車(紅26)回到台北旅人，一整天下來您所看到的是不同面貌的淡水!台北旅人，是旅行的人想坐下來的地方，是一個想在這裡分享旅行故事的地方，在這裡看著淡水河與海，您會想在這裡拍下這一刻的記憶，在這裡遇見從世界另一方而來的旅人，在這裡發現淡水所能給您的不止是美麗的風景，還有愛的故事。旅行是一種夢想，一種渴望，一種實現，一種看世界，一種冒險，一種滿足，這麼多的一種你我都懂，來到台北旅人分享旅行帶給我們生命的成長與滋潤，成為祝福別人的人，歡迎您來到台北旅人，歡迎您來這讓我們聽你的故事!,新北市淡水區三民街22號,新北市,淡水區,886-2-26258222,121.438965,25.171674,,背包客棧,N
烏來泰雅那魯灣溫泉渡假飯店,春之櫻、夏之溪、秋之宴、東之泉，隱身在大台北地區的祕密花園，一座正對烏來瀑布，被群山櫻花圍繞的渡假天堂，誠摯地邀請您吐納山谷間高含量的負離子、悠閒入住觀賞瀑布美景的溫泉客房、品味當地四季美食，讓您在大台北中也能輕鬆享受寧靜、樂活的深度之旅！,新北市烏來區烏來里瀑布路33號,新北市,烏來區,886-2-26616000,121.550947,24.848330999999998,0.0,飯店/旅店,S
美麗春天大飯店,位於新北市的一般觀光旅館,新北市新店區太平路9號,新北市,新店區,886-2-8666-9999,121.53416299999999,24.957832,0.0,飯店/旅店,S
沐舍溫泉渡假酒店,『沐舍』，取 &#34;沐浴春風，寒舍客來&#34;之意，而名之。融合豐富的元素及建築美學，細膩的規劃及巧思的設計空間，提供一個舒適環境，讓國內外旅客都能有著沐浴春風，宛如置身自家般輕鬆自在，賓至如歸。『沐舍溫泉渡假酒店』(原喜凱亞溫泉酒店)，位於風景秀麗的北海岸風景區，觀光資源豐富，北海岸濱海公路山青水秀、海深天藍，沿途景點及遊憩設施林立，更富有多樣化的藝術人文資源。2012年6月由沐舍連鎖品牌飯店正式取得經營權。秉持集團永續經營的理念，適時、適務、適切」的服務觀念，讓您感受假期中最道地的在地印象。本館擁有全台灣純淨天然且符合衛生標準的海底溫泉，成為品鑑優質溫泉人士最熱愛的精緻溫泉聖地。另外還提供精緻美食與休閒的極致享受！南洋風穿著清新富朝氣的接待人員，客房輕柔薄紗的床幔綴上綠意盎然，樸石砌築的舒適湯池，食材新鮮精緻的日式懷石料理，空間擺飾簡潔優雅的自然素材、椰影搖曳、熱帶花朵植栽盡展姿顏，簡約設計融入濃濃峇里風情，充滿熱情與浪漫，提供專屬於您一個渡假所需的最佳環境。,新北市萬里區萬里加投166之1號,新北市,萬里區,886-2-24082559,121.64349299999999,25.215392,,飯店/旅店,N
龍門溫泉民宿,位於新北市烏來溫泉民宿,新北市烏來區烏來里溫泉街116號,新北市,烏來區,886-2-26618187,121.55144399999999,24.860032999999998,0.0,民宿,S
塔卡的家民宿,位於新北市的民宿,新北市三芝區芝柏五街18號,新北市,三芝區,886-2-86354455,121.511499,25.256957,,民宿,N
溪隱之宿,,新北市平溪區公園街15號,新北市,平溪區,886-932-326256,121.737527,25.024919,,民宿,E
蘊泉庄(鴻寬),,新北市淡水區淡金路79巷16號(代表號),新北市,淡水區,886-2-26227888,121.45435800000001,25.161639,,民宿,N
億苑賓館,位於新北市的旅館,新北市板橋區後菜園街35號,新北市,板橋區,886-2-29654252,121.456428,25.009997,,旅社,W
幸福號角民宿,＊熱鬧的區段‧便利的生活機能～優質的舒適睡眠環境～位於新北淡水區的「台北淡水民宿‧這一站幸福民宿」為合法民宿，位置座落於鄧公國小附近，步行至淡水老街約10分鐘，步行淡水捷運站也只需8分鐘腳程，擁有便利完善的交通優勢，更保有單純與寧靜的住宿空間，每一位來訪的旅客們都能安心入住，享受安靜無憂的自我空間，度過輕鬆愉悅的愜意假期。 「台北淡水民宿‧這一站幸福民宿」提供多間潔淨、寬敞、明亮的雙人套房房型，公共客廳空間運用大量木頭元素，展現北歐風格的純淨清幽；格局寬敞、採光明亮的套房房型空間，運用高雅簡潔的裝潢設計和完善的家具設備，展現現代感十足的日式風華，並以淡雅的繽紛色彩呈現蓬勃旺盛的生命力，帶給旅客們最為單純典雅的生活品味。 倘若您對旅途或行程有任何疑問，歡迎直接電洽【02】2626-1133 台北淡水民宿‧這一站幸福民宿。訂房時間:9:00am~21:00pm,新北市淡水區水源街一段149號,新北市,淡水區,886-2-26261133,121.447052,25.171988,,民宿,N
嘉家旅店,位於新北市的旅館,新北市永和區福和路292號5樓(含5樓之1)至6樓及294號5至6樓,新北市,永和區,886-2-29297029,121.51721299999998,25.007346,0.0,飯店/旅店,W
日光涵館民宿,位於新北市的民宿,新北市瑞芳區基山街198及200號,新北市,瑞芳區,886-930-824391,121.842624,25.107472,0.0,民宿,E
薇城精緻旅店,位於新北市的旅館,新北市三重區重新路2段21號7樓,新北市,三重區,886-2-89882868,121.498171,25.062548,0.0,飯店/旅店,W
緩慢民宿,Adagio 代表音樂中的慢板，慢下來，才能看見生活中真正美麗的風景，人生中真正重要的價值。這個平台將提供有關緩慢 ‧ 生活旅行的各種私房景點、旅遊情報與文創美學。而緩慢也提出〔緩慢四度角 ‧ 靈魂四度角〕的品牌主張，期盼用新的視野，擁抱這個世界：1. 人們的溫度：對自己和別人都能提供溫暖；2. 生活的詩度：要把生活經營得像一首詩；3. 土地的厚度：珍惜土地母親的醇厚養分；4. 夢想的深度：投入對你意義深刻的夢想。在這四個面向裡，展開人生的旅行，如此，我們才不致失去生命的平衡，因為旅行，是為了找尋自己的座標。希望您以緩慢的速度，細細品味這個世界，我們相信，緩慢的旅行，從歸零到啟發，您將享受一趟靈魂的療程。,新北市瑞芳區山尖路93之1號,新北市,瑞芳區,886-2-24961111,121.854658,25.114098000000002,0.0,民宿,E
橙橙民宿,位於新北市的民宿,新北市瑞芳區中正路10號2至4樓,新北市,瑞芳區,886-972-367787,121.808696,25.107157,,民宿,E
聽風的歌,,新北市瑞芳區崙頂路111號,新北市,瑞芳區,886-2-24062277,121.844715,25.106968,,民宿,E
回家小旅店民宿,位於新北市的民宿,新北市瑞芳區基山街194號,新北市,瑞芳區,886-915-819855,121.84335700000001,25.108645000000003,,民宿,E
有馬溫泉MOTEL,"[有馬溫泉]為日本最古老的溫泉,自遠古時代人們便有了承受著大地的恩惠而噴湧不止的自然溫泉,在技術發達的今天業者與專業的溫泉探勘團隊在研究多年,歷經深層地質鑽勘完成,並取得溫泉執照,提供具養顏美容功效的碳酸質溫泉,開創汽車旅館新紀元,為新北市土城區增加新的代名詞--土城[有馬溫泉]",新北市土城區中央路2段392號,新北市,土城區,886-2-22606666,121.439199,24.97144,0.0,汽車旅館,W
美莊旅社,位於新北市的旅館,"新北市板橋區東門街3,5號",新北市,板橋區,886-2-29698225,121.456111,25.0088,,旅社,W
大東旅館,位於新北市的旅館,新北市貢寮區福隆里興隆街4之1號,新北市,貢寮區,886-2-24991362,121.941201,25.019493,,飯店/旅店,E
平林休閒棧民宿,位於新北市的民宿,新北市雙溪區外平林37號,新北市,雙溪區,886-2-24934016,121.85433400000001,25.036901,0.0,民宿,E
馨記旅館,位於新北市的旅館,新北市蘆洲區九芎街95號,新北市,蘆洲區,886-2-28480296,121.466075,25.079361,0.0,旅社,W
九份山棧樓許桑的家民宿,位於新北市的民宿,新北市瑞芳區基山街31巷9號,新北市,瑞芳區,886-2-24976417,121.845896,25.109379,,民宿,E
旅行邦尼,旅行邦尼 離淡水捷運站 走路5分鐘，在老街與中山路之間 ，樓下是庶民日常採買的早市，走出巷子口是老街..也可以流連河邊看夕陽...真的多種風情一次踩足...旅行邦尼 全館無電梯，床鋪均為上下舖，床位配有充電插座，閱讀燈公車站牌在我們巷子口，還可以去漁人碼頭，小白宮，真理大學，砲台，第一滴水，雲門劇場..想去哪裡都可以,新北市淡水區中山路87巷7號,新北市,淡水區,886-2-26218707,121.442423,25.170282,0.0,背包客棧,N
白沙灣角民宿,,新北市石門區下員坑15之10號,新北市,石門區,886-926-611639,121.51201,25.28493,,民宿,N
百麗旅店,~百麗旅店全館亮麗裝潢展新迎賓~   百麗旅店寵愛每位賓客，期待您能盡情享受旅居的美好時光。簡單中帶流線創意的大廳空間，透過傢飾點綴出躍動的層次，展現出率真的空間性格。深灰色櫃台給人有沉穩與雋永、搭配別緻的藝品陳設，散發著雅致的氣息。時尚現代感風格室內設計與色調，一系列精心挑選的客房備品，為您構築品味非凡的優雅舒適環境。百麗旅店等待您來細細品嚐…,新北市板橋區南門街1巷2號,新北市,板橋區,886-2-22727398,121.45756000000002,25.008538,0.0,飯店/旅店,W
瑞濱民宿,位於新北市的民宿,新北市瑞芳區瑞濱路阿美家園53號,新北市,瑞芳區,886-2-24970622,121.82108899999999,25.117257000000002,,民宿,E
牡丹清境民宿,位於新北市的民宿,新北市雙溪區定福11號,新北市,雙溪區,886-2-24934901,121.850132,25.074036,0.0,民宿,E
青青汽車旅館,青青花園汽車旅館位於新北市三峽境內人文與藝術豐富的環境中，鄰近三峽祖師廟文化遺產及鶯歌陶瓷藝術之美，擁有得天獨厚的地理環境，為您打造一座座古羅馬建築花園城堡，置身其中彷如電影羅馬假期中男女主角的浪漫。青青汽車旅館提供給您花草樹木環繞的休閒幽會場所，為您打造最浪漫、最神秘動人的吸引力，讓您體驗有別以往的新鮮感與刺激變化，增進閨房情趣，促進夫妻情侶間的感情。青青旅館是三峽鎮內首家國際級觀光旅館，採歐式建築風格，提供給旅客、商務人士最佳的休閒空間，內部裝潢讓您有身處家中的舒適感覺，房間設備完善，席夢思大型床組、按摩椅、花梨原木傢俱，精緻時尚設計，是您洗滌塵世煩憂的好所在，浴室備有按摩浴缸，按摩水柱、蒸汽浴，除了照顧您的身體，更能體貼您的心情。青青汽車旅館 休息680元起、住宿1780元起青青花園汽車旅館網址：http://www.chingching-motel.com.tw/中文,新北市三峽區長泰街30號及30號之1至27,新北市,三峽區,886-2-26743333,121.378745,24.931984,0.0,汽車旅館,S
尚登意民宿,位於新北市的民宿,新北市萬里區萬里加投68之5號,新北市,萬里區,886-2-24988310,121.642351,25.214658,0.0,民宿,N
帝苑旅店,帝苑時尚旅店位於板橋市文化路一段，捷運板南線【新埔站】2號出口步行3分鐘可抵達，交通方便，本館還附設專屬的停車場，凡是來消費皆可免費使用，不論您是開車或搭乘大眾運輸工具，我們絕對是您最佳的選擇。除了典雅精緻、溫馨舒適的客房，我們更提供液晶電視、最新的影視娛樂VOD系統及按摩浴缸，讓您能有個舒適充實的休憩時光。除此之外，更提供了商務人士洽商旅遊最需要的無線寬頻上網服務，讓您能迅速接收最新訊息。我們秉持著親切的服務態度，讓您感受賓至如歸的愉悅，以務實的價格，最用心的經營理念期待與您一起分享我們無微不至的溫馨服務，帝苑旅店的美麗希望能與您一起細細品嘗~特色:一、距離捷運【新埔站】約3分鐘步行路程，交通便利 可直接搭乘捷運藍線，前往龍山寺站、忠孝復興站、忠孝敦化站、國父紀念館、市政府站二、可搭乘公車前往板橋車站搭乘火車、高鐵、客運， 車程約3分鐘、步行時間約為12分鐘。三、周邊景點:板橋林家花園、鶯歌、三峽等景點區皆可搭乘大眾運輸抵達四、致理技術學院正對面、鄰近中山國中、江翠國中，是您考季的最佳選擇五、2010年起陸續裝潢更新、設備升級，提供您最佳的軟硬體設施與服務,新北市板橋區文化路1段218號1樓及3至7樓,新北市,板橋區,886-2-22572525,121.46670300000001,25.020321,,飯店/旅店,W
九份 sea cafe 民宿,位於新北市的民宿,新北市瑞芳區明里路166號,新北市,瑞芳區,886-2-24961611,121.859489,25.118019,,民宿,E
九份老舍民宿,在九份山丘，聚落沿著蜿蜒山谷盤旋漫步，斑駁礦山記憶在老舍間徘徊。追著思鄉的季節，沿著層層疊疊的石階前進，鄉愁在九份的芒草間搖曳。這懷舊的台北民宿是礦工的老房，古早味的空間＋咖啡＋花茶＋水果＋梅酒＋鮮花＋音樂＋故事＋回憶... 也許是，讓思念變成一種遙遠的鄉愁。也許，讓愛情化為往日情懷。也，可能讓自己孤獨一日。老舍，讓你自言自語面對自己。老舍，讓你親親秘密面對我倆。老舍，讓友情親情長長遠遠……,"新北市瑞芳區街頂巷20,21號",新北市,瑞芳區,886-960-576258,121.844567,25.10815,0.0,民宿,E
儷閣經典旅館,"大台北地區, 唯一坐落山中的休閒旅館, 佔地近5千坪,有別於都市水泥中的狹窄旅館, 一個真正具有渡假氛圍的森林別墅, 讓你拋開繁忙的生活, 感受環山圍繞的遼闊, 儷閣邀您一起走入山林, 沒有負擔的快樂呼吸!!!",新北市中和區員山路8之6及8之7號,新北市,中和區,886-2-82286686,121.48441499999998,24.982353,0.0,飯店/旅店,W
清翼居旅店,台北清翼居旅店以推動人文、創意為出發點，致力成為一個「旅行、創意、藝術」的平台，邀請國內外多位藝術創作者參與。個性化的視覺效果，注入時尚品味及生命力，將清翼居旅店的時尚、雅痞及色彩藝術完整地詮釋，多元性的創意主張為旅店重新定義：旅店不只是供住宿休憩的空間，更是一個旅行與創意相遇的感動。,新北市板橋區館前東路26號6樓及6樓之1,新北市,板橋區,886-2-29541808,121.46046100000001,25.007125,0.0,飯店/旅店,W
自然山居民宿,位於新北市的民宿,新北市萬里區員潭路16之9號,新北市,萬里區,886-2-24983615,121.645017,25.195399,,民宿,N
莫瑞納海灣會館,※會館泳池已改為觀景池，無法下水使用，敬請見諒※ ＊ The swimming pool is currently unavailable ＊＊飯店規章　1.check in ：15:00   (最晚22:00)   check out：11:00   (逾時退房需另加收費用)  2.早餐時間：7:00~9:30am3.入住時請出示身分證辦理登記，同時繳交剩   餘住宿費用。4. 電話訂房後，請於三日內付訂金，逾時匯款視同放棄，匯款後請於電話告知末五碼，以供查詢。5.禁止抽菸吃檳榔(如有需要請至會館門口外面左方小花園)6.嚴禁在飯店內吸食毒品，交易違法情事以及攜帶危險物品，違規者一律報警處理並要求退房。8.嚴禁攜帶麻將以及一切賭博行為。9.若損壞會館內設施及物品，皆需照價賠償。 ＊訂房電話：02-2490-3955   Line ID：24903955,新北市貢寮區仁愛路106巷36號,新北市,貢寮區,886-2-24903955,121.92966399999999,25.053531,0.0,飯店/旅店,E
利未莊園民宿,"民宿網址:http://levitevillage.net利未是一棟依山而建的四層斜頂建築, 白牆混合貼石的外觀, 遠看酷似一座教堂。名稱源自希伯來文, 有殷切召喚現代人回歸自然生活之意。每個房間除了都有優美的視野, 房間內的寢具都均由知名的服裝設計師親手縫製，全套純白棉質的寢具價值不菲。在房客退房後都會用臭氧機殺菌, 讓你如同徜徉在森林中。利未莊園的管家Pauline& Tony取得國家級的證照「外語領隊人員」(英語)，及「華語導遊人員」，以專業的導覽內容及親切的態度，迎接來到民宿的朋友們。  每次拜訪金瓜石都被管家所規劃的旅遊行程深深的吸引, 玩得再累只要躺在利未特製的寢具中, 就能好眠到天明。利未莊園是讓你有吃、有住、有玩、還有回家感覺的民宿。  如果你想初臨體驗請與我們連絡。",新北市瑞芳區山尖路97號,新北市,瑞芳區,886-2-24961658,121.853908,25.114054,6.0,民宿,E
小鳥敲門度假屋民宿,歡迎來到小鳥敲門度假屋早上小鳥會來敲門喔！快來體驗！,新北市雙溪區新基東街15之3號,新北市,雙溪區,886-2-24931618,121.87358,25.041597,0.0,民宿,E
名流賓館,位於新北市的旅館,新北市三重區正義北路6之1號8樓,新北市,三重區,886-2-29857515,121.497482,25.062712,0.0,旅社,W
車頭頂民宿,位於新北市的民宿,新北市平溪區十分街27號,新北市,平溪區,886-2-29051670,121.772419,25.040948999999998,,民宿,E
白沙灣濱海民宿,位於新北市的民宿,新北市石門區德茂里下員坑15之18號,新北市,石門區,886-2-26366757,121.511046,25.285712,0.0,民宿,N
九份-山嶼海親子民宿,位於新北市的民宿,新北市瑞芳區汽車路80號,新北市,瑞芳區,886-907-862266,121.84427099999999,25.109931,,民宿,E
花岩山林民宿,位於新北市的民宿,新北市三峽區有木里有木104之1號,新北市,三峽區,886-2-26749618,121.439353,24.865181,0.0,民宿,S
嫚嫚窩民宿,,新北市瑞芳區逢甲路146號3樓,新北市,瑞芳區,886-2-24973577,121.80824299999999,25.109368,,民宿,E
藏愛旅店,位於新北市的旅館,新北市三重區成功路73巷6號,新北市,三重區,886-2-29788880,121.48925700000001,25.051607,0.0,飯店/旅店,W
虹橋民宿,"三芝虹橋民宿---住我家好精采  Its brilliant to stay at our homestay!千紅－春夏之際日本楓火紅艷麗 萬紫－鳶尾、紫藤最為美麗群青－睡蓮百花爭豔，色彩繽紛碧綠－落羽松綠樹成蔭，浓郁葱茏 深褐－自家烘培咖啡豆，香氣迷人白青－白沙灣,老梅綠澡海天一片春黃－蟬鳴鳥叫，蛙聲不斷混彩－曇花、杜鵑、繡球花團錦簇調色－藝術家親自繪製園區壁畫虹橋民宿坐落於三芝金牌農村獎共榮社區山谷內，小溪作伴，安靜宜人．經在地農村保育，時常可見老鷹在天空盤旋，生態豐富健康，民宿主人用心經營，園區色彩繽紛，楓樹火紅、紫藤、睡蓮、鳶尾、曇花、落羽松、菖蒲等植物維護有成．春節花季吸引不少攝影師駐足拍攝，畫家寫生也將園區作為特色景點．來到這裡，建議離開電視，您會看到老闆娘溫暖又真誠的招呼聲，遞上自家烘培咖啡或花茶，讓您來到民宿便放鬆心靈．來園區慢活，小溪泡腳，鄉村散步，欣賞二代藝術家老闆的壁畫創作，隔日享用精心準備的中西式早餐，有老闆娘自製蘿波糕，友善根種蔬菜，保證吃得健康養生．遊玩景點如白沙灣、淺水灣、野柳、淡水老街等北海岸線，皆為著名景點，晚餐也可提早向民宿預定，我們會用心為您準備創意料理，或品嘗大塊牛排、漁港海產、越南口味，當季蔬食等三芝著名美食．民宿經營至今，已累積不少回頭客，感謝客人對我們的真心，不論是全家住宿、情侶求婚、輕旅行、公司旅遊、同學會、化裝舞會，我們都很歡迎．讓我們來分享這裡的生活，我們會熱情的與您做朋友．",新北市三芝區八賢里1鄰八連溪1之5號,新北市,三芝區,886-2-86354131,121.50736200000001,25.247622,,民宿,N
和昇會館  陽明攬月會館,位於新北市的旅館,新北市金山區中信北路16巷38號,新北市,金山區,886-2-24080033,121.59731299999999,25.20599,0.0,飯店/旅店,N
玉山旅店,位於新北市鶯歌區的旅館，鄰近鶯歌火車站，環境清幽、溫馨舒適、潔淨安全、交通便利。平實的價格與親切的服務絕對讓您物超所值，歡迎駕臨入住。,新北市鶯歌區文化路228號,新北市,鶯歌區,886-2-86776060,121.352599,24.948658,0.0,飯店/旅店,W
富裕自由旅店正義館,,新北市三重區重新路2段68號9樓、70號9樓,新北市,三重區,886-2-89762100,121.49772800000001,25.061892,,飯店/旅店,W
逸閒居民宿,新北｜The Easy Space 逸閒居．海灣老漁村的派對時光你有多久沒和一大群朋友一同出遊？一起看海、一起喝酒唱歌直到天明。約定好，這是屬於我們的週末，坐上車朝海的方向前進，直奔我們的青春派對──逸閒居，The Easy Space，讓你們自由自在渡假的海畔老別墅。老別墅裡的假期空間沿著海而行，離台北只要一個鐘頭的車程，就能抵達這在貢寮海灣被遺忘的老漁村。一幢褪色的紅磚別墅，臨海而立，早年刻意仿歐的建材，仍能看見曾經的風華。拉開厚重的玻璃門，世界瞬間切換──Bossa Nova慵懶的爵士樂迴盪耳邊，兩層樓的挑高大廳掛上水晶燈，氣派非凡；七米高的全景落地窗，盡收藍天大海與山巒。逸閒居，其實是女主人Amber的爸爸在二十年前送給爺爺的六十大壽賀禮，離鄉打拚的爺爺在事業有成後，一直渴望回到家鄉，於是爸爸帶著爺爺的心願，回家鄉蓋起當時最時髦的歐風建築。而對現在逸閒居的新主人Amber而言，逸閒居就是和朋友一起度假的美好童年回憶，在為了家人從喜愛的美國生活重回台灣後，便一起著手翻新逸閒居，讓記憶中的感動能繼續延續。回台灣，也讓Amber遇見了甜蜜戀情——Michael，兩人互相欣賞、彼此照應，在逸閒居將幸福的日常，分享給每個到來的旅人！五間房五個祕密海灣驚喜的是，在兩百五十坪的空間，不只藏著一百吋藍光大螢幕的家庭電影院，還有KTV、烤箱、蒸氣室、調酒吧台，和設備齊全的健身房！以及一個小閱覽室，放著Amber從小就愛看愛收藏的漫畫書。未來，還正準備再打造一個空中海景咖啡座供旅人享受！而五間臥房也在Amber與男主人Michael的巧手下，用嶄新的美學與巧思翻修佈置。如果你愛大房大海大天空，那定是首選二樓面海的海景天空房，最接近遼闊的天空與大海；一樓的漁村海灣套房，同樣的大坪數，也一樣毫不吝嗇給你海天一線的美景。,新北市貢寮區福連街38號,新北市,貢寮區,886-988-339803,121.988556,25.011342000000003,,民宿,E
亞昕福朋喜來登酒店,"酒店位於機場捷運A9站步行1分鐘，到桃園機場僅15分鐘，鄰近三井Outlet，到台北車站僅25分鐘車程擁有165間精心打造的經典客房，其中包含12間套房、2間無障礙房、1套總統套房，共22層樓高(地上18層、地下4層)22層樓高  所有公共空間、宴會廳、客房均提供高速無線網路 150 MB  三溫暖-冷熱水池、蒸氣室、烤箱健身房 (標配 Life Fitness, 24小時開放)25米無邊際泳池",新北市林口區文化三路一段1號，1號2樓，1號3樓,新北市,林口區,886-2-77276988,121.36098,25.06618,393.0,飯店/旅店,W
福容大飯店    淡水漁人碼頭,福容大飯店 淡水漁人碼頭，坐落於淡水漁人碼頭內，緊鄰淡水出海口，遠可眺望觀音山及八里渡輪，坐擁絕美景致，不論是觀山海或是凝望淡水夕照，都讓人驚豔不已！飯店外型仿若一艘巨型郵輪，故有＂福容愛之船＂美名，規劃198間客房，隨處可見海洋休閒度假風，提供極致貼心的尊爵服務，飯店內有SPA、游泳池、健身房等娛樂設施。還有可容納中式百桌、西式千人的劇場式無柱豪華宴會廳。飯店外圍並有商店街與藝術大街，提供旅人休憩、購物，一次滿足。飯店旁伴隨著聞名台灣的超級旋轉觀景塔----情人塔，由麗寶機構耗資近三億多打造，塔身嚴選瑞士硬體設備，安全無虞，塔高計100公尺，每次可容納80人，可飽覽淡海360度全視野景觀，登上塔高，可遠眺台灣海峽以及觀音山景致。不論是迷濛細雨，或是金紗般清晨與如同詩畫的日落黃昏，皆能看見不同景致之美。讓您留下一生驚豔的美麗回憶。,新北市淡水區觀海路83號,新北市,淡水區,886-2-26287777,121.41113200000001,25.185137,180.0,飯店/旅店,N
美好時光民宿,矗立在九份山城的「九份民宿‧九份美好時光民宿」，距離九份老街步行僅需3~5分鐘的距離。南歐城堡般的外觀建築，搭配潔白純淨的純粹色彩，以白與黑搭建出獨有的雅緻風味。順著石塊砌成的階梯緩緩而上，步入「九份民宿‧九份美好時光民宿」，即可清楚感受到一股獨有的寧靜優雅氛圍。「九份民宿‧九份美好時光民宿」提供多間寬敞的套房空間。搭配純色基調，以不同風格的裝潢佈局，打造出同等自然清新、典雅靜謐的舒適氣息。從窗戶可以清楚眺望九份山景、海景及街景矗立眼前。有別於舊時的光陰，從僅有的九戶住家發展成為多幢住屋依山而居，蔚成一片山城奇景。「九份民宿‧九份美好時光民宿」不僅提供潔淨寬敞的幽雅住居，更提供迎賓茶等餐飲空間。由主人自行翻修的中國風雕花座椅，搭配鮮橘亮麗的裝潢色彩及歐式圓桌，並將透明窗戶鑲在牆面中央，以窗外的山巒美景做為最佳的壁畫畫面。彼此的衝突撞擊出另一番獨特的風味美景，伴隨著佳餚，陪您度過愜意的九份之夜。,新北市瑞芳區崙頂路39之2號,新北市,瑞芳區,886-2-24960326,121.844838,25.107596,,民宿,E
自由空間青年民宿,位於新北市的民宿,新北市瑞芳區中正路77號(第2層),新北市,瑞芳區,886-939-788892,121.80546399999999,25.107554999999998,,民宿,E
愛遛遛民宿,各位好：我是i66民宿老闆Gorilla，我們第一家民宿位於淡水。距離捷運淡水站步行6分鐘、緊鄰英專路夜市、淡水老街、美食店家、以及各大淡水景點，生活機能極為方便。在這裡我想分享淡水的私人玩法，帶您發覺巷弄裡的驚喜、還有私人的台灣旅遊行程，歡迎您交流分享，或造訪我舒適的民宿，謝謝。,新北市淡水區幸福里14鄰仁愛街1巷8之1號,新北市,淡水區,886-903-494947,121.44610300000001,25.171169,0.0,民宿,N
萬里仙境溫泉會館,金山溫泉會館推薦－萬里仙境溫泉會館，本館位於金山老街、衝浪聖地沙珠灣附近，提供您硫磺泉質的泡湯住宿享受，全館備有寬頻網路，是您北海岸旅遊、金山泡湯住宿的最佳選擇。金山萬里怎麼玩～陸海空全面進攻！！ 露天浴池、私人湯 屋一應俱全 露天浴池、私人湯 屋一應俱全 來金山老是不知道怎麼玩？除了冬天泡溫泉、吃鴨肉外，金山萬里其實一年四季都很好玩！！萬里仙境溫泉會館為您特搜，找出在地人最推薦、來金山一定要玩的三種行程。 無論是在地面上悠哉的享受溫泉的身心靈SPA、全家歡樂窯烤地瓜；還是在海面上享受刺激的衝浪；甚至大膽奔向藍天挑戰飛行傘的翱翔天際快感…(金山溫泉)萬里仙境溫泉會館保證讓您從陸、海、空三路暢遊金山萬里，享受北海岸最瘋狂的超殺體驗！！,新北市萬里區萬里加投197-3號1-4樓,新北市,萬里區,886-2-24082669,121.64288400000001,25.215917,0.0,飯店/旅店,N
慕朵微風時尚休閒汽車旅館,位於新北市的旅館,新北市樹林區中正路349號,新北市,樹林區,886-2-26870033,121.417134,25.006104,0.0,汽車旅館,W
幸福山行民宿,位於新北市的民宿,新北市平溪區靜安路2段274巷10號,新北市,平溪區,886-2-24952748,121.72826,25.022311,,民宿,E
北海道民宿,位於新北市的民宿,新北市平溪區白石腳1號,新北市,平溪區,886-963-309522,121.72181,25.021997,,民宿,E
翰品酒店,翰品酒店新莊以Art Nouveau為設計主軸，採優雅時尚的法式風格，融合低調奢華的東方美學，展現出充滿活力的傳統之美。戶外歐風廣場為概念，四周牆面包覆著歐式藝術銅雕，飯店內了融合浪漫歐洲街頭的氛圍。走進大廳，仿佛進入歐洲小鎮溫暖靜謐而舒適的環境，讓旅人在住宿時充分的讓身心靈自在放鬆。翰品酒店新莊共有九種不同房型，提供國內、外旅客洽商旅遊時，最佳的住宿環境。客房內採極簡歐風設計，以東方元素的傢俱，融合法式風格的點綴，有著家一般的溫暖放心。酒店內還提供各式旅客所需的服務與休憩空間，如健身房、交誼廳、貴賓VIP Lounge，完整的提供您放鬆紓壓的不同空間。,新北市新莊區中正路82號,新北市,新莊區,886-2-29987699,121.458087,25.037679,427.0,飯店/旅店,W
火車頭民宿,位於新北市的民宿,新北市淡水區中正路34之4號,新北市,淡水區,886-2-26235991,121.443731,25.169642,,民宿,N
愛摩兒時尚旅舘,位於新北市的旅館,"新北市永和區仁愛路316,318號",新北市,永和區,886-2-89217721,121.50340600000001,25.007846,0.0,汽車旅館,W
九份岑品民宿,"可以參考我們岑嵐雙人房,風景可以看的到海哦,我們都是同一棟,每一間都是獨立的套房,獨立的衛生間我們都會提供:牙膏 牙刷 洗髮精 沐浴乳 浴巾 吹風機為了給下一個房客美好的住宿空間,房間內禁止吸菸民宿到老街走路約為2~3分鐘很近也很方便如有大型李可以寄放在瑞芳車站,帶個小背包在上來會很方便哦!Line ID:rrrr51434  (SENSITIVE CONTENTS HIDDEN):rrrr514",新北市瑞芳區烏勢巷81號,新北市,瑞芳區,886-918-035172,121.845546,25.108906,,民宿,E
君利商務飯店,君利位於新北市政府、板橋車站／高鐵站及捷運府中站旁，為新北市之重要行政及交通樞紐中心。鄰近板橋車站商圈、遠東集團百貨及知名婚紗街，生活機能多樣且豐富。面對鬧中取靜的介壽公園，使旅客暫時遠離喧囂，沉澱忙碌的身心。君利致力於提供實惠超值的住宿品質予國內外商務旅客，提供商務功能，使您辦公無空間限制且像於家中般自在。舒適典雅的睡眠空間、親切的待客之道更是我們的主要服務核心。擁有47間別緻客房，以細膩手工、典雅風情打造空間品味；大地色系的內斂裝潢擺設，盼您在繁忙的都會中得到放鬆休憩。飯店設施　•　餐廳：提供旅客用心烹調之中西式自助早餐。　•　商務中心：24小時開放　•　健身房：提供專業的健身器材　•　自助洗衣室：提供免費自助式洗衣機與烘衣設備　•　泊車服務：24小時貼心看顧您的愛車　•　預約制免費接駁服務：提供飯店鄰近重要交通點接駁，如板橋車站、府中捷運站。(需事先來電預約),新北市板橋區公園路16號1至6樓,新北市,新莊區,886-2-29562800,121.447731,25.038849,0.0,飯店/旅店,W
魚旅,新北｜魚旅背包客棧．帶上自由的靈魂悠遊到鶯歌浪跡天涯的旅人呀，魚兒般悠遊四海，今天，你要去哪裡旅行？揹著行囊順心而行，在鶯歌火車站前方，雙眼不自覺被漆上海藍的窗框吸引，那是自由的藍築起的旅人的家——魚旅。旅人的家，悠遊四海的中繼站巨鸚在藍天中遨遊，選擇停留在新北西部山稜，一棲身，關於鸚哥石的傳說悠悠傳唱名為鶯歌，跟著歲月譜成旅行的旋律。魚旅就座落在鶯歌火車站對面，歡迎漂泊的靈魂將這裡作為旅行中繼站。走進大廳，大門左側一樹枝枒，販售來自遠方的小物，從民族圖騰服飾到手作飾品，同樣愛旅行的主人Emma把繽紛世界帶回魚旅，親手佈置這個家。「既然是旅人的家，我想要讓大家有平安舒服的感覺！」一樓整面塗鴉牆以寧靜的藍與白作為主色調，散發安和的氛圍，這些全都由Emma親自設計，一筆一筆畫下理想，在她的巧手下，浪跡天涯的魚，仍有一個歸宿，這是Emma的信仰，也希望給予旅人能量。繽紛塗鴉築起的背包小房脫鞋上樓，白淨簡單的上下舖木床，承載來自四面八方的旅行理想藍圖。除了背包客房外，魚旅也有提供雙人房和四人房，鑰匙是游在愛心裡的小魚兒，一溜煙地帶妳遊向小太陽房，小太陽房內有獨立陽台，良好的採光烘著溫馨色調的小房間，微風迎面拂來，輕搖著美夢。一面以汪洋藍為底的塗鴉牆引妳走向大太陽房，妳跟著色彩的引領看見燦爛的太陽黃花在大太陽房裡綻放，守著兩張雙人床墊的好眠。地舖上了草綠的柔軟榻墊，讓旅人盡放鬆享受。「ΙΧΘΥΣ」，是希臘文的「魚」，也是魚旅重要的精神符號。早期基督教受羅馬帝國宗教迫害時，教徒使用希臘文魚的意象，以簡單的上半圓弧和下半圓弧當作暗號，來相認彼此的身分。「希望每個來到魚旅的人，都可以找到另一個相合的伴，並有耶穌的平安同在。 」Emma說，魚兒就像是我們每個人的靈魂，我們都在旅行中，逐步完滿自己的生命。,新北市鶯歌區文化路171號,新北市,鶯歌區,886-910-071926,121.35560100000001,24.954189000000003,,背包客棧,W
九份山城溫度民宿,民宿不是飯店更不是旅館，民宿需要的是熱情，把靈魂灌注房子裡，房子才會活過來………這才是我心目中的民宿！九份、一間小小的民宿代表著我的一個小小的夢！只希望來造訪這裡的朋友能感受到九份的美，居住的舒適以及淑菁的熱情…….歡迎您來九份找我，這裡是您在九份的家!!!,新北市瑞芳區佛堂巷28號,新北市,瑞芳區,886-937-093724,121.841493,25.106696,,民宿,E
探索汽車旅館中和館,位於新北市的旅館,新北市中和區建八路3號,新北市,中和區,886-2-82217070,121.48589399999999,24.999059,60.0,汽車旅館,W
雲海雅筑,,新北市瑞芳區烏勢巷124號,新北市,瑞芳區,886-928-545045,121.845596,25.109047,,民宿,E
富信大飯店,汐止南港地區首座五星級飯店，集多元服務於一身的台北富信大飯店地處於南港三鐵共構精華地區，由環東大道或汐止交流道僅 5分鐘即可抵達。鄰近南港軟體經貿園區、南港火車站、汐科火車站、中央研究院、汐止東方科學園區，是商務人士旅遊洽公的首選。多樣化服務項目：客房住宿214間、中西式餐飲 (含VIP包廂)、會議、大型筵席（適合婚宴、尾牙春酒及節慶活動）、婚顧中心、SPA會館、禮品中心等，不僅滿足台北市及新北市在地居民的生活休閒需求、帶動當地服務業發展，同時協助推廣台灣商務旅遊，共同為台灣創造優質舒適的商務交流空間。,新北市汐止區大同路1段128號,新北市,汐止區,886-2-26416333,121.628635,25.05441,0.0,飯店/旅店,E
嘉年華汽車旅館,嘉年華汽車旅館新北市蘆洲區集賢路385號TEL 02-2847-5211 FAX 02-2847-6244<B>嘉年華汽車旅館客房設施</B>本館全新裝潢，低價奢華。我們擁有最完善服務經驗、全新的佈置、頂級的時尚裝潢，是現代休閒的新去處。本館分前棟、中棟、後棟；四大房型，有頂級車庫房、時尚經典房、精品商務房、親子四人房。旅館客房擁有多種情趣設施，舒適按摩浴缸、紓壓按摩椅、情趣椅、37吋液晶電視、免費有線寬頻上網服務等。旅館客房住宿提供精緻早餐及零食飲料，休息提供零食飲料。,新北市蘆洲區集賢路385號(代表號),新北市,蘆洲區,886-2-28475211,121.48063400000001,25.082570999999998,0.0,汽車旅館,W
月河民宿,位於新北市的民宿,新北市瑞芳區祈堂路130號,新北市,瑞芳區,886-938-752202,121.858157,25.110077,,民宿,E
紅裡子民宿,"我們位於天燈的故鄉~平溪!!鄰近平溪火車站,平溪老街,平溪國小!!住我的房子可享受到老街的熱鬧與鄉村的寧靜！！",新北市平溪區三坑15號,新北市,平溪區,886-987-091831,121.73546200000001,25.031132,,民宿,E
櫻沐居民宿,位於新北市的民宿,新北市瑞芳區輕便路95號2樓,新北市,瑞芳區,886-2-24965130,121.844877,25.109048,0.0,民宿,E
雲頂民宿,位於新北市的民宿,新北市烏來區西羅岸路45號,新北市,烏來區,886-2-26617755,121.546476,24.863823,,民宿,S
富康精彩旅店,位於新北市的旅館,新北市板橋區文化路2段171號2至5樓,新北市,板橋區,886-2-22556336,121.470317,25.027489000000003,0.0,飯店/旅店,W
當我們同在一起民宿,位於新北市的民宿,新北市金山區山城路58號,新北市,金山區,886-2-27253104,121.595299,25.201467,,民宿,N
台北集賢商旅,2012年全新開幕的HOTEL G7 台北商旅座落於新北市集賢路上， 緊鄰徐匯中學捷運站及國道1號交流道，鄰近士林觀光夜市、士林官邸、天文科學博物館、科學教育館、陽明山國家公園、湧蓮寺商圈、台北東區SOGO商圈、淡水老街等知名觀光景點，交通網絡十分便捷。飯店採全新設計概念，各樓層分別以7種不同的主題呈現，Game Sport運動競技、Gentleman & Lady紳士名媛、Gallery Art藝文畫廊、Golden Era金色年華、Garden Secret祕密花園、Glass Colored萬花琉璃、Go green綠色世界，時尚現代設計所規劃出的接待區及商務專區，再表現出HOTEL G7 的特有氣質，細膩親切的服務品質不僅可以充分地讓貴賓身心得到紓解，亦能細細品味空間美學氛圍所帶來的住宿體驗。台北集賢商旅體貼入微的服務是您身心靈的歸屬，從心出發的體貼設計及感動服務，帶給您回家的溫馨感受，是商務、旅遊的最佳選擇。台北集賢商旅邀請您親臨鑑賞這兒的新人文時尚。,新北市蘆洲區集賢路372號,新北市,蘆洲區,886-2-82813888,121.480658,25.083160999999997,,飯店/旅店,W
綠茵谷民宿,位於新北市的民宿,新北市雙溪區新基北街72之2號,新北市,雙溪區,886-2-24934309,121.869578,25.040728,,民宿,E
九份寧靜海芳療民宿,位於新北市的民宿,新北市瑞芳區石埤巷12號,新北市,瑞芳區,886-2-24061488,121.797049,25.111931,,民宿,E
華倫大旅社,位於新北市的旅館,新北市板橋區館前西路265巷3號,新北市,板橋區,886-2-29689578,121.45404199999999,25.008213,0.0,旅社,W
情人溫泉民宿,位於新北市的民宿,新北市烏來區烏來里溫泉街83號,新北市,烏來區,886-2-26616181,121.55175,24.860056,,民宿,S
莊媽媽民宿,位於新北市的民宿,新北市平溪區嶺腳寮65號,新北市,平溪區,886-2-24951392,121.747844,25.03136,0.0,民宿,E
盟園旅社,位於新北市的旅館,新北市板橋區南雅南路1段1巷15號1至4樓,新北市,板橋區,886-2-89698016,121.457297,25.006872,,旅社,W
九份臥客棧民宿,"*獨門獨戶海景小屋-有個人衛浴及部分房間有陽台或觀景窗*距離老街底步行約7~10分鐘*距離公車站-大竿林站(七番坑下一站)步行5分鐘以內*房間內提供免費Minibar(礦泉水,泡麵,水果,茶,咖啡包)*隔日9點左右提供免費簡易早餐(需提早退房可事先告知， 幫您另外準備)*入住時間-3pm~8pm / 退房時間-11am(請至少前一日告知  預計入住時間)*我們位於非商業區的頌德社區內，晚上非常安靜，請放低音  量喔!!",新北市瑞芳區石埤巷41號,新北市,瑞芳區,886-905-188676,121.83941100000001,25.108286,,民宿,E
大板根太子會館,大板根位於三峽，總佔地約十七公頃、海拔不到300公尺，卻擁有國寶級的原始板根亞熱帶雨林景觀，園區內有品質極優的碳酸溫泉~美人湯，並有規劃完整國際級渡假酒店、大器宴會廳、休閒套房、國際級會議廳、溫泉會館、會員俱樂部、森林遊樂、生態之旅、教育訓練、課外教學、烤肉區等功能之大成，是北部地區唯一的綜合性渡假聖地。,新北市三峽區插角里插角76號1-5樓,新北市,三峽區,886-2-26749228,121.407251,24.870591,150.0,飯店/旅店,S
快樂天堂海景民宿,位於新北市的民宿,新北市三芝區後厝里北勢子4之20號,新北市,三芝區,886-931-534951,121.48184099999999,25.250038,,民宿,N
黑熊好眠站,"黑熊好眠站位於三重,提供設有空調的膠囊式客房適合獨自旅行的背包客、商務旅客、大型團體。全館皆可使用免費 WiFi。每間客房皆鋪有木飾地板,提供客人私人空間和安全保險箱。共用浴室中設有淋浴設施和吹風機。在黑熊好眠站,客人可在共用休息室享受閒暇時光。館內提供遊戲和電視。為了方便客人,館內設有 24 小時服務的前台,在此工作人員將很樂意協助客人免費行李寄存,以及提供旅遊訊息。此外也設有飲料自動販賣機。",新北市三重區重新路2段1號8樓,新北市,板橋區,886-2-89880000,121.456584,25.005939,0.0,背包客棧,W
萬金文溫泉民宿,位於新北市的民宿,新北市萬里區萬里加投45之7號,新北市,萬里區,886-2-24986166,121.64137099999999,25.210158,20.0,民宿,N
皇宮民宿,位於新北市的民宿,新北市平溪區白石腳5號,新北市,平溪區,886-2-24952021,121.71962099999999,25.021611,,民宿,E
瓏山林台北中和飯店,位於新北市北二高中和交流道旁的瓏山林台北中和飯店(RSL Hotel Taipei Zhonghe)，鄰近板橋、三峽..等新北市鬧區及著名觀光區，全館共有126間舒適客房，分為精緻客房、豪華客房、行政主管套房，每房皆免費提供快速、便利的網路，讓房客可隨時輕鬆悠遊網路世界。一應俱全的備品，不論在軟、硬體上面都以顧客需求為導向。針對不同的需求，來滿足顧客心中對於飯店住宿的理想要求。住房還可免費使用及享有健身中心、每日中文或英文報紙、礦泉水等多項館內設施及服務。除了住房之外，館內共有2間餐廳提供中西美饌。1樓的國際酒吧〈The Bar〉提供經典道地歐式料理及多樣化餐飲服務，並可輕鬆悠閒的享受下午茶、週末早午餐和酒吧服務。另附設美食外賣區，供應瓏山林台北中和飯店點心房手工製作麵包、點心及館內經典美饌。隨著大廳樓梯登上2樓，觀音石地板的延伸，映入眼簾的是帶有現代感的窗花屏風，沉穩的木質窗花。溫暖的紅餐廳餐點以單點吃到飽的方式提供消費者輕鬆消費嚐美食。一如其名「紅」餐廳，在亮麗、時尚、摩登的外表下，引申出內斂傳統、豐富多變的中式佳餚。除了餐廳之外，館內於3F並有挑高四米的宴會廳提供各式會議、宴會舉辦。,新北市中和區中正路631號1至12樓（包含地下１至３層）,新北市,中和區,886-2-22229999,121.485299,24.994948,,飯店/旅店,W
台北yes民宿,台北yes是淡水第一家合法背包客棧，位在長興街上，距離淡水捷運站走路只要五分鐘，淡水老街走路5分鐘可以到，外面還有公車站牌可搭紅26公車去紅毛城、小白宮、淡江中學、漁人碼頭等淡水景點，看完夕陽回來不用怕老街沒什麼東西可以吃，還可以到英專路吃美食，淡水許多美食都在這等你去品嘗。老闆本身是在地淡水人也是個背包客，他有許多當背包客的故是可以跟大家分享，歡迎大家來台北yes交流。,新北市淡水區長興街24號,新北市,淡水區,886-909-943968,121.443968,25.171112,,民宿,N
九份海論民宿,位於新北市的民宿,新北市瑞芳區崙頂路59號,新北市,瑞芳區,886-920-075319,121.845657,25.106763,,民宿,E
蝴蝶谷大飯店,位於新北市的旅館,新北市三重區正義北路6之1號10至11樓,新北市,三重區,886-2-29836801,121.49748100000001,25.062712,0.0,飯店/旅店,W
劉住春天民宿,位於新北市的民宿,新北市金山區名流路10巷11號,新北市,金山區,886-2-28838265,121.597978,25.202767,,民宿,N
背包客休息棧民宿,我們想給遊客一個舒適的住宿環境，價格雖然便宜，環境卻不差，停車非常方便。夏天可去海邊戲水.欣賞蝙蝠出洞。晚上可以到九份欣賞夜景，不用人擠人單車環島&徒步環島者  另有優惠,新北市瑞芳區海濱路51號,新北市,瑞芳區,886-2-24976029,121.83121200000001,25.12377,,民宿,E
貝爾頌精緻汽車旅館,貝爾頌精緻汽車旅館，擁有多種情趣休閒空間，『私密』、『浪漫』、『時尚』、匠心獨具的室內設計及造景，百變的渡假風格，最奢華的住宿休息。此外，還有為商務人士精心打造的『精品商務房』，以及適合親子住宿的『豪華家庭套房』，千萬裝潢，頂級享受，是本館的精心設計與服務，讓您擁有最舒適的住宿空間...本館客房均擁有42吋液晶電視、 浴室專屬20吋液晶電視、頂級VOD隨選系統、ADSL網路...等設備，且全館有全天候全頻反針孔偵測系統與一氧化碳偵測器，讓您充份安心、安全的享受渡假般的精緻空間，此外本館還引進世界級的KTV影音設備，搭配炫麗的聲光效果，讓您盡興歡唱，再加上E世代遊戲機Wii，提供您最優質的娛樂生活。,新北市樹林區中正路226號,新北市,樹林區,886-2-26751199,121.418776,25.006604,0.0,汽車旅館,W
名華大旅社,位於新北市的旅館,新北市三重區福德北路53巷1號,新北市,三重區,886-2-29754816,121.50247900000001,25.065202,,旅社,W
萬里情懷民宿,位於新北市的民宿,新北市萬里區萬里加投16之1號,新北市,萬里區,886-2-24986611,121.651127,25.210727,0.0,民宿,N
長緹海景飯店,位於新北市的旅館,新北市淡水區淡海路176號1至6樓,新北市,淡水區,886-2-28057228,121.42053899999999,25.184061,0.0,飯店/旅店,N
18個孩子民宿,位於新北市的民宿,新北市三芝區芝柏路97號,新北市,三芝區,886-2-26361104,121.51099099999999,25.256835,0.0,民宿,N
挪威森林精品SPA汽車旅館,挪威森林，新一代汽車旅館風格與設計潮流。耗資近六億，為新店首居一指的六星級精品SPA汽車旅館，建築風貌集結了休閒、時尚、精品、情趣、娛樂等眾多新穎元素，更著重優良品質的設備與嚴格規劃的客服，在精心巧妙的經營策略下，成為都會男女放鬆身心、沉澱心靈的絕佳場域。    不凡品味的設計建造、創新大膽的美學潮流，是引領時尚的必然結果。全館76間套房，風格迴異的12大類別、匠心獨具的39種風格。館內結合健身休閒腳踏車、抒壓按摩椅、浪漫情趣椅、激情小野馬、缸上抒壓SPA花灑、超大型幻彩氣泡湧泉石材浴缸、按摩浴缸等休閒設備，與WII、KTV、VOD、DVD等時尚娛樂元件，以展現豪華精品的時尚風貌震撼顧客的心，讓前來住宿休息的旅人擁有一個難忘的夜晚。館內也針對隔音與消防設備進行加強，讓人能在安全、隱密的休閒度假氛圍裡，盡情享受悠閒假期。    本館備有寬敞雅緻的餐廳提供豐盛精緻中西式早餐，享受全套設備的休閒住宿之後，前往寬敞雅緻的環境用餐，讓消費者有備受尊崇的感受，挪威森林精品SPA館用心，頂級設備，平價享受，是大台北地區最能讓您值回票價的頂級汽車旅館，將以最完善的服務品質，期待您的蒞臨。,新北市新店區寶橋路235巷15號,新北市,新店區,886-2-8911,121.550793,24.980826999999998,,汽車旅館,S
正德居民宿,位於新北市的民宿,新北市三峽區有木里145號,新北市,三峽區,886-939-139079,121.44489899999999,24.848732000000002,,民宿,S
探索汽車旅館永和館,位於新北市的旅館,新北市永和區保順路27及31號,新北市,永和區,886-2-22323103,121.50416799999999,25.009881,0.0,汽車旅館,W
御華山莊民宿,位於新北市的民宿,新北市瑞芳區八號巷23號,新北市,瑞芳區,886-2-24063731,121.841824,25.11024,,民宿,E
睡台北複合式旅店,位於新北市的旅館,新北市板橋區南雅南路一段8號5樓、5樓之1至5樓之24,新北市,板橋區,886-2-29655480,121.455904,25.006623,0.0,飯店/旅店,W
碧特弗大飯店,位於新北市的一般觀光旅館,新北市新店區太平路8號,新北市,新店區,886-2-86669999,121.53424,24.957908,0.0,飯店/旅店,S
白宮行館,《白宮行舘》海灘渡假村為台灣最近沙灘的渡假村，佔地約　1萬2000坪，經營者特地聘請國內外名師精心設計，採用純白歐式風格的外觀，與碧海藍天相互映襯，再加上南國椰影搖曳，置身其中，不知不覺就感受到輕鬆悠閒的度假氣氛，讓您立刻就想拋開工作壓力，忘卻俗世塵囂，馬上飛奔到《白宮行舘》，舒張解放沉重的身心！,新北市萬里區瑪鋉路264號1樓及262號,新北市,萬里區,886-2-24926768,121.690402,25.180397,0.0,飯店/旅店,N
藍海冠君大飯店,位於新北市的旅館,新北市板橋區重慶路91之1號3至7樓(1樓門廳),新北市,板橋區,886-2-89521111,121.46210400000001,25.005932,0.0,飯店/旅店,W
雪瓈花園汽車旅館,位於新北市土城區的旅館,新北市土城區中華路2段194號,新北市,土城區,886-2-22677899,121.43695600000001,24.971006,17.0,汽車旅館,W
散散步民宿,位於新北市的民宿,新北市瑞芳區洞頂路325號,新北市,瑞芳區,886-981-885933,121.858589,25.122584,,民宿,E
台麗精品旅店,位於新北市的旅館,新北市泰山區台麗街11巷1號1至5樓,新北市,泰山區,886-2-29025161,121.42441299999999,25.038408,0.0,飯店/旅店,W
璞真民宿,「台北金山民宿．璞真民宿」以「反璞歸真」為主要的設計理念，房間色彩多使用鵝黃、粉藍、粉紫等溫潤的馬卡龍色系，再搭配牆上塗鴉與懸掛的畫作，整體氣氛充滿童趣。而每個房間都附有採光明亮的大窗戶，站在窗邊眺望戶外的遼闊景色，悠閒自在的氣氛讓人把煩惱丟到九霄雲外去。,新北市金山區頂六股2之1號,新北市,金山區,886-2-24980082,121.61398899999999,25.22201,,民宿,N
歐遊國際連鎖精品旅館,有別於一般汽車旅館和飯店酒店浮誇的造型風格，或是標準化的房型設計，此次新莊館主打「藝術」與「設計」，在多達80間的客房中，沒有一間房間是同樣的房型，設計也全然不同。運用不同畫家、畫派、畫作以及生活中隨處可見的亮點，使客房不僅具有個別獨特的風格，藝術上的小巧思也將讓顧客感受到經營團隊的用心和「以客為尊」的服務態度。在公共空間的部份，8樓設有空中花園餐廳，濃厚的英式後工業風格以及獨步全台的空中走廊，讓顧客除了能享受頂級的用餐環境之外，更可踏出腳步站在玻璃走廊上欣賞腳下車水馬龍或遠處城市美景。新莊館為了將藝術結合自然環境，更是使用了許多半遮罩設計，不僅維護了客人隱私，更使自然光散入空間，打破傳統大家對汽車旅館的刻板印象。,新北市新莊區思源路746號,新北市,新莊區,886-2-85221100,121.460103,25.059801,0.0,飯店/旅店,W
中和旅舍,"由阿公開始的老賓館，歷經近50年的歲月流轉，老賓館不再是時代潮流的時尚，雖然在時代的洪流中暗淡落幕，但迎接的是新生的開始。1975年與2017年,新舊交替。保留傳統，加入創新。《中和旅舍》創立於1975年，2017年重新(心)出發。我們帶著與在地文化連結的使命感將承載舊時代溫度與蘊藏著歲月歷練的老公寓給予新的生命與定位，並為國內外的旅客提供合法、安全、乾淨、便宜的旅宿空間。","新北市中和區安樂路41號2,3-4樓及安和路1,3號3-4樓",新北市,中和區,886-2-29429386,121.51185500000001,24.993099,,旅社,W
承億文旅 淡水吹風,天藍水淡，再出發的旅圖繼｢嘉義商旅｣之後，在北台灣成立第二座美好旅店:承億文旅-淡水吹風。這是我們第一次背起行囊，離開家鄉，從嘉義商旅出發，抵達了令人無限嚮往的紅色城市。邁出去的第一步總是最讓人雀躍與期待，嘴角掛著甜美的微笑，愛流浪的詩藏在胖胖的雲後面，旅行的想像地圖，是藍的接近透明的藍天，沒有疆界。承億文旅-淡水吹風，繽紛登場。恣游，巷子裡的旅人渡口因為懂得旅人的心思，避開喧嚷的大街，將旅館大門開在安静的巷子裡。全景落地窗引日光入廳，廳廊宛如旅人啓程的渡船口。天花板的飄浮橢圓，波光粼粼、高高低低，堆砌出優雅與自由感兼具的立體空間。船型意象的櫃檯似一葉輕舟擺盪在河口與濕地之間，魚群貫游、紅樹林延伸，空間與自然融合出一幅深具地方感的新設計詩意。,新北市淡水區沙崙路27號,新北市,淡水區,886-2-28051212,121.42051200000002,25.180962,0.0,飯店/旅店,N
迎旭知旅民宿,位於新北市的民宿,新北市三芝區迎旭街55號,新北市,三芝區,886-2-86351207,121.51043,25.25741,0.0,民宿,N
唯愛汽車旅館,位於新北市的旅館,新北市新店區永業路46號,新北市,新店區,886-2-86661699,121.531446,24.954004,0.0,汽車旅館,S
台北輕旅複合式旅店,位於新北市的旅館,新北市板橋區館前東路13號4樓之2,新北市,板橋區,886-2-29515121,121.459878,25.007172,0.0,飯店/旅店,W
愛九份民宿,,新北市瑞芳區烏勢巷50號,新北市,瑞芳區,886-2-24652082,121.821092,25.103051999999998,,民宿,E
香香雙博士大旅社,位於新北市的旅館,新北市永和區竹林路73號5樓及8樓,新北市,永和區,886-2-89285168,121.51903100000001,25.013517,0.0,旅社,W
多桑的店民宿,位於新北市的民宿,新北市瑞芳區烏勢巷100號,新北市,瑞芳區,886-2-24061681,121.84593999999998,25.108037,,民宿,E
全家旅店,"全家商務旅店TEL/(02)8245-5151    FAX/(02)8245-9191235新北市中和區中和路59之1號http://hotel.family-tpe.com , email:service@family-tpe.com 　　台北『全家商務旅店』堪稱中和最平價的優質商務旅館，位於中和市中山路與中和路之商業中心，鄰近捷運景安站及永安站、太平洋SOGO百貨、環球購物中心、中和工業區、樂華及南勢角觀光夜市等商圈，交通便利。    　『全家商務旅店』擁有五十間寬敞舒適套房，獨特刷卡門禁上樓，安全、隱密。從床單到床俱、燈光到傢俱，我們用心去打造您一夜的好眠。高雅靜謐、溫馨親切、精緻浪漫是同等級飯店中的首選。對於公共安全、消防設備更是嚴格把關，全部採用合格防火、防焰建材，並定期檢修保養，領有飯店營業執照讓您高枕無憂。　　『全家商務旅店』位處於台北中和最精華之地段，交通、商務及娛樂、生活機能堪稱首選，捷運景安站，出口右邊轉乘1080、241、275、綠3.6.8公車至中和廟口站下車即可抵達本館。 　　『全家商務旅店』位於新北市中和區中和路59之1號，南來北往旅客於北二高中和交流道出口下直行經連城路至中和路口右轉左邊即達。安全、精緻的軟、硬體規劃；貼心、便利的設施與服務及全台北中和商務旅館最合理、物超所值的價位，絕對是您下塌中和洽商、旅遊的最佳選擇。即日起，預約訂房、簽約廠商，可享有優惠價。",新北市中和區中和路59之1號、59號5.6樓及9至11樓,新北市,中和區,886-2-82455151,121.50050300000001,25.001258,,飯店/旅店,W
夕說淡水,,新北市淡水區中正東路55號2樓,新北市,淡水區,886-956-686530,121.44655,25.168132999999997,,民宿,N
天馬民宿,,新北市瑞芳區新山路33號,新北市,瑞芳區,886-2-24962055,121.85278500000001,25.108968,,民宿,E
薆悅酒店野柳渡假館二館,薆悅酒店野柳渡假館座落於台灣北海岸觀光風景區，緊鄰地質公園與海洋世界，並禮聘紐約知名團隊Rockwell Group操刀設計，裝潢均採取原木色系營造舒適渡假氛圍，並處處可見現代經典巧思，是為北海岸渡假酒店之首選代表。入住薆悅酒店野柳渡假館，不需離開房間便能觀賞基隆嶼海天一色的絕美景觀，沿著野柳岬灣，欣賞大自然鬼斧神工般創造的奇岩地景；傍晚時分欣賞燈火通明的漁船搖曳在海平面上，等待漁獲滿載的豐收光景。薆悅酒店野柳渡假館以北海岸頂級飯店之最，為您呈現野柳在地漁人風情，並以樂活渡假之姿，打造多元活動及住宿體驗，邀您一同感受野柳薆悅的渡假態度。,新北市萬里區野柳里港東路162-3號,新北市,萬里區,886-2-77035777,121.690128,25.204291,,飯店/旅店,N
品川商旅板橋館,,新北市板橋區重慶路37之1號、37之1號2至6樓,新北市,板橋區,886-2-29548166,121.46080500000001,25.006010999999997,,飯店/旅店,W
幸福驛,,新北市瑞芳區輕便路8號,新北市,瑞芳區,886-938-915670,121.846727,25.111987,,民宿,E
熱門民宿,九份民宿- 熱門民宿坐落在風景優美的九份，享有山景並俯瞰大海。該民宿的空調客房配有免費無線網絡連接，距離九份老街有3分鐘的步行路程。九份民宿- 熱門民宿距離瑞芳火車站有15分鐘的車程，距離台北火車總站有40分鐘的車程，距離松山機場有50分鐘的車程。所有客房均設有有線電視以及帶淋浴、吹風機和免費洗浴用品的私人浴室。部分客房享有海景。客人可在屋頂區觀賞優美的景色。酒店提供摩托車租賃服務、觀光信息和免費停車位。,新北市瑞芳區街頂巷37號,新北市,瑞芳區,886-2-24063769,121.844844,25.107685999999998,0.0,民宿,E
金湧泉溫泉會館,金湧泉SPA溫泉會館，位於台灣新北市-北海岸金山萬里溫泉區，擁有非常珍貴且稀少的海洋海底溫泉、靜謐的環境以及悠閒的氛圍，提供給顧客的是最佳的泡湯享受。金湧泉的泉脈是來自海底深層的海底溫泉、海底溫泉為世界非常稀有的地質景觀資源，全世界僅有11個國家擁有海底溫泉，且取得溫泉標章之認證，金湧泉把這獨特的資源整合，加上新潁的設備，構成了一處千坪大的南洋式---主題式海洋露天溫泉風呂。    金湧泉同時擁有罕見的海洋溫泉與大屯山山泉水spa設施、自然泳池、露天海洋風呂、多樣花草浴、豐富美味的溫泉美食，以及舒適渡假套房，一次滿足您於假期的需求，給您絕佳的渡假環境，全然釋放您的身、心、靈，獻上最極致動人的溫泉饗宴。竭誠的歡迎您來趟金湧泉溫泉之旅吧！,新北市萬里區萬里加投213之3號,新北市,萬里區,886-2-24983588,121.643152,25.216053,0.0,飯店/旅店,N
巴拉卡民宿,位於新北市的民宿,新北市三芝區車埕18之3號,新北市,三芝區,886-2-26371411,121.525241,25.18609,,民宿,N
麗緹城市商務汽車旅店,位於新北市的旅館,新北市板橋區館前西路6號9樓,新北市,板橋區,886-2-89513619,121.45886200000001,25.007158999999998,0.0,飯店/旅店,W
堤畔溫泉民宿,線上訂房:www.myhotel.com.tw/springspa堤畔溫泉民宿位於新北市烏來，依山傍水風景秀麗，是通往烏來老街及內洞森林遊樂區等烏來著名景點的必經之路。民宿內隨處可見主人的巧思，無論是園藝造景或是玄關一隅都是匠心獨具，誠摯歡迎您來親身體會。堤畔溫泉民宿提供泡湯、用餐、住宿等服務。民宿內設有一近兩百坪之露天景觀咖啡座，緊鄰烏來景點洪荒峽和堰堤壩，提供給旅客們一欣賞烏來美景和乘涼休憩之處。景觀精緻湯屋及日式和風湯屋平均坪數在15坪以上，房間寬敞舒適，色調柔和，往窗外看去，烏來美景盡收眼底，適合全家旅遊居住。豪華麗景湯屋房間與湯池採1:1比例設計，湯池更有冷熱兩池可交替使用。泡湯的過程更可一攬烏來美景。房內採原住民風格設計，質感素雅，為適合兩人甜蜜度假的空間。,新北市烏來區新烏路5段66號,新北市,烏來區,886-2-26616168,121.547348,24.872989,0.0,民宿,S
輝明民宿,位於新北市的民宿,新北市瑞芳區汽車路35之1號,新北市,瑞芳區,886-2-24976488,121.84458799999999,25.109923000000002,,民宿,E
琚九屋民宿,座落九份中心，從車站到民宿步行約5分鐘，步行到老街3分鐘，可停2部小車，先到先停。房間相當大，活動空間佳。本民宿的特色是：凡住過本民宿的人，再次光臨機會相當大。,新北市瑞芳區輕便路121號,新北市,瑞芳區,886-90-8555958,121.84391200000002,25.109153,,民宿,E
十三層民宿,位於新北市的民宿,新北市瑞芳區長仁路36之2號,新北市,瑞芳區,886-928-511389,121.865647,25.117792,,民宿,E
日月民宿,位於新北市的民宿,新北市烏來區烏來里烏來街85巷1號,新北市,烏來區,886-2-26617705,121.551973,24.863972,,民宿,S
歐朋侖旅店,歐朋侖旅店位於中山路，在台灣銀行的樓上，享有淡水河、觀音山和日落的美景。距離淡水老街僅有 2 分鐘步行路程。若搭乘捷運，客人可以輕鬆抵達士林夜市、西門町、台北 101、象山和台北車站。旅館距離英專路夜市有 4 分鐘的步行路程，距離捷運淡水站有 6 分鐘的步行路程，且鄰近擁有 300 年歷史的淡水龍山寺。每間客房均設有大片窗戶、42 英吋的液晶電視和步入式淋浴間。也提供飲水機供客人在客房內享用咖啡和茶。為了客人的安全，館內設有 4 個門控系統和消防設施。如有任何疑問，接待櫃台友善的工作人員很樂意提供協助。,新北市淡水區中山路93號9樓及93-1號9樓,新北市,淡水區,886-2-26218333,121.442302,25.170475,,飯店/旅店,N
嶺腳火車站民宿,位於新北市的民宿,新北市平溪區嶺腳寮27號,新北市,平溪區,886-989-939705,121.74803100000001,25.03021,,民宿,E
安逸民宿,位於新北市的民宿,新北市瑞芳區輕便路117號,新北市,瑞芳區,886-2-24960967,121.84434099999999,25.10915,,民宿,E
悠然居民宿,位於新北市的民宿,新北市瑞芳區汽車路76號,新北市,瑞芳區,886-2-24063005,121.844939,25.11149,0.0,民宿,E
夾腳拖的家山居民宿,位於新北市的民宿,新北市瑞芳區基山街247號,新北市,瑞芳區,886-905-570688,121.84123500000001,25.107135,,民宿,E
美麗殿商旅,美麗殿城市商旅是美麗殿集團於2018年位於板橋府中捷運站全新打造的商旅品牌，以追求精緻細膩的設計感，及溫馨舒適的住宿感受為目標，不論是外觀、客房、早餐區、甚至是人員的專業及服務態度，美麗殿都再次在軟硬體中追求完美。並帶著集團全新口號-「心的態度」來呈現旗下所有品牌的專業。對於美麗殿而言，用心、細心、貼心、關心的態度，就是我們面對客人的全部。,新北市板橋區府中路67號2樓、5至10樓,新北市,板橋區,886-2-29698588,121.458033,25.009295,0.0,飯店/旅店,W
風尚休閒商務汽車旅館,位於新北市的旅館,新北市泰山區仁德路48號,新北市,泰山區,886-2-22970202,121.43443500000001,25.057178,0.0,汽車旅館,W
花菓山民宿,位於新北市的民宿,新北市石碇區烏塗里四分子8號,新北市,石碇區,886-2-26925252,121.66363799999999,24.963777,,民宿,E
平林農場民宿,位於新北市的民宿,新北市雙溪區外平林35號,新北市,雙溪區,886-2-24934016,121.853804,25.036888,,民宿,E
九份景棧民宿,位於新北市的民宿,新北市瑞芳區汽車路29號,新北市,瑞芳區,886-2-24062173,121.844609,25.10985,,民宿,E
美術行館民宿,位於新北市的民宿,新北市三芝區茂長里芝柏路38號,新北市,三芝區,886-2-26363466,121.510186,25.258476,0.0,民宿,N
秀山大飯店,位於新北市的旅館,新北市烏來區烏來街83號,新北市,烏來區,886-2-26616789,121.551769,24.864253,0.0,飯店/旅店,S
璞石麗緻溫泉會館,璞石雅境，山風雨露，氣氛萬千，由衷驚艷，懷古望今的沉靜；傾聽，我與山林的對話此刻，將沉降歸零。堰堤上的璞石麗緻溫泉會館，坐擁烏來絕佳的自然美景，飽覽雲霧繚繞之美，精緻典雅的渡假飯店。,新北市烏來區忠治里新烏路五段88號,新北市,烏來區,886-2-26618000,121.548002,24.871593,40.0,飯店/旅店,S
花蝶晶漾商旅（HOTEL）,位於新北市的旅館,新北市新莊區中港路572號1樓,新北市,新莊區,886-2-22779601,121.45148799999998,25.053349,0.0,飯店/旅店,W
施家民宿,位於新北市的民宿,新北市瑞芳區基山街106號2至3樓,新北市,瑞芳區,886-2-24969357,121.84409299999999,25.108575,0.0,民宿,E
驛德世紀酒店,在這充滿人文及歷史的城市中驛德世紀酒店在眾人引頸期待下隆重誕生運用專業的美學建築結合深厚飯店管理經驗我們珍惜每一次的相遇百款用心優雅對待專屬旅人的驛棧聚落品味人生 豐富回憶,新北市新莊區後港一路169號,新北市,新莊區,886-2-29086888,121.43216799999999,25.028475,,飯店/旅店,W
山明水舍民宿,位在新北市平溪/十分，鄰近雙溪、九份、福隆(貢寮)、到達平溪(十分車站)只需要約6分鐘的車程，山林也近在咫尺。在社會不斷變遷下，平/雙溪地區還保留著純樸優質的自然美景，瀰漫其中濃厚的家鄉味，令人彷彿回到四、五十年代的悠閒，不禁放慢腳步、放鬆心情，盡情沉醉在這時光隧道中的閒情～「山明水舍民宿」為登記合法之台北民宿，同時擁有魅力民宿&好客民宿的加冕;在先天的自然環境條件與民宿主人後天的細心構思下，民宿外有免費的停車場、設有烤肉區、生態池、紅心芭樂果園、小農場、還有新建好的玻璃屋，讓大夥們可以盡情的在此喝咖啡‧聊是非;泡茶‧賞星星;民宿旁還有一條清澈的小溪供大小朋友戲水遊憨。民宿內的鋪陳擺設都別具「家」的溫馨感，設有第四台、卡拉OK等娛樂設施，非常適合『三五好友』、『家庭』、『公司團體』共同出遊，享有溫馨與歡樂的優質渡假住宿。山明水舍的房型有家庭套房、雙人甜蜜套房、雙人精緻雅房、還有背包客及小資族最愛的通鋪。值得一提的是～有兩間雙人套房是有浴缸的;很適合新婚夫妻、老夫老妻或是男女朋友入住體驗喔! 另外，民宿除了提供完善的住宿服務，另有提供洗衣機、烘乾機及專車接送及預約付費等服務。請放慢您的步伐，用輕鬆愉快及享受Life 的身‧心‧靈 去感受旅行中的每一段歡樂趣味。★民宿包棟★包棟住宿依客人需求做規劃及計價，提供戶外瓦斯烤爐使用或代訂烤肉餐點均酌收場地清潔費，請來電洽詢。(含備品/單人床墊/早餐)【平日、假日定義】※平日：星期日至星期五※假日：星期六、國定假日及連續假日(星期五、星期日以假日計價)※過年及海洋音樂祭期間依原價計費,新北市雙溪區田寮9號,新北市,雙溪區,886-2-24933969,121.80605800000001,25.014185,,民宿,E
Q汽車旅館,Q.MOTEL 是台北縣土城市第一家進駐的七星級精品汽車旅館。Q .MOTE 結合了地方人文與自然生態。跳脫了封閉空間的束縛，因為Q MOTEL認為，有陽光、自然空氣，才能真正享受放鬆、浪漫的兩人世界，自然就會高潮迭起。此外，為了與地方特色結合，Q.MOTEL 秉持「透光，不曝光」的設計理念，規劃了十九款主題造型房間，在一千八百坪的土地上僅蓋37間房，因為有了充分空間，才能獨享私密花園，讓每一位來到這裡的貴賓在享受陽光與新鮮空氣之餘，也能抒解現代的工作壓力。,新北市土城區中華路1段56巷38號,新北市,土城區,886-2-22629999,121.444601,24.98979,30.0,汽車旅館,W
美麗殿精品汽車旅館,位於新北市的旅館,新北市中和區板南路487號,新北市,中和區,886-2-22226868,121.487976,25.006307999999997,96.0,汽車旅館,W
庭有名旅居文旅,位於新北市的旅館,新北市土城區中正路30號1至9樓,新北市,土城區,886-2-22619191,121.44339199999999,24.974949,0.0,飯店/旅店,W
東寶旅社,位於新北市的旅館,新北市三重區中興南街17號,新北市,三重區,886-2-29956417,121.469902,25.044985999999998,,旅社,W
慶都大旅社,位於新北市的旅館,新北市三重區重新路2段69及71號2樓,新北市,三重區,886-2-29712263,121.49665,25.062001000000002,0.0,旅社,W
馬克村莊民宿,位於新北市的民宿,新北市瑞芳區汽車路86號,新北市,瑞芳區,886-919-107323,121.844851,25.110805,0.0,民宿,E
菁鳥旅館,位於新北市的旅館,新北市板橋區南雅南路1段113及115號,新北市,板橋區,886-2-29669621,121.455396,25.004893,0.0,飯店/旅店,W
山水綠境,"山水綠境民宿位於雙溪上林里內平林6-1號，環山面水(鄰近平林溪)，生態豊富，優美庭園，附近有十分寮瀑布、草嶺古道、桃源古道、雙溪老街,鄰近福隆海水浴場，民宿備有卡拉OK，20坪大客廳，適合全家聚會，公司旅遊，歡迎有緣人電話訂宿！",新北市雙溪區內平林6之1號,新北市,雙溪區,886-2-24933638,121.83395300000001,25.030759,0.0,民宿,E
溫莎堡-香草花園民宿,位於新北市的民宿,新北市瑞芳區基山街62號,新北市,瑞芳區,886-930-824391,121.84531899999999,25.109072,0.0,民宿,E
宰相住宿會館民宿,位於新北市的民宿,新北市淡水區英專路79巷2號,新北市,淡水區,886-2-26295447,121.445399,25.171621,0.0,民宿,N
宏仁旅店,位於新北市的旅館,新北市中和區景新街391號2至5樓,新北市,中和區,886-2-29449985,121.51246299999998,24.990141,,飯店/旅店,W
雲山水小築民宿,雲山水小築位居於金瓜石、九份、水湳洞金三角的中心位置，是個喜歡散步的最佳旅遊點，沿山尖步道往上走1公里約30分鐘即可到達熱鬧的九份，沿山尖步道往下走1公里約15分鐘即可到達人人皆知的金瓜石黃金瀑布，散步約20分鐘即可到達金瓜石的黃金博物園區；爬爬小山也不錯喔!您可以選擇放空...清新的空氣.蟲鳴鳥叫聲...此時此刻放鬆心情的感覺真好!，徹底地放鬆自己，毌需遠赴海外跋山涉水，於此即可享受大自然的美妙!,新北市瑞芳區山尖路72之1號,新北市,瑞芳區,886-919-131846,121.85411,25.11512,0.0,民宿,E
祈堂小巷民宿,"現今社會繁華的城市忙碌的日子裡,讓許多人淡忘了寧靜的生活.祈堂小巷是位於祈堂老街上一間古色古香氛圍的咖啡廳,放下心事輕鬆喝著濃郁香氣的咖啡,靜靜的可聆聽到轟轟作響的內九份溪,老街一頭是勸濟堂另一端則可前往黃金博物園區,沿路欣賞這美麗山城像畫般的風景以及安逸的步調,放慢腳步呼吸著這乾淨的空氣,真讓人流連忘返啊~",新北市瑞芳區祈堂路148號,新北市,瑞芳區,886-921-642751,121.858598,25.109389999999998,,民宿,E
萬金銘珠溫泉民宿,位於新北市的民宿,新北市萬里區萬里加投45之8號,新北市,萬里區,886-2-24986166,121.641378,25.210325,0.0,民宿,N
山城別館民宿,位於新北市的民宿,新北市金山區名流路62號,新北市,金山區,886-2-24080860,121.599676,25.207062,0.0,民宿,N
艾蔓精緻旅館-淡水館,本旅館位於淡水.紅樹林捷運站旁，打造清新典雅的時尚建築風格.營造幻影燈光的夜景.藝文迎賓車道.五種等級乘六大主題的房型設計及星級飯店式管理，讓【艾蔓精緻旅館】不只是注重房間設計的旅館，讓旅客得到全方位的體會更添加趣味及休閒，運用嶄新的觀念創造活力的契機，為台灣旅館注入新的動力，並開創另一個新潮流。並因應淡水風景區.渡假.休憩.觀光形成，以普羅化、精緻化、國際化、提供國人渡假.休憩.觀光及聚會的絕佳去處。,新北市淡水區八勢一街83號,新北市,淡水區,886-2-88096789,121.46131399999999,25.154882,0.0,飯店/旅店,N
晴天二館,咖啡+餐館+民宿＝一直是晴天我們在台北松菸有可以吃飯的咖啡館，在瑞芳東北角有可以住宿的咖啡館。希望來造訪的朋友，不論好天氣、壞天氣，都能一直是晴天 喔。,新北市瑞芳區建基路二段27號,新北市,瑞芳區,886-2-24974115,121.806739,25.133878,,飯店/旅店,E
沃客商旅-正義館,沃客商旅-正義館座落於正義南路上僅靠中山高三重交流道5分鐘距離，交通便利四通八達，是地處三重鬧區喔！鄰近三重埔的三和夜市這裡是夜晚三重最熱鬧的地方，傍晚以後擠得水洩不通，尤其是賣服飾的攤販特別多，人車雜沓的景象和著攤販的叫賣聲，規模相當龐大，充滿了最道地的夜市氣息。在美食部分，這裡的豬腳、魚丸湯、蛋餅、脆腸、臭豆腐、木瓜牛奶、蝦仁羹、肉圓、蚵仔煎、魷魚羹等等都很受歡迎，而且價位比一橋之隔的臺北市更加實惠，非常適合老饕來這裡「挑戰」，試試從街頭吃到街尾的暢快樂趣。　　 然而房間設計舒適乾淨，提供舒適休閒的旅館空間，及十分完善的房間規劃，簡潔溫馨的平價住宿，房間內部設有乾淨典雅的擺設。,"新北市三重區正義南路55號5樓,5樓-1,5樓-2,6樓,6樓-1至-8",新北市,三重區,886-2-29706005,121.498227,25.060405,0.0,飯店/旅店,W
暮光民宿,,新北市金山區忠義路38號,新北市,金山區,886-938-382244,121.62905400000001,25.262125,,民宿,N
名爵汽車旅館,位於新北市的旅館,"新北市三重區正義北路73號1,4至7樓",新北市,三重區,886-2-29826145,121.49728,25.064789,0.0,汽車旅館,W
馥都飯店,位於新北市的旅館,新北市板橋區縣民大道1段189號,新北市,板橋區,886-2-29658008,121.458221,25.007611999999998,0.0,飯店/旅店,W
葛瑞絲商旅,位於新北市的旅館,新北市中和區中山路二段228號5樓,新北市,中和區,886-2-22483666,121.49910200000001,25.003007,16.0,飯店/旅店,W
伊士曼旅社,位於新北市的旅館,新北市新店區光明街34號,新北市,新店區,886-2-29111414,121.53841499999999,24.959001,,旅社,S
大板根渡假酒店,大板根新建國際酒店區，已經跟大家見面，交通部觀光局於102年4月23日核發大板根育樂事業股份有限公司國際觀光旅館業營業執照，使得「大板根渡假酒店」成為新北市第二家國際觀光旅館。酒店投資金額約數十億元，位於三峽區插角里79號，客房數共95間（單人房2間、雙人房87間及套房6間），附設有餐廳、會議廳、游泳池、溫泉套房、娛樂中心及健身房等設施，可供國內外企業辦理大型會議、展覽或員工進修，國內外旅客到此渡假，可充分享受三峽山區森林芬多精及泡湯等多元遊憩活動。酒店以日式低調華麗風做呈現，並於大廳室內及戶外廣場擺設雕塑大師王秀杞先生作品，酒店區的各項讓您處處驚喜！,新北市三峽區插角里插角79號,新北市,三峽區,886-2-26749228,121.407477,24.870884,,飯店/旅店,S
台北薇米商旅,"台北薇米商旅位於三重交流道下約10分鐘，緊鄰淡水河畔、位於民權西路過台北橋、重新路二段與正義南路/北路交叉口，結合最便捷的交通環境如機場，捷運，公車，火車。商圈有康是美、區臣氏、三和夜市、7-11、全家便利商店購物最方便。饕客最愛清水排骨、五燈獎豬腳飯、老街義式廚房，旺角石頭火鍋。結合了食衣住行最方便的商旅,是你休假出差住宿最佳選擇。",新北市三重區重新路2段78號16至17樓,新北市,三重區,886-2-29746636,121.49716699999999,25.061757,0.0,飯店/旅店,W
地球人戶外休閒家民宿,位於新北市的民宿,新北市貢寮區福隆街16號,新北市,貢寮區,886-2-24991372,121.94271200000001,25.016385999999997,0.0,民宿,E
旅途中海畔民宿,位於新北市的民宿,新北市三芝區後厝里土地公坑54之6號3樓,新北市,三芝區,886-952-830115,121.46669399999999,25.24999,,民宿,N
SINGLEINN 單人房-台北館,位於新北市的旅館,新北市板橋區府後街6號3至6樓,新北市,板橋區,886-2-29691777,121.45893500000001,25.010382999999997,0.0,飯店/旅店,W
九窩民宿,,新北市瑞芳區基山街54之1號,新北市,瑞芳區,886-2-24063568,121.844866,25.108417000000003,,民宿,E
憩園民宿,位於新北市的民宿,新北市萬里區愛二街24號,新北市,萬里區,886-2-24921656,121.68368799999999,25.178191,0.0,民宿,N
烏來大飯店,位於新北市的旅館,新北市烏來區烏來街8號,新北市,烏來區,886-2-26616445,121.551594,24.864282,0.0,飯店/旅店,S
豪華旅社,位於新北市的旅館,新北市樹林區鎮前街77之10號,新北市,樹林區,886-2-26861477,121.42557099999999,24.990515,,旅社,W
記憶九份民宿,記憶九份保留原本的自然石頭外牆  而內部裝飾也以自然材料漂流木 紅磚 老門舊時代的玻璃燈混搭 屋頂開了天窗 讓陽光直洩而下整個室內的空間是混搭的風格 加上優美的音樂 在這裡頓時失去時間感 和暫時遺忘過往的輕鬆 在這裡我們刻意不放電視 放了我們收藏的CD  開啟你心靈對話的時刻,新北市瑞芳區豎崎路8號,新北市,瑞芳區,886-931-365485,121.843263,25.109399,,民宿,E
金莎旗艦汽車旅館,位於新北市的旅館,新北市樹林區學成路468號及大義路36號,新北市,樹林區,886-2-89700189,121.37888400000001,24.944468,0.0,汽車旅館,W
相見歡旅館,位於新北市的旅館,新北市永和區永和路1段23號1至3樓,新北市,永和區,886-2-29276188,121.512874,25.005893,0.0,旅社,W
福格大飯店,在福格大飯店感受淡水清晨的寧靜、淡水河口黃昏的夕照美景以及在地的人文氣息。供商旅或短暫休憩的尊貴服務，離開都市的煩囂，置身海闊天空的休閒空間，無比用心地提供您最貼心的服務，並為您帶來愉悅、歡樂知性的淡水旅遊。處於大屯山、觀音山、淡水河口夕陽所包圍的位置，眺望之景色美不勝收！緊臨淡江大學、鄞山寺古廟、淡水老街等著名景點，飯店內設施完善，是溫馨雅緻的渡假、休憩、宴會、辦公最佳場所，歡迎您的蒞臨。,新北市淡水區學府路89號5至16樓,新北市,淡水區,886-2-26262929,121.445757,25.17041,0.0,飯店/旅店,N
微風景觀民宿,,新北市瑞芳區頌德里石埤巷63號,新北市,瑞芳區,886-2-24965160,121.83775700000001,25.111225,,民宿,E
快樂旅社,位於新北市的旅館,新北市新店區寶元路1段1號,新北市,新店區,886-2-29112077,121.54121799999999,24.987403,,旅社,S
沃客新舍旅社,位於新北市的旅館,新北市三重區成功路97號6至7樓,新北市,三重區,886-2-29701533,121.48809299999999,25.051517,0.0,旅社,W
未央居景觀民宿,位於新北市的民宿,新北市瑞芳區輕便路1之1號,新北市,瑞芳區,886-932-684356,121.84693,25.111644000000002,0.0,民宿,E
雙臻園民宿,民宿網址連結：http://twobest.okgo.tw/雙溪是兩條溪水匯集之山水城，全區為水源水質保護區，無似鄰近的金瓜石、九份、平溪、福隆等觀光風景區的繁華艷麗，核心的旅遊價值是隱藏在河川與山巒的對話裡；雙臻園園區為苕谷溪兩流匯集處，且子女皆有臻名，取小雙溪優勝美地及子女成雙合作之意；希旅客能享受平安寧靜、健康城市、樸實鄉情。經營團隊有5張餐飲證照，早餐以自種有機蔬果與雙溪特產之中西菜色多元呈現。米黃抿石子的外觀‧四周內縮陽台，係通風採光的綠建築，在被青山綠水懷抱的亭仔腳裡品茗用餐，白鷺絲、藍鵲一群群飛來，呢喃又啁恘。凝賞青山綠溪，陽光揮灑中，掌握人生願景希望。民宿位於2樓，有5個房間的許可，房型、房號定位精準並揭示面積，客房於木質地板上再鋪原木床，營造舒適的和式風，鼓勵赤腳，並提供親子安全的遊憩環境。以原石堆疊的園區溪畔，讓雨水能自然由綠色海綿吸收，與草木、土壤、自然平衡，保留自然湧泉之生態池，尊重生物多樣性；具導遊、領隊、導覽身分的民宿主人全家願與您共同體驗小雙溪之美。,新北市雙溪區泰和街53之1號,新北市,雙溪區,886-2-24934698,121.858167,25.030444,,民宿,E
金湯溫泉會館,位於新北市的旅館,新北市萬里區萬里區大鵬里萬里加投路197之5號2樓,新北市,萬里區,886-2-24988788,121.64423500000001,25.214957000000002,0.0,飯店/旅店,N
紫虹汽車旅館,"紫虹汽車旅館以感動為出發,遊走浪漫空間.在喧囂的都市叢林中,這是一處隱密的世外桃源,不論是時尚.奢華.養生.SPA的風格,都讓忙碌的戀侶能夠敞開心房,盡情享受激情的擁抱.想要給對方從未體驗過的感官之旅嗎? [摩根時尚溫泉旅館]將是點燃對方愛慾的最佳去處.景態優雅,情趣風靡走進摩根時尚溫泉旅館,進入眼簾的一石.一磚.一草.一木,均代表著摩登.活潑.感性與獨特,在北台灣寸土寸金之地,完全不考慮成本,釋放出絕無僅有的超大空間,每房至少15坪以上到50坪住宿空間,在繁忙緊張生活環境中,可以慢慢地探索,解放彼此的私密極限.八種不同風格的房型,讓愛侶沉浸在甜蜜與激情中,跳脫一般傳統浴室,如夢四似幻的浴缸設計,在水世界中體驗水乳交融的動感情懷,每房均附彩繪按摩浴缸.花灑.水循環造景,來摩根享受美人湯溫泉.黃金雨淋.SPA,讓您倆在水中享受一絲不掛的遐想世界.",新北市蘆洲區中正路367號,新北市,蘆洲區,886-2-22887000,121.46498500000001,25.090231,0.0,汽車旅館,W
怡美賓館,位於新北市的旅館,新北市金山區民生路206號,新北市,金山區,886-2-24982212,121.640948,25.220831,,旅社,N
台北新板希爾頓酒店,台北新板希爾頓為新北市板橋區國際連鎖酒店，致力豎立高標準及高水平的品質傳遞給世界旅人一致的服務氛圍。由建築名師李祖原設計，以天燈印象傳遞希望及光明意念佇立在新板特區上，且鄰近五鐵共構板橋站，讓旅人們就像天燈一樣可自在的環遊台灣或飛往下個目的地。台北新板希爾頓為全方位型酒店，健身房、露天泳池、會議室一應具備，不論是商務旅行、家庭旅遊、度假放空都能滿足您所需要的一切，創造美好的旅宿經驗，讓旅客在此展開對台灣美好旅程。,新北市板橋區民權路88號、88號(2至31樓)、90號,新北市,板橋區,886-2-29583000,121.460801,25.012057000000002,1401.0,飯店/旅店,W
水田園農莊民宿,位於新北市的民宿,新北市萬里區萬里加投45之9號,新北市,萬里區,886-2-24980899,121.640868,25.211089,0.0,民宿,N
夢綺旅店,位於新北市的旅館,新北市板橋區西門街20號1至4樓,新北市,板橋區,886-2-29600888,121.453753,25.010996,0.0,飯店/旅店,W
丹鳳大旅館,新莊迴龍地區最平價的價格與舒適的環境設備等，皆經過最嚴格的審視。全棟免費Wi-Fi無線上網及全新寢具用品與設備。客房內有高清電視訊號，週邊有輔大夜市可逛，擁合法執照與提供無障礙空間與電梯出入，週邊有麥當勞、輔大，鄰近迴龍捷運站出口交通方便。,新北市新莊區中正路740之4號1至5樓,新北市,新莊區,886-2-29071188,121.414588,25.023197,1.0,飯店/旅店,W
大坪山莊民宿,位於新北市的民宿,新北市萬里區雙興里坑頭6號,新北市,萬里區,886-2-77207721,121.63493400000002,25.171043,0.0,民宿,N
白沙啾啾,,新北市石門區德茂八甲１之５號,新北市,石門區,886-9-09629815,121.518841,25.283382,,民宿,N
龍山旅社,位於新北市的旅館,新北市新店區光明街52號,新北市,新店區,886-2-29111800,121.538625,24.959475,,旅社,S
我們的家187民宿,白色波浪圍牆和飛舞的白花 在我們的家院子裡 您可以享用美食美景及鄉下的新鮮空氣 黑頂白牆的襯托之下 金瓜石的天空得到了不同的詮釋不管是晴天 雨天 還是被濃濃白霧包覆的金瓜石 都像在述說著不同的故事 也許氛圍不盡相同 但都充滿詩意 歡迎您一同共享。,新北市瑞芳區山尖路187號,新北市,瑞芳區,886-2-24962628,121.85141399999999,25.111972,10.0,民宿,E
陽明山天籟渡假酒店,陽明山天籟渡假酒店擁有北台灣最大近2000坪湧泉樂園，為PH值介於5~6的純淨弱酸泉，舒緩坐臥在溫暖的泉水中，毫無束縛地讓柔軟的波浪將身心的疲憊與壓力全都帶走，原石砌製的寬敞浴池，群山環繞，潺潺的水聲、清新悅耳的蟲鳴鳥叫，使您舒展疲憊的身心時感到分外享受。炎夏天籟滑水道與戲水區更是孩子們的天堂，廣闊的腹地讓孩子們可以盡情奔跑沉浸於大自然中，遠離城市牢籠與3C用品，拉近與家人間的距離，另規劃館外遊程溯溪與衝浪等豐富動態體驗，夏季入住陽明山天籟白天暢遊歡樂，夜晚在群山簇擁中享受靜思溫泉的身心靈療癒饗宴，四季都可享受天籟的湯泉魅力。融和天地人三要素的養生概念，將美學回歸最原始的自然設計理念，簡約現代設計風格融入陽明山在地風情，展現出陽明山天籟渡假酒店獨特自然風情，在陽明山青鬱的山稜之下，天籟成為全台灣最大的湯泉主題渡假設計旅店，提供四季奢華渡假的最佳去處。,新北市金山區名流路1之7號,新北市,金山區,886-2-24080400,121.594999,25.201883,154.0,飯店/旅店,N
美麗心精品汽車旅館,位於新北市的旅館,新北市新莊區新樹路242號,新北市,新莊區,886-2-22051111,121.43293100000001,25.018673,0.0,汽車旅館,W
馥俐商旅,旅館座落於金融商業區、精品購物圈以及文化藝術中心的-板橋區，緊臨捷運板南線-府中站1號出口，毗鄰三鐵共構的-板橋火車站，距離知名的南雅南路-觀光夜市，僅在周邊。民生便利、交通快捷，成為眾多旅客遊人來到新北市時，精選留宿旅館之一。既有的溫馨優雅氛圍下，馥麗商旅仍不斷的呈現新活力與新創意，提供每位貴賓享有合法安全的環境、齊全新穎的設備及專業貼心的服務，希望讓每位旅人有賓至如歸的接待及舒適溫暖的感受。,新北市板橋區東門街36之5號,新北市,板橋區,886-2-29679008,121.45811599999999,25.007901,0.0,飯店/旅店,W
九份望琴海景觀民宿,位居九份山城最高點 福山宮旁 可以全覽山城美景及海景5 -8月 可以看日出及落日 2-4月 經常可以欣賞雲海走到九份老街約10分鐘 停車方便每間房皆可看海喔,新北市瑞芳區崙頂路4之1號,新北市,瑞芳區,886-2-24969454,121.846299,25.10746,0.0,民宿,E
一畝田民宿,位於新北市的民宿,新北市三芝區茂長里陳厝坑19之2號,新北市,三芝區,886-932-519520,121.518745,25.254254,0.0,民宿,N
薇薇精品旅館,位於新北市的旅館,新北市蘆洲區永安北路2段42之1號,新北市,蘆洲區,886-2-82856633,121.48233300000001,25.082416000000002,0.0,飯店/旅店,W
玉山居,,新北市鶯歌區文化路226巷4號,新北市,鶯歌區,886-2-26780231,121.352033,24.948675,,民宿,W
足立司拉,,新北市烏來區新烏路五段91號,新北市,烏來區,886-955-736371,121.54773,24.872729,,飯店/旅店,S
旅晨民宿,,新北市烏來區烏來里14鄰西羅岸路37號,新北市,烏來區,886-2-26616658,121.547564,24.865714999999998,,民宿,S
九份藍山朝夏,,新北市瑞芳區輕便路216之2號,新北市,瑞芳區,886-920-124861,121.845054,25.109499,,民宿,E
捷絲旅台北三重館,,新北市三重區新北市三重區三和路4段107-1號,新北市,三重區,886-2-22806111,121.487489,25.077348999999998,,飯店/旅店,W
F商旅台北蘆洲館,F HOTEL台北蘆洲館座落於新北市蘆洲區，緊鄰徐匯廣場及徐匯中學捷運站，外觀建築以全白色系打造清新、舒適之都會型旅館，飯店擁有67間客房，各式房型寬敞舒適、設備齊全，另外還提供給旅人們經濟、實惠的背包客房型，均能符合每位旅客的不同需求；飯店距離捷運站只要步行1分鐘、高速公路三重交流道只要開車6分鐘，到台北市各旅遊景點交通便捷，便利的地緣性是您觀光旅遊及差旅洽公的首選，歡迎您來體驗舒適便捷的悠閒住宿時光！,新北市蘆洲區集賢路409號2樓(1層)、3樓至9樓,新北市,蘆洲區,886-2-22892299,121.48053700000001,25.081309,54.0,飯店/旅店,W
將捷金鬱金香酒店,「將捷金鬱金香酒店」為北台灣國際型渡假酒店，引進國際酒店的管理服務，具備專業品質與精緻度，規劃有五種主題、六種房型，一共175間的黃金水岸套房，視野遼闊、將美景融入房內，飽覽淡水美麗四季變化與日出、夕陽景致。除了住宿外，酒店還規劃有可容納500人的多功能展覽空間，可供企業公司舉辦大小型各式聚會、會議與教育訓練使用。,新北市淡水區中正路一段2號,新北市,淡水區,886-2-26210333,121.428846,25.175667,454.0,飯店/旅店,N
私客創旅,,新北市鶯歌區尖山埔路89號及89號3樓,新北市,鶯歌區,886-2-26798789,121.347625,24.950975,,飯店/旅店,W
金漫民宿,,新北市瑞芳區銅山里祈堂路197號,新北市,瑞芳區,886-988-266752,121.8573,25.10899,,民宿,E
酒內民宿,"『酒內民宿』於108年8月取得合法民宿資格，位於南港與汐止交界鄰近中央研究院的一個安靜別墅社區內，社區提供免費巴士定時定點往返南港展覽館捷運站，若您是自駕蒞臨，『酒內民宿』備有專屬免費停車位。客房皆有兼具採光與通風的對外窗以獨立衛浴，設偵煙器及二氧化碳偵測器為安全把關。有別於飯店仰賴空調系統，我們不是在吵雜的市區，不須擔心髒空氣及噪音，客房的三面採光對外窗戶可以放心地打開讓自然的風及光線進入房間，所以我們的客房特色就是~會呼吸的房間喔!我們希望您在旅途中一定要有良好的睡眠品質才有充沛的活力，提供的大坪數家庭房以及免費停車位，加上平易近人的價位很適合全家住宿喔! 我的父親與我的先生及我甚至我女兒幾乎全家都從事飯店業，所以在消防安全、公共衛生上耳濡目染，再加上自己也住在這棟透天厝裡，不只是自己住得安全也讓客人住得安心是我們首要的要求。 如何從桃園國際機場到我們家?*機場巴士國光號#1843機場巴士經四個停靠站(第一航廈2月台、第二航廈3月台、瑞光路、內湖行政中心、捷運南港展覽館站下車)，約需1至1.5小時，房東於下車處接駁 *機場捷運搭至台北車站(直達車約37分鐘/普通車約50分鐘)，再由台北車站轉乘捷運藍線至捷運南港展覽館站約25分鐘，房東於捷運5號出口接駁 *桃園高鐵站搭乘高鐵至高鐵南港站約30~35分鐘，房東於南港站出口(南1B)接駁 如何從松山機場到我們家?*捷運松山機場站搭乘捷運文湖線至捷運南港展覽館站下車，房東於捷運5號出口接駁 *自行開車(免費停車位) 完成訂房後即可連絡房東取得詳細地址，請定位導航後保持聯繫即可食: 中研院微風美饌~距離我們社區最近,搭乘免費社區巴士只要3分鐘,以美食街的方式,食物選擇性多元化,環境整潔舒適,餐畢還能在中研院區裡悠閒散步 南港軟體園區~開車10分鐘可達 深坑老街~開車15分鐘可達 饒河街觀光夜市~開車15分鐘可達 玩: 白雲公園(小朋友的玩樂天堂)~走路12分鐘/開車4分鐘可達 南港City Link~開車7分鐘可達 市政府信義商圈~捷運10分鐘可達 松山文創園區~開車14分鐘可達 東區商圈~捷運16分鐘可達 西門町商圈~捷運28分鐘可達 大直美麗華商圈~捷運32分鐘可達客房設備：免費WiFi空調除濕機有線電視變頻小冰箱快煮壺BRITA濾水壺負離子吹風機洗髮/護髮/沐浴乳毛巾/浴巾嬰兒澡盆USB充電孔醫藥箱",新北市汐止區福山里國興街21巷13號,新北市,汐止區,886-2-26608500,121.62113500000001,25.04605,,民宿,E
神隱國度民宿,,新北市瑞芳區崙頂路90號,新北市,瑞芳區,886-905-788650,121.843898,25.107533,,民宿,E
夜海民宿,,新北市瑞芳區崇文里汽車路79號,新北市,瑞芳區,886-9-21642675,121.84381,25.10952,,民宿,E
漫山逸旅,,新北市瑞芳區竪崎路1之1號,新北市,瑞芳區,886-929-990407,121.843442,25.107785999999997,,飯店/旅店,E
花宅伍柒民宿,,新北市瑞芳區竪崎路57號,新北市,瑞芳區,886-2-24970956,121.843251,25.109356,,民宿,E
淡水集遊客棧,,新北市淡水區中正路1段37號2樓,新北市,淡水區,886-902-291063,121.425661,25.176453,,背包客棧,N
十分背包客棧,,新北市平溪區十分街235號第1層,新北市,平溪區,886-933-130209,121.777543,25.044492,,背包客棧,E
由賢民宿,,新北市淡水區中和里3鄰小中寮19-11號,新北市,淡水區,886-936-180939,121.485665,25.228064,,民宿,N
尋民宿,,新北市瑞芳區民生街30巷27號,新北市,瑞芳區,886-2-24972075,121.80568899999999,25.107142,,民宿,E
玫瑰山城,,新北市瑞芳區洞頂路155之1號,新北市,瑞芳區,886-2-24961818,121.861328,25.122037,,民宿,E
愉園,,新北市瑞芳區民權街鐵路巷3之1號,新北市,瑞芳區,886-9-03355188,121.807813,25.108273,,民宿,E
九份小喵喵民宿,,新北市瑞芳區街頂巷29號,新北市,瑞芳區,886-9-55984367,121.844945,25.107667000000003,,民宿,E
吉谷民宿,,新北市瑞芳區佛堂巷21號,新北市,瑞芳區,886-9-33934627,121.84172,25.106384,,民宿,E
九份望山居,,新北市瑞芳區佛堂巷64號,新北市,瑞芳區,886-9-20061429,121.84172,25.106384,,民宿,E
帝景飯店,座落於新北市新店區碧潭旁的【新店碧潭．帝景飯店】，「文藝復興」為十四至十七世紀於歐洲興起的一個思想文化運動，承襲古希臘羅馬傳統文化；帶來一段科學與藝術革命時期，「承先啟後」的新時代創新意義。文藝復興揭開現代歐洲歷史序幕，奠定現代科學及文明昌盛之基礎，亦象徵觀光旅遊市場及文化創意產業，雙雙注入一股前所未有之新流。以【復刻經典－歐洲文藝復興】為設計主軸，採用歐洲文藝復興所倡導之「人文主義思想」，集結十四世紀至十七世紀之藝術、戲劇、文學、科學、哲學等領域之核心作品帶入整體飯店設計，形塑歐洲當代經典藝文氛圍。走進飯店大廳，迎面感受歐洲文藝復興場景之磅礡氣勢；入宿主題客房，面潭第一排之青山綠水絕美景致，輔以文藝復興當代各領域之經典鉅作，重現富麗堂皇的休憩殿堂。古典歐式，交通便利，奢華風格，碧潭絕美景色盡收眼底!新店碧潭區域飯店、住宿首選!成為本地最具代表的指標飯店!,新北市新店區碧潭路77巷2號,新北市,新店區,886-2-82121100,121.53428600000001,24.957527,39.0,飯店/旅店,S
旅人客棧,,新北市瑞芳區民生街34號,新北市,瑞芳區,886-916-937187,121.805654,25.107031,,背包客棧,E
傑仕堡商旅-板橋館,緊鄰新北市板橋區熱鬧地段，周邊靠近中山國中文教區以及生活機能便利圈，藝文活動包含每年新北市政府耶誕城盛會、新北435藝文特區，為國內外自由行或商務旅客首選。隱身於喧囂城市的秘境，健康、樂活心態度，從視覺、嗅覺到觸覺帶給人舒適放鬆。全館187間客房，非傳統式的雙面開放衣櫃，採光通透的空間全心享受無憂自在的美妙之旅。,新北市板橋區縣民大道2段275號、275號2至17樓、277號2樓,新北市,板橋區,886-2-77273000,121.46958000000001,25.018079999999998,194.0,飯店/旅店,W
木質棧民宿,,新北市瑞芳區五號路83號,新北市,瑞芳區,886-916-652601,121.855616,25.110864000000003,,民宿,E
歐夫寇斯,,新北市貢寮區龍洞街1號(第1層),新北市,貢寮區,886-9-73868882,121.91588999999999,25.110748,,背包客棧,E
食字客棧,,新北市瑞芳區五號路137號(第2層),新北市,瑞芳區,886-2-24966058,121.855033,25.110851999999998,,民宿,E
九份海灣民宿,,新北市瑞芳區崇文里街頂巷35號,新北市,瑞芳區,886-936-361406,121.84491899999999,25.107689,,民宿,E
海比樂民宿,,新北市貢寮區東興街106巷25弄5號,新北市,貢寮區,886-911-037272,121.946026,25.0178,,民宿,E
